{"type":"FeatureCollection","features":[{"type":"Feature","geometry":{"type":"Polygon","coordinates":[[[74.2684,30.1283],[74.2597,30.0757],[74.2441,30.0756],[74.2281,30.0355],[74.2371,30.0348],[74.2423,30.0387],[74.2737,30.0356],[74.3036,30.0343],[74.3077,30.0276],[74.3126,30.0082],[74.341,29.9772],[74.3201,29.9696],[74.3183,29.9546],[74.4319,29.9487],[74.4097,29.982],[74.395,30.0152],[74.4014,30.0374],[74.3817,30.0568],[74.3351,30.0629],[74.3144,30.0688],[74.3064,30.0842],[74.3094,30.1128],[74.3091,30.1253],[74.2684,30.1283]]]},"properties":{"id":"abohar-wls","name":"Abohar Wildlife Sanctuary","category":"wls","area_km2":186.5}}]}