{"type":"FeatureCollection","features":[{"type":"Feature","geometry":{"type":"Polygon","coordinates":[[[74.5845,29.8814],[74.5734,29.8751],[74.5609,29.8708],[74.5579,29.8624],[74.5458,29.8457],[74.5391,29.8406],[74.5299,29.8376],[74.5079,29.8331],[74.4991,29.8271],[74.4845,29.8143],[74.4789,29.8032],[74.4737,29.7867],[74.4738,29.7684],[74.477,29.7541],[74.4773,29.7454],[74.4804,29.7435],[74.4916,29.7435],[74.52,29.7401],[74.535,29.7408],[74.5407,29.749],[74.5464,29.7531],[74.5625,29.7556],[74.5774,29.754],[74.5752,29.7502],[74.5813,29.7524],[74.5873,29.7669],[74.601,29.766],[74.6032,29.758],[74.6161,29.7522],[74.6255,29.7528],[74.6397,29.7504],[74.6683,29.7609],[74.6736,29.7655],[74.6809,29.7755],[74.6867,29.7897],[74.6978,29.7984],[74.7059,29.8079],[74.7063,29.8124],[74.7001,29.8278],[74.6997,29.8392],[74.7037,29.8528],[74.7032,29.8643],[74.7043,29.8734],[74.699,29.8785],[74.6815,29.8707],[74.6612,29.8703],[74.655,29.8723],[74.6516,29.8787],[74.6498,29.8879],[74.6524,29.9053],[74.6469,29.9044],[74.6292,29.9051],[74.6222,29.9075],[74.5967,29.9123],[74.5882,29.918],[74.5845,29.8814]]]},"properties":{"id":"abubshehar-wls","name":"Abubshehar Wildlife Sanctuary","category":"wls","area_km2":115.3}}]}