{"type":"FeatureCollection","features":[{"type":"Feature","geometry":{"type":"Polygon","coordinates":[[[81.6227,22.5387],[81.6228,22.5316],[81.6172,22.5245],[81.6133,22.5148],[81.6128,22.5069],[81.6077,22.4981],[81.6133,22.4886],[81.613,22.4855],[81.6049,22.484],[81.6089,22.4739],[81.612,22.4598],[81.6197,22.4504],[81.619,22.4428],[81.6114,22.4272],[81.6159,22.4233],[81.6257,22.4285],[81.6315,22.4265],[81.6297,22.421],[81.6347,22.418],[81.6393,22.4242],[81.636,22.4161],[81.6413,22.4125],[81.6398,22.4102],[81.6327,22.4109],[81.6311,22.4067],[81.6263,22.4069],[81.6308,22.4024],[81.6351,22.4068],[81.6431,22.4053],[81.647,22.4087],[81.6496,22.4047],[81.6589,22.4066],[81.664,22.4043],[81.6766,22.4031],[81.6814,22.3995],[81.6853,22.3907],[81.6882,22.3889],[81.6987,22.3894],[81.7035,22.3861],[81.7134,22.3873],[81.7159,22.3848],[81.7153,22.3778],[81.7257,22.3776],[81.7395,22.3653],[81.7414,22.3534],[81.7453,22.3464],[81.7523,22.3461],[81.7719,22.3389],[81.7816,22.3437],[81.7932,22.3424],[81.8044,22.3397],[81.8079,22.3361],[81.8137,22.3385],[81.8171,22.3483],[81.8252,22.3546],[81.8408,22.3526],[81.8434,22.3538],[81.8462,22.3656],[81.8528,22.3706],[81.8517,22.3774],[81.8611,22.3822],[81.8648,22.3876],[81.8666,22.3987],[81.8666,22.409],[81.8757,22.4082],[81.8876,22.4182],[81.888,22.4243],[81.8912,22.4265],[81.906,22.4259],[81.9081,22.4238],[81.9164,22.4239],[81.9081,22.4401],[81.899,22.4451],[81.9008,22.4533],[81.8973,22.4579],[81.9086,22.4629],[81.9023,22.4715],[81.9024,22.4799],[81.8995,22.4832],[81.8776,22.4875],[81.8659,22.4936],[81.8569,22.5034],[81.8408,22.5086],[81.8364,22.5171],[81.8321,22.5339],[81.8355,22.5416],[81.8351,22.5583],[81.833,22.5656],[81.8357,22.5712],[81.8286,22.5714],[81.8282,22.5778],[81.8252,22.575],[81.8136,22.5747],[81.8106,22.5713],[81.8029,22.57],[81.8002,22.5634],[81.794,22.5687],[81.7849,22.5681],[81.7796,22.5583],[81.7727,22.5567],[81.7686,22.5592],[81.7544,22.5575],[81.751,22.5627],[81.7353,22.5641],[81.7262,22.5603],[81.7118,22.5601],[81.7064,22.5576],[81.6958,22.5569],[81.6907,22.5547],[81.6813,22.5545],[81.6644,22.5507],[81.6533,22.5526],[81.6403,22.5509],[81.6271,22.5559],[81.625,22.5528],[81.6287,22.5444],[81.6227,22.5387]]]},"properties":{"id":"achanakmar-amarkantak-br","name":"Achanakmar-Amarkantak Biosphere Reserve","category":"br","area_km2":3836}}]}