{"type":"FeatureCollection","features":[{"type":"Feature","geometry":{"type":"MultiPolygon","coordinates":[[[[77.439,8.6463],[77.43,8.6419],[77.4214,8.6422],[77.4105,8.6511],[77.4065,8.6475],[77.4042,8.6351],[77.4041,8.627],[77.4117,8.6206],[77.4146,8.6143],[77.4216,8.6128],[77.4282,8.6068],[77.4356,8.5916],[77.4384,8.591],[77.4367,8.5776],[77.4333,8.5693],[77.4281,8.562],[77.4063,8.5404],[77.4067,8.5347],[77.4135,8.5281],[77.4191,8.5256],[77.4175,8.5132],[77.43,8.5078],[77.445,8.4982],[77.4483,8.4853],[77.4459,8.4791],[77.4462,8.4722],[77.46,8.4662],[77.4659,8.4665],[77.4658,8.4603],[77.4714,8.4539],[77.4716,8.4486],[77.4643,8.439],[77.4667,8.4199],[77.4738,8.4098],[77.4728,8.4051],[77.4754,8.3954],[77.487,8.388],[77.4909,8.3798],[77.5008,8.3791],[77.5081,8.3839],[77.5237,8.3829],[77.532,8.3911],[77.5407,8.3844],[77.5427,8.3767],[77.5384,8.373],[77.5357,8.3625],[77.5408,8.3625],[77.5467,8.3823],[77.5472,8.3905],[77.5592,8.3941],[77.562,8.3971],[77.5613,8.4101],[77.5533,8.4176],[77.5481,8.4183],[77.5334,8.4239],[77.5237,8.4205],[77.5271,8.4133],[77.5234,8.4124],[77.5133,8.4189],[77.5145,8.4224],[77.528,8.4252],[77.5313,8.4323],[77.5258,8.4358],[77.5249,8.442],[77.5363,8.4449],[77.5448,8.4575],[77.5512,8.4533],[77.5539,8.4577],[77.5464,8.4608],[77.5493,8.4668],[77.5423,8.4731],[77.5365,8.4731],[77.5307,8.4844],[77.5228,8.4941],[77.5126,8.5126],[77.5115,8.5175],[77.5155,8.5241],[77.5101,8.5266],[77.5123,8.5333],[77.5092,8.5378],[77.5179,8.5436],[77.527,8.5545],[77.5512,8.5516],[77.5592,8.5555],[77.5617,8.5663],[77.5588,8.5692],[77.5534,8.5689],[77.5488,8.5748],[77.5499,8.5859],[77.5467,8.5967],[77.5365,8.6022],[77.5331,8.6077],[77.5239,8.6112],[77.5075,8.6103],[77.4989,8.6052],[77.4928,8.6052],[77.4802,8.6159],[77.4702,8.6215],[77.4606,8.6232],[77.4567,8.6346],[77.4496,8.6463],[77.4448,8.6478],[77.439,8.6463]]],[[[77.2336,8.6284],[77.232,8.6357],[77.2287,8.6403],[77.2247,8.6391],[77.2143,8.649],[77.2122,8.6569],[77.2082,8.6637],[77.2008,8.669],[77.2071,8.6808],[77.2067,8.6844],[77.1972,8.7001],[77.1849,8.6918],[77.1844,8.6858],[77.1777,8.6837],[77.175,8.6802],[77.1747,8.6735],[77.169,8.6693],[77.1648,8.6699],[77.1596,8.6781],[77.1542,8.6736],[77.1512,8.6759],[77.1479,8.672],[77.1461,8.6642],[77.1342,8.6707],[77.1274,8.6722],[77.1224,8.6688],[77.1223,8.6648],[77.1131,8.6609],[77.1203,8.6504],[77.1278,8.6459],[77.1409,8.6274],[77.1428,8.6334],[77.149,8.6334],[77.1436,8.6418],[77.1454,8.6474],[77.1499,8.6472],[77.1516,8.6538],[77.1566,8.6426],[77.1511,8.6419],[77.1546,8.6384],[77.1499,8.6363],[77.155,8.6242],[77.1557,8.6321],[77.1603,8.6283],[77.1582,8.6148],[77.1504,8.6235],[77.1488,8.6176],[77.146,8.6217],[77.1395,8.6228],[77.1408,8.617],[77.1511,8.6003],[77.1557,8.6],[77.1585,8.5919],[77.18,8.5734],[77.1687,8.5741],[77.1603,8.5642],[77.1652,8.552],[77.1624,8.5485],[77.1708,8.5387],[77.1728,8.5447],[77.1776,8.5492],[77.1737,8.552],[77.1859,8.5527],[77.1888,8.5456],[77.1928,8.5469],[77.1916,8.5534],[77.2004,8.5507],[77.1946,8.5483],[77.221,8.5389],[77.2084,8.5403],[77.1903,8.5443],[77.1852,8.5479],[77.1803,8.5476],[77.1743,8.5428],[77.1733,8.5376],[77.1779,8.5327],[77.1861,8.53],[77.1936,8.5224],[77.1942,8.517],[77.1907,8.5191],[77.1933,8.511],[77.2,8.5063],[77.2024,8.5016],[77.2102,8.506],[77.2134,8.5119],[77.2204,8.5117],[77.2309,8.5068],[77.2386,8.4959],[77.2436,8.4969],[77.2511,8.5054],[77.262,8.5066],[77.2652,8.512],[77.2667,8.5199],[77.275,8.5385],[77.2837,8.5467],[77.2822,8.5505],[77.2741,8.5597],[77.2749,8.5657],[77.2702,8.5725],[77.2668,8.5839],[77.2634,8.5886],[77.2568,8.591],[77.2543,8.5978],[77.2464,8.6036],[77.2519,8.6082],[77.2514,8.6202],[77.2489,8.6238],[77.2439,8.6218],[77.2336,8.6284]]],[[[77.1215,8.9501],[77.1117,8.9539],[77.0963,8.9671],[77.0911,8.9673],[77.0865,8.9582],[77.0787,8.9625],[77.0785,8.955],[77.0912,8.9448],[77.096,8.9445],[77.1001,8.9396],[77.093,8.9403],[77.1046,8.9351],[77.1084,8.9377],[77.1152,8.9329],[77.1307,8.925],[77.1306,8.9207],[77.1493,8.9127],[77.1572,8.9134],[77.1557,8.9166],[77.1664,8.9101],[77.1642,8.906],[77.1703,8.9006],[77.1812,8.8984],[77.1934,8.8783],[77.1894,8.8772],[77.1742,8.8875],[77.1715,8.8909],[77.1557,8.8981],[77.1512,8.9028],[77.1392,8.907],[77.129,8.9142],[77.1233,8.9142],[77.1208,8.9183],[77.1135,8.9176],[77.1013,8.9253],[77.0915,8.9299],[77.0904,8.9242],[77.0823,8.9298],[77.0887,8.9303],[77.0867,8.9345],[77.0791,8.9382],[77.071,8.9372],[77.0688,8.9326],[77.1014,8.9174],[77.1168,8.9115],[77.1352,8.9025],[77.1468,8.8946],[77.1495,8.8841],[77.1459,8.8653],[77.1623,8.8609],[77.1682,8.8533],[77.1696,8.848],[77.1791,8.8357],[77.1882,8.8298],[77.1974,8.8321],[77.2076,8.8318],[77.2133,8.829],[77.215,8.8225],[77.2204,8.8148],[77.2312,8.8072],[77.2422,8.8093],[77.2466,8.8142],[77.247,8.8236],[77.253,8.8277],[77.2639,8.842],[77.2597,8.8513],[77.2624,8.8552],[77.2572,8.8616],[77.26,8.8652],[77.2566,8.8781],[77.2448,8.8801],[77.2375,8.8857],[77.2401,8.8945],[77.2384,8.8978],[77.2278,8.9036],[77.2211,8.904],[77.2188,8.9141],[77.2135,8.919],[77.1977,8.9235],[77.192,8.9231],[77.184,8.9301],[77.1743,8.9312],[77.1626,8.935],[77.1343,8.9467],[77.1215,8.9501]]]]},"properties":{"id":"agasthyamalai-br","name":"Agasthyamalai Biosphere Reserve","category":"br","area_km2":3500}}]}