{"type":"FeatureCollection","features":[{"type":"Feature","geometry":{"type":"Polygon","coordinates":[[[74.3401,14.551],[74.3526,14.539],[74.3508,14.5359],[74.3562,14.5225],[74.3442,14.5207],[74.3418,14.5142],[74.3539,14.5052],[74.3585,14.5098],[74.3585,14.5161],[74.3678,14.5227],[74.3694,14.5266],[74.3735,14.5264],[74.3799,14.5156],[74.3809,14.5108],[74.3683,14.5024],[74.3733,14.4939],[74.379,14.493],[74.3805,14.4861],[74.3746,14.4864],[74.3788,14.476],[74.3824,14.4774],[74.3793,14.4676],[74.3866,14.4628],[74.3842,14.4542],[74.3993,14.4516],[74.4019,14.4537],[74.4029,14.4479],[74.4115,14.4527],[74.4122,14.4596],[74.4067,14.4702],[74.4079,14.4746],[74.415,14.4742],[74.4192,14.4765],[74.4156,14.479],[74.4227,14.4796],[74.43,14.4735],[74.434,14.4659],[74.4339,14.4496],[74.4308,14.447],[74.4348,14.4416],[74.4431,14.4434],[74.4493,14.4502],[74.4585,14.4446],[74.4672,14.4567],[74.4618,14.4525],[74.4583,14.4462],[74.4543,14.4522],[74.4487,14.4514],[74.4397,14.4449],[74.4337,14.4447],[74.4372,14.4564],[74.4366,14.4686],[74.4298,14.4782],[74.4208,14.4828],[74.4137,14.4842],[74.4055,14.4892],[74.3995,14.5007],[74.3924,14.5065],[74.3932,14.512],[74.3975,14.5196],[74.3966,14.5304],[74.3861,14.5326],[74.3829,14.5369],[74.3842,14.5435],[74.3885,14.5453],[74.3889,14.5505],[74.3814,14.5563],[74.3807,14.5669],[74.3836,14.5722],[74.3716,14.5745],[74.3594,14.5675],[74.3557,14.5617],[74.3598,14.5542],[74.3581,14.5464],[74.3495,14.5473],[74.345,14.5571],[74.3478,14.5592],[74.3423,14.5642],[74.3407,14.5686],[74.3365,14.5683],[74.3353,14.5621],[74.3401,14.551]]]},"properties":{"id":"aghanashini-lion-tailed-macaque-reserve-ramsar","name":"Aghanashini Lion-tailed Macaque Reserve","category":"ramsar","area_km2":48.6}}]}