{"type":"FeatureCollection","features":[{"type":"Feature","geometry":{"type":"Polygon","coordinates":[[[76.7242,21.2884],[76.6832,21.2906],[76.6627,21.2805],[76.6613,21.2407],[76.6494,21.2445],[76.6402,21.235],[76.6358,21.2243],[76.634,21.2136],[76.637,21.2037],[76.6341,21.1985],[76.6394,21.1756],[76.6426,21.1717],[76.6586,21.166],[76.6683,21.1742],[76.682,21.1779],[76.6917,21.1765],[76.6968,21.1692],[76.6991,21.1607],[76.7118,21.1625],[76.7173,21.1703],[76.7267,21.1734],[76.7383,21.186],[76.7483,21.1857],[76.7559,21.1837],[76.7611,21.1745],[76.7662,21.1743],[76.7759,21.1855],[76.7728,21.1917],[76.7662,21.1938],[76.7586,21.2232],[76.7465,21.2241],[76.743,21.246],[76.747,21.2554],[76.7242,21.2884]]]},"properties":{"id":"amba-barwa-wls","name":"Amba Barwa Wildlife Sanctuary","category":"wls","area_km2":127.1}}]}