{"type":"FeatureCollection","features":[{"type":"Feature","geometry":{"type":"MultiPolygon","coordinates":[[[[91.9267,26.1556],[91.9172,26.1557],[91.9102,26.1516],[91.8764,26.1464],[91.8734,26.1426],[91.8664,26.1401],[91.8594,26.1347],[91.859,26.1276],[91.8523,26.1176],[91.8549,26.1136],[91.862,26.1138],[91.8708,26.109],[91.8791,26.1074],[91.8812,26.1162],[91.8763,26.1186],[91.8778,26.124],[91.8893,26.1237],[91.8948,26.1254],[91.8908,26.1292],[91.8928,26.1345],[91.9036,26.1336],[91.9217,26.1293],[91.9217,26.1352],[91.9292,26.1369],[91.9316,26.1307],[91.9396,26.1346],[91.9369,26.1424],[91.9431,26.1461],[91.9449,26.1515],[91.9358,26.1549],[91.9267,26.1556]]],[[[91.9574,26.2145],[91.9611,26.2195],[91.9561,26.2247],[91.9413,26.2307],[91.9369,26.2189],[91.9327,26.2149],[91.9278,26.2209],[91.9217,26.2177],[91.9145,26.2201],[91.9105,26.2131],[91.9061,26.2126],[91.8998,26.2172],[91.8842,26.2129],[91.8669,26.2008],[91.8564,26.2008],[91.8482,26.1908],[91.8556,26.1901],[91.8567,26.1829],[91.8484,26.1814],[91.8471,26.1732],[91.8539,26.1686],[91.8538,26.1608],[91.8566,26.1561],[91.8693,26.1568],[91.8825,26.1595],[91.8978,26.1599],[91.9095,26.1616],[91.9251,26.1596],[91.9305,26.1618],[91.9482,26.1651],[91.9594,26.1702],[91.968,26.1709],[91.9739,26.1741],[91.9788,26.1799],[91.9856,26.1808],[91.9937,26.192],[91.9905,26.1956],[91.9839,26.1967],[91.9783,26.1925],[91.9805,26.1973],[91.9712,26.199],[91.9671,26.1931],[91.9586,26.1939],[91.9626,26.202],[91.9631,26.2089],[91.9574,26.2145]]]]},"properties":{"id":"amchang-wls","name":"Amchang Wildlife Sanctuary","category":"wls","area_km2":78.6}}]}