{"type":"FeatureCollection","features":[{"type":"Feature","geometry":{"type":"MultiPolygon","coordinates":[[[[78.406,16.1367],[78.4029,16.1446],[78.4053,16.1505],[78.4016,16.1591],[78.3969,16.1605],[78.3946,16.1482],[78.3919,16.1437],[78.3846,16.1445],[78.3781,16.1515],[78.3768,16.145],[78.3836,16.1379],[78.3795,16.1327],[78.3842,16.1321],[78.3921,16.1268],[78.4056,16.1293],[78.406,16.1367]]],[[[78.9661,16.2108],[78.9819,16.2099],[78.9865,16.2112],[78.9987,16.2259],[79.0089,16.2397],[79.0139,16.2412],[79.0293,16.2417],[79.048,16.2387],[79.0612,16.2338],[79.072,16.2271],[79.0819,16.2301],[79.0866,16.2292],[79.0951,16.224],[79.1034,16.2233],[79.108,16.2281],[79.1199,16.2319],[79.1256,16.2297],[79.1441,16.2152],[79.1568,16.2093],[79.1697,16.2098],[79.1936,16.2175],[79.2061,16.2209],[79.2154,16.2262],[79.2208,16.2344],[79.2234,16.2467],[79.2257,16.2736],[79.2305,16.2831],[79.2311,16.3151],[79.2341,16.3246],[79.2342,16.335],[79.2143,16.3494],[79.2106,16.3562],[79.2124,16.3735],[79.2081,16.3801],[79.2098,16.4249],[79.2116,16.4474],[79.2183,16.454],[79.2318,16.4576],[79.2333,16.4593],[79.2165,16.4785],[79.2144,16.4737],[79.2089,16.472],[79.1991,16.4774],[79.1881,16.4781],[79.1834,16.4762],[79.177,16.4809],[79.1782,16.4856],[79.1753,16.5007],[79.1787,16.5125],[79.1877,16.5136],[79.1949,16.5088],[79.2064,16.5086],[79.2062,16.5115],[79.2127,16.5161],[79.2112,16.5202],[79.2158,16.523],[79.202,16.5241],[79.2137,16.5265],[79.2166,16.5313],[79.2079,16.5318],[79.1885,16.528],[79.1837,16.532],[79.1757,16.5301],[79.1738,16.5186],[79.1635,16.513],[79.1565,16.5069],[79.15,16.511],[79.1401,16.5063],[79.1218,16.5138],[79.1174,16.5205],[79.1125,16.5205],[79.1072,16.5136],[79.0996,16.508],[79.0895,16.5043],[79.0767,16.5036],[79.0642,16.5082],[79.0591,16.5149],[79.0632,16.5173],[79.0817,16.516],[79.087,16.5233],[79.098,16.5286],[79.1081,16.5406],[79.1155,16.5475],[79.1129,16.553],[79.1024,16.5504],[79.092,16.5517],[79.083,16.5611],[79.0762,16.5614],[79.0701,16.5584],[79.0641,16.5526],[79.0592,16.5425],[79.0533,16.5433],[79.0512,16.5577],[79.0564,16.5657],[79.0545,16.5678],[79.0387,16.5682],[79.0216,16.5641],[79.0179,16.5651],[79.0086,16.5719],[79.0002,16.5749],[78.9846,16.5754],[78.9695,16.5708],[78.9628,16.5725],[78.9482,16.5724],[78.9413,16.5744],[78.9359,16.5734],[78.9261,16.5631],[78.919,16.561],[78.9123,16.5566],[78.9071,16.5566],[78.8857,16.5601],[78.879,16.5556],[78.8836,16.5522],[78.8936,16.5496],[78.9099,16.5495],[78.915,16.5386],[78.9237,16.5285],[78.9307,16.5341],[78.946,16.5341],[78.9589,16.5283],[78.9713,16.5129],[78.9719,16.5056],[78.9747,16.5022],[78.9903,16.4978],[79.0026,16.4918],[79.0073,16.4931],[79.0087,16.4983],[79.0126,16.4986],[79.0169,16.4914],[79.013,16.4829],[79.013,16.4764],[79.0224,16.472],[79.0269,16.4673],[79.0476,16.4582],[79.0559,16.4495],[79.0623,16.4453],[79.066,16.4455],[79.0642,16.431],[79.0613,16.422],[79.0526,16.4162],[79.0391,16.4177],[79.0333,16.4096],[79.0314,16.4122],[79.0218,16.4151],[79.017,16.4234],[79.0119,16.4285],[78.9998,16.4268],[78.9891,16.4217],[78.9816,16.4029],[78.9827,16.3943],[78.9916,16.3912],[79.0058,16.3899],[79.0151,16.3943],[79.0354,16.3892],[79.0415,16.3837],[79.0422,16.3779],[79.0347,16.3697],[79.0301,16.367],[79.0142,16.3737],[79.0086,16.37],[79.0091,16.3647],[79.0019,16.3565],[79.0026,16.3483],[78.9988,16.3389],[78.9944,16.3392],[78.9841,16.3495],[78.9734,16.3632],[78.9698,16.3642],[78.9502,16.3492],[78.9287,16.3304],[78.9131,16.3293],[78.8943,16.3406],[78.8886,16.3471],[78.8877,16.3583],[78.8839,16.3601],[78.8593,16.3608],[78.8466,16.3632],[78.8337,16.3622],[78.8165,16.3565],[78.7936,16.3425],[78.7808,16.3408],[78.7675,16.3445],[78.7467,16.3455],[78.7439,16.3517],[78.7459,16.3696],[78.7508,16.3727],[78.7764,16.3777],[78.7926,16.3917],[78.8025,16.3924],[78.807,16.398],[78.8141,16.3985],[78.823,16.407],[78.834,16.4114],[78.8427,16.4129],[78.8579,16.4075],[78.8701,16.4063],[78.8724,16.4098],[78.8718,16.4169],[78.8609,16.4303],[78.8594,16.4385],[78.8632,16.4519],[78.8769,16.4574],[78.8903,16.4574],[78.9013,16.4539],[78.9117,16.4405],[78.9134,16.422],[78.9105,16.4012],[78.9108,16.3935],[78.9161,16.3867],[78.9241,16.3833],[78.9321,16.3837],[78.9335,16.3935],[78.9356,16.396],[78.9504,16.3935],[78.9565,16.3986],[78.9557,16.407],[78.9494,16.4163],[78.9503,16.446],[78.9551,16.4551],[78.9706,16.4524],[78.978,16.4524],[78.983,16.4565],[78.9874,16.4719],[78.9877,16.4787],[78.9839,16.4821],[78.9702,16.4887],[78.9598,16.4887],[78.9518,16.487],[78.9452,16.4915],[78.9396,16.4904],[78.9351,16.4864],[78.9289,16.4941],[78.9304,16.4978],[78.9363,16.5007],[78.9357,16.5072],[78.9289,16.5112],[78.917,16.5155],[78.8992,16.5032],[78.8855,16.5027],[78.8751,16.5038],[78.8659,16.5089],[78.8365,16.5192],[78.8163,16.5217],[78.8095,16.52],[78.8005,16.5138],[78.7937,16.4984],[78.7976,16.481],[78.7976,16.4713],[78.8089,16.4619],[78.808,16.4514],[78.8027,16.4487],[78.8065,16.4403],[78.8054,16.4323],[78.7873,16.4327],[78.7856,16.4232],[78.7828,16.4175],[78.7759,16.4154],[78.773,16.422],[78.7697,16.4224],[78.7617,16.4125],[78.7563,16.4079],[78.7434,16.4014],[78.7302,16.389],[78.7231,16.3862],[78.71,16.3858],[78.6993,16.3791],[78.687,16.3646],[78.667,16.3603],[78.6518,16.3444],[78.6488,16.3387],[78.649,16.3245],[78.6514,16.3194],[78.6522,16.303],[78.6448,16.2906],[78.6455,16.2803],[78.6402,16.2718],[78.6307,16.2738],[78.6246,16.2772],[78.6218,16.2847],[78.6052,16.2915],[78.5969,16.3004],[78.5874,16.2969],[78.5839,16.2851],[78.5836,16.2778],[78.5769,16.2744],[78.5735,16.2766],[78.5709,16.2857],[78.5674,16.291],[78.561,16.2908],[78.5526,16.2851],[78.5435,16.2756],[78.5421,16.2698],[78.5458,16.2693],[78.5541,16.2625],[78.5543,16.259],[78.5416,16.247],[78.5402,16.2426],[78.541,16.2181],[78.5484,16.2143],[78.5526,16.2145],[78.5646,16.2194],[78.5691,16.2249],[78.5665,16.2402],[78.5634,16.2428],[78.5568,16.2349],[78.5522,16.2377],[78.5524,16.2421],[78.5595,16.2565],[78.5771,16.2621],[78.5851,16.2624],[78.5961,16.2546],[78.5972,16.2509],[78.5932,16.2429],[78.5841,16.2309],[78.5809,16.2245],[78.5803,16.2101],[78.5725,16.2031],[78.5662,16.2],[78.5543,16.1989],[78.5176,16.2042],[78.5092,16.2079],[78.5046,16.2177],[78.4924,16.2208],[78.4852,16.2274],[78.4828,16.2331],[78.4743,16.2361],[78.4733,16.2276],[78.4645,16.2275],[78.4586,16.225],[78.4546,16.2188],[78.4492,16.2266],[78.4392,16.2222],[78.4359,16.2168],[78.4266,16.2159],[78.4223,16.2074],[78.418,16.1921],[78.4176,16.1839],[78.4207,16.1798],[78.4335,16.1755],[78.434,16.1606],[78.4368,16.1504],[78.4318,16.1367],[78.4318,16.1314],[78.4354,16.1264],[78.4432,16.1095],[78.4565,16.1038],[78.462,16.0994],[78.4641,16.0911],[78.4621,16.0856],[78.4651,16.0774],[78.4659,16.0692],[78.4791,16.0674],[78.4987,16.06],[78.5215,16.0542],[78.5421,16.0442],[78.5518,16.0428],[78.5577,16.045],[78.5703,16.0524],[78.5924,16.0691],[78.5964,16.0781],[78.6029,16.0847],[78.61,16.0871],[78.6272,16.0876],[78.6377,16.0846],[78.6498,16.0792],[78.6504,16.0721],[78.6552,16.0685],[78.6681,16.0545],[78.6726,16.0459],[78.6812,16.0348],[78.6994,16.0271],[78.7055,16.0264],[78.7236,16.02],[78.7356,16.0082],[78.7408,16.0087],[78.7509,16.0157],[78.7671,16.0166],[78.7898,16.0231],[78.7964,16.0289],[78.8005,16.037],[78.8075,16.042],[78.8162,16.0457],[78.8238,16.0538],[78.8281,16.0613],[78.837,16.0703],[78.8417,16.0825],[78.8426,16.0903],[78.8415,16.1016],[78.838,16.1189],[78.8335,16.1348],[78.8335,16.144],[78.8393,16.1467],[78.8566,16.1486],[78.8706,16.145],[78.8765,16.1354],[78.8793,16.1179],[78.8862,16.1011],[78.889,16.0857],[78.8963,16.086],[78.9063,16.0949],[78.9179,16.1],[78.9222,16.1059],[78.9215,16.1217],[78.9244,16.1309],[78.923,16.1393],[78.9165,16.1462],[78.9105,16.1641],[78.9047,16.1747],[78.9049,16.1828],[78.9111,16.1884],[78.9376,16.2012],[78.949,16.2035],[78.9661,16.2108]]],[[[79.224,16.6153],[79.2119,16.6147],[79.2034,16.6189],[79.2037,16.6257],[79.2161,16.6331],[79.2171,16.6392],[79.2141,16.6436],[79.2023,16.6423],[79.1989,16.6329],[79.1938,16.6272],[79.1938,16.6135],[79.1839,16.6075],[79.1705,16.6029],[79.1612,16.6017],[79.1439,16.6022],[79.1207,16.6066],[79.1062,16.6115],[79.0924,16.6173],[79.0896,16.6114],[79.0958,16.6051],[79.0946,16.5986],[79.105,16.5938],[79.108,16.5906],[79.107,16.5864],[79.1018,16.5843],[79.1093,16.5825],[79.1147,16.5779],[79.1311,16.5761],[79.1448,16.5796],[79.1515,16.5769],[79.1556,16.5628],[79.1616,16.5595],[79.1673,16.5606],[79.1688,16.5656],[79.1661,16.5686],[79.1684,16.5747],[79.1681,16.5821],[79.1752,16.59],[79.1805,16.5869],[79.1824,16.5737],[79.1789,16.5664],[79.1792,16.5604],[79.1848,16.5585],[79.1915,16.5457],[79.195,16.5499],[79.2071,16.5509],[79.208,16.5551],[79.1987,16.558],[79.2054,16.5641],[79.2107,16.5625],[79.2023,16.5748],[79.2171,16.5766],[79.2211,16.581],[79.2124,16.5826],[79.2084,16.5877],[79.2212,16.5929],[79.2263,16.5921],[79.2362,16.595],[79.2383,16.5907],[79.2394,16.5773],[79.2478,16.5795],[79.2448,16.5839],[79.2537,16.5874],[79.2613,16.5866],[79.2635,16.5894],[79.2582,16.5922],[79.2713,16.5955],[79.2734,16.6017],[79.2769,16.6024],[79.2732,16.6077],[79.278,16.6116],[79.2775,16.615],[79.2632,16.6215],[79.2529,16.6185],[79.2419,16.6204],[79.236,16.6178],[79.224,16.6153]]],[[[79.4217,16.6713],[79.4122,16.6748],[79.4109,16.6841],[79.4042,16.6848],[79.3957,16.6891],[79.3952,16.692],[79.4032,16.6957],[79.4016,16.7004],[79.3966,16.7031],[79.3799,16.7038],[79.3751,16.7015],[79.3649,16.6881],[79.3633,16.6807],[79.359,16.677],[79.3447,16.6763],[79.3246,16.6655],[79.3128,16.6682],[79.3111,16.674],[79.3157,16.6774],[79.3162,16.6822],[79.3093,16.6836],[79.304,16.6806],[79.3031,16.6742],[79.3048,16.6663],[79.3008,16.6645],[79.2859,16.6689],[79.2559,16.6607],[79.2534,16.6527],[79.2477,16.6532],[79.2464,16.6478],[79.2535,16.6399],[79.2652,16.6369],[79.2674,16.634],[79.2744,16.6398],[79.2685,16.6483],[79.2652,16.648],[79.265,16.6543],[79.2693,16.6516],[79.275,16.6536],[79.2739,16.6483],[79.277,16.6461],[79.28,16.6339],[79.2764,16.6355],[79.2764,16.6304],[79.2722,16.6303],[79.2844,16.6166],[79.2978,16.6213],[79.3064,16.6205],[79.3172,16.5949],[79.3214,16.5885],[79.3324,16.5828],[79.3416,16.5862],[79.3557,16.5873],[79.3595,16.5892],[79.3612,16.5954],[79.3757,16.601],[79.376,16.6108],[79.3724,16.6183],[79.3641,16.6258],[79.3536,16.6302],[79.3471,16.6305],[79.3414,16.6274],[79.3306,16.6178],[79.3228,16.6214],[79.3051,16.6517],[79.3047,16.6566],[79.3106,16.6591],[79.319,16.6509],[79.3228,16.6497],[79.3327,16.6615],[79.3405,16.6622],[79.3494,16.6551],[79.3511,16.6487],[79.3624,16.6456],[79.3734,16.6475],[79.3829,16.6402],[79.3966,16.6436],[79.408,16.642],[79.4171,16.6427],[79.4335,16.6493],[79.4331,16.6533],[79.4264,16.6569],[79.4232,16.662],[79.4217,16.6713]]]]},"properties":{"id":"amrabad-tr","name":"Amrabad Tiger Reserve","category":"tr","area_km2":2166.4}}]}