{"type":"FeatureCollection","features":[{"type":"Feature","geometry":{"type":"Polygon","coordinates":[[[77.164,10.2144],[77.162,10.2055],[77.1651,10.1926],[77.1707,10.1919],[77.1749,10.1784],[77.179,10.1763],[77.1874,10.1766],[77.1991,10.1887],[77.2025,10.1946],[77.2057,10.1897],[77.2123,10.1887],[77.2233,10.2009],[77.2177,10.2061],[77.2185,10.2112],[77.2254,10.2181],[77.2249,10.2253],[77.2166,10.2287],[77.2144,10.2271],[77.2047,10.2071],[77.2004,10.204],[77.1859,10.2012],[77.1796,10.2108],[77.1708,10.2141],[77.164,10.2144]]]},"properties":{"id":"anamudi-shola-np","name":"Anamudi Shola National Park","category":"np","area_km2":7.5}}]}