{"type":"FeatureCollection","features":[{"type":"Feature","geometry":{"type":"Polygon","coordinates":[[[79.4613,20.0842],[79.4666,20.0924],[79.4666,20.0966],[79.4732,20.1018],[79.476,20.0919],[79.4795,20.089],[79.4901,20.1003],[79.4988,20.1022],[79.5045,20.0942],[79.5129,20.1044],[79.5156,20.1023],[79.5308,20.1026],[79.5407,20.1086],[79.5429,20.1027],[79.5479,20.1043],[79.5473,20.1099],[79.5522,20.1245],[79.5501,20.1332],[79.5512,20.1495],[79.5542,20.1585],[79.5566,20.1715],[79.5599,20.1798],[79.5504,20.1799],[79.5494,20.1817],[79.5379,20.1853],[79.5355,20.188],[79.5349,20.2068],[79.54,20.2164],[79.5468,20.2245],[79.5439,20.2285],[79.5565,20.2362],[79.5579,20.2559],[79.5565,20.2667],[79.5476,20.2631],[79.5401,20.255],[79.5368,20.2567],[79.5357,20.2641],[79.5323,20.2669],[79.5249,20.2648],[79.5126,20.265],[79.5121,20.2687],[79.4987,20.273],[79.4937,20.2729],[79.4874,20.2779],[79.4764,20.2795],[79.4684,20.2749],[79.4453,20.2692],[79.445,20.2629],[79.4423,20.259],[79.4351,20.2592],[79.4303,20.2564],[79.4238,20.2586],[79.4271,20.2697],[79.4251,20.2754],[79.4049,20.2803],[79.4014,20.2829],[79.4003,20.2927],[79.395,20.2969],[79.3874,20.291],[79.384,20.2947],[79.3917,20.301],[79.3923,20.3079],[79.3858,20.3152],[79.3847,20.3266],[79.3852,20.3395],[79.388,20.3508],[79.3784,20.3559],[79.3761,20.3611],[79.3639,20.3677],[79.3652,20.3763],[79.3634,20.3807],[79.3548,20.3844],[79.3554,20.4038],[79.3535,20.4066],[79.3463,20.4073],[79.3388,20.4046],[79.3314,20.406],[79.3198,20.4197],[79.3205,20.4264],[79.3122,20.4237],[79.3007,20.43],[79.291,20.4273],[79.2899,20.423],[79.2835,20.4199],[79.2795,20.4222],[79.2793,20.4279],[79.273,20.4336],[79.2693,20.4328],[79.2574,20.4233],[79.2546,20.4183],[79.2547,20.4121],[79.2511,20.4109],[79.2548,20.4016],[79.2548,20.395],[79.2506,20.3763],[79.248,20.3554],[79.2489,20.3463],[79.2563,20.3302],[79.2544,20.3178],[79.2566,20.3104],[79.2615,20.3035],[79.272,20.2952],[79.2814,20.2912],[79.2908,20.2836],[79.3014,20.2856],[79.3112,20.2838],[79.3196,20.2937],[79.3215,20.2929],[79.321,20.2782],[79.3152,20.2671],[79.3131,20.2556],[79.3002,20.2504],[79.3003,20.2476],[79.309,20.246],[79.3113,20.2367],[79.3083,20.2194],[79.3181,20.2129],[79.331,20.2007],[79.3329,20.1954],[79.3385,20.1903],[79.3438,20.1922],[79.3527,20.1898],[79.3578,20.1801],[79.3592,20.1729],[79.3636,20.1681],[79.3689,20.1541],[79.3716,20.1402],[79.3761,20.1379],[79.3746,20.1291],[79.3883,20.1126],[79.3988,20.1163],[79.4133,20.1132],[79.4191,20.1133],[79.4245,20.1086],[79.435,20.1134],[79.44,20.1141],[79.4451,20.1075],[79.4444,20.1042],[79.451,20.0945],[79.4613,20.0842]]]},"properties":{"id":"andhari-wls","name":"Andhari Wildlife Sanctuary","category":"wls","area_km2":509.3}}]}