{"type":"FeatureCollection","features":[{"type":"Feature","geometry":{"type":"Polygon","coordinates":[[[75.1193,21.3438],[75.109,21.3447],[75.1051,21.3413],[75.101,21.3425],[75.0938,21.3383],[75.0755,21.3482],[75.0608,21.3522],[75.0549,21.3524],[75.0471,21.3557],[75.048,21.3608],[75.0439,21.3708],[75.0397,21.3754],[75.0298,21.3786],[75.0199,21.3754],[75.0177,21.3812],[75.0126,21.3776],[75.0137,21.3701],[75.0092,21.3709],[75.0058,21.3772],[74.9994,21.3778],[74.9964,21.3835],[74.987,21.3837],[74.9826,21.3866],[74.9781,21.3849],[74.9698,21.3956],[74.9642,21.3961],[74.9606,21.3928],[74.9605,21.383],[74.9714,21.3774],[74.9603,21.3738],[74.9581,21.3669],[74.9622,21.3629],[74.9713,21.3593],[74.9737,21.3552],[74.9837,21.3474],[74.9882,21.3415],[74.9912,21.334],[74.9964,21.329],[75.0094,21.3225],[75.0141,21.3175],[75.0371,21.3061],[75.0608,21.3126],[75.0763,21.3113],[75.0848,21.3094],[75.1023,21.3123],[75.1079,21.3158],[75.1147,21.3251],[75.1264,21.3225],[75.1274,21.3164],[75.1338,21.3103],[75.148,21.3103],[75.1637,21.3165],[75.1606,21.3201],[75.1609,21.3262],[75.1568,21.3297],[75.1423,21.3327],[75.1314,21.3374],[75.1237,21.339],[75.1193,21.3438]]]},"properties":{"id":"aner-dam-wls","name":"Aner Dam Wildlife Sanctuary","category":"wls","area_km2":82.9}}]}