{"type":"FeatureCollection","features":[{"type":"Feature","geometry":{"type":"Polygon","coordinates":[[[74.332,15.111],[74.3249,15.1203],[74.3203,15.121],[74.307,15.1181],[74.297,15.1075],[74.2855,15.0991],[74.2751,15.0961],[74.2797,15.0881],[74.2807,15.0689],[74.2895,15.0649],[74.2902,15.0537],[74.2946,15.0492],[74.2965,15.0413],[74.2882,15.0368],[74.2832,15.0316],[74.2834,15.0236],[74.2724,15.0143],[74.2664,15.0069],[74.2679,15.002],[74.2536,14.9982],[74.2518,14.9936],[74.2582,14.9877],[74.2643,14.9786],[74.2601,14.9736],[74.2723,14.9633],[74.2843,14.9631],[74.2874,14.9573],[74.2927,14.953],[74.2941,14.9477],[74.2919,14.9438],[74.3069,14.9402],[74.3258,14.9261],[74.3323,14.9257],[74.3367,14.9204],[74.3377,14.9139],[74.3474,14.9082],[74.35,14.9196],[74.3606,14.9332],[74.3613,14.9418],[74.3637,14.9436],[74.3723,14.9341],[74.3892,14.9303],[74.3936,14.9124],[74.3984,14.904],[74.4051,14.9151],[74.4237,14.9343],[74.4326,14.946],[74.4348,14.9512],[74.4345,14.9583],[74.432,14.965],[74.4349,14.9764],[74.4439,14.9815],[74.4461,14.9804],[74.4441,14.9726],[74.4568,14.9567],[74.4571,14.9523],[74.4616,14.9465],[74.4784,14.9381],[74.4833,14.9341],[74.4888,14.9334],[74.4906,14.9393],[74.4788,14.959],[74.4808,14.9678],[74.4748,14.9778],[74.4748,14.9843],[74.4822,14.9868],[74.4822,14.9929],[74.4898,14.9977],[74.4905,15.0061],[74.4799,15.0166],[74.468,15.0202],[74.4583,15.0294],[74.4489,15.0339],[74.4291,15.0471],[74.429,15.0412],[74.4254,15.0418],[74.4232,15.0484],[74.4139,15.061],[74.4078,15.0647],[74.4077,15.0687],[74.3911,15.0901],[74.3869,15.0918],[74.3878,15.0984],[74.3765,15.1074],[74.3646,15.1072],[74.3561,15.1126],[74.3429,15.1183],[74.3366,15.1159],[74.332,15.111]]]},"properties":{"id":"anshi-np","name":"Anshi National Park","category":"np","area_km2":417.3}}]}