{"type":"FeatureCollection","features":[{"type":"Feature","geometry":{"type":"Polygon","coordinates":[[[76.3813,12.3242],[76.3868,12.3205],[76.3908,12.3129],[76.3856,12.3056],[76.3861,12.3007],[76.3967,12.3002],[76.3975,12.2976],[76.4036,12.2987],[76.4021,12.309],[76.4134,12.3071],[76.4199,12.3077],[76.4221,12.3144],[76.4286,12.3139],[76.4318,12.3111],[76.4383,12.3151],[76.4328,12.3199],[76.4318,12.3384],[76.4303,12.3465],[76.4094,12.3421],[76.4087,12.3388],[76.4005,12.3356],[76.3921,12.3291],[76.3882,12.3281],[76.3815,12.3444],[76.3752,12.3427],[76.3764,12.3248],[76.3813,12.3242]]]},"properties":{"id":"arabithittu-wls","name":"Arabithittu Wildlife Sanctuary","category":"wls","area_km2":13.5}}]}