{"type":"FeatureCollection","features":[{"type":"Feature","geometry":{"type":"Polygon","coordinates":[[[75.83,11.9837],[75.8291,11.9752],[75.8234,11.9743],[75.8122,11.962],[75.7942,11.9617],[75.7946,11.956],[75.8045,11.9534],[75.8109,11.9476],[75.8074,11.9415],[75.8013,11.942],[75.7935,11.9309],[75.7952,11.9289],[75.7907,11.9226],[75.7932,11.921],[75.8021,11.9266],[75.801,11.9327],[75.8049,11.9337],[75.8139,11.9307],[75.8194,11.9312],[75.8225,11.9282],[75.827,11.9307],[75.8402,11.9313],[75.8427,11.9293],[75.8494,11.9307],[75.8545,11.9294],[75.865,11.931],[75.8787,11.9278],[75.8862,11.9236],[75.895,11.9209],[75.9168,11.9192],[75.9239,11.9202],[75.9251,11.9301],[75.9281,11.9349],[75.9366,11.9342],[75.937,11.94],[75.9307,11.9391],[75.9292,11.9413],[75.9134,11.9462],[75.8968,11.9447],[75.8865,11.9505],[75.8797,11.949],[75.8665,11.9565],[75.8584,11.9589],[75.8541,11.9637],[75.8529,11.9702],[75.8477,11.9741],[75.8495,11.9781],[75.8468,11.9821],[75.8367,11.9811],[75.83,11.9837]]]},"properties":{"id":"aralam-wls","name":"Aralam Wildlife Sanctuary","category":"wls","area_km2":55}}]}