{"type":"FeatureCollection","features":[{"type":"Feature","geometry":{"type":"Polygon","coordinates":[[[77.6677,30.4443],[77.6611,30.4417],[77.6606,30.4351],[77.6704,30.4299],[77.6946,30.4259],[77.7061,30.4259],[77.7114,30.428],[77.7221,30.4269],[77.7139,30.4311],[77.698,30.4315],[77.6937,30.4292],[77.6812,30.4336],[77.6776,30.4413],[77.6802,30.4445],[77.6677,30.4443]]]},"properties":{"id":"asan-conservation-reserve-ramsar","name":"Asan Conservation Reserve","category":"ramsar","area_km2":4.4}}]}