{"type":"FeatureCollection","features":[{"type":"Feature","geometry":{"type":"MultiPolygon","coordinates":[[[[80.3934,29.7969],[80.3846,29.807],[80.3764,29.8117],[80.3721,29.8169],[80.3696,29.8147],[80.3721,29.8092],[80.3673,29.8043],[80.3692,29.7978],[80.3598,29.7981],[80.3604,29.7882],[80.3563,29.7827],[80.3561,29.7773],[80.3686,29.7742],[80.3776,29.7649],[80.3896,29.7676],[80.3852,29.7746],[80.389,29.778],[80.3839,29.7868],[80.399,29.7884],[80.3992,29.7935],[80.3934,29.7969]]],[[[80.3165,29.7799],[80.3211,29.79],[80.3156,29.7935],[80.3033,29.7974],[80.2857,29.8077],[80.2801,29.8068],[80.2738,29.7981],[80.2747,29.7905],[80.2865,29.7841],[80.2889,29.7809],[80.2975,29.7783],[80.3044,29.7822],[80.3129,29.7788],[80.3165,29.7799]]],[[[80.3015,29.9252],[80.2977,29.934],[80.2882,29.9281],[80.2823,29.929],[80.2908,29.9242],[80.2821,29.9144],[80.2763,29.9149],[80.2609,29.9262],[80.253,29.9238],[80.2519,29.9206],[80.2595,29.917],[80.2595,29.9072],[80.2517,29.9103],[80.2559,29.9024],[80.2467,29.9044],[80.2502,29.8988],[80.2617,29.8971],[80.2749,29.8845],[80.2753,29.873],[80.2792,29.8692],[80.2815,29.8602],[80.279,29.8493],[80.2844,29.8454],[80.278,29.8338],[80.2928,29.8295],[80.2908,29.8228],[80.2995,29.8209],[80.3044,29.8152],[80.3024,29.8077],[80.3113,29.8076],[80.3154,29.8024],[80.3252,29.8087],[80.3264,29.8045],[80.3365,29.8052],[80.3389,29.8108],[80.3443,29.8088],[80.354,29.8002],[80.3633,29.8053],[80.3596,29.8163],[80.361,29.8204],[80.3565,29.8239],[80.3539,29.8298],[80.3423,29.8323],[80.3413,29.8393],[80.3488,29.8427],[80.3488,29.8541],[80.3405,29.8608],[80.3286,29.8669],[80.3193,29.8784],[80.318,29.8846],[80.3091,29.8945],[80.3097,29.9021],[80.3068,29.9067],[80.3074,29.9204],[80.3015,29.9252]]],[[[80.6975,30.0047],[80.7033,30.0025],[80.7237,29.9999],[80.7374,29.9994],[80.7498,30.0095],[80.7539,30.0198],[80.7576,30.0238],[80.7556,30.0316],[80.7559,30.0398],[80.761,30.0495],[80.7765,30.0544],[80.7839,30.0616],[80.789,30.072],[80.7991,30.0805],[80.8059,30.0902],[80.8182,30.097],[80.8177,30.1053],[80.8094,30.1208],[80.8052,30.1259],[80.7859,30.1322],[80.7637,30.1448],[80.7534,30.1487],[80.7451,30.1477],[80.7237,30.1377],[80.6995,30.1153],[80.6852,30.1064],[80.6758,30.0964],[80.6638,30.09],[80.6543,30.0913],[80.6422,30.0854],[80.6303,30.0847],[80.6259,30.0828],[80.6259,30.0767],[80.6136,30.0635],[80.6085,30.0621],[80.6042,30.0657],[80.5917,30.0667],[80.5846,30.0624],[80.569,30.0646],[80.5651,30.0667],[80.5554,30.066],[80.5505,30.0618],[80.5445,30.0636],[80.5395,30.0684],[80.5265,30.0652],[80.5215,30.0794],[80.5179,30.081],[80.5169,30.0868],[80.503,30.0919],[80.4967,30.1011],[80.492,30.1001],[80.4767,30.0922],[80.4706,30.0767],[80.4663,30.0704],[80.461,30.0515],[80.4679,30.0474],[80.4805,30.0364],[80.4794,30.0292],[80.4725,30.0241],[80.4729,30.0108],[80.4712,30.0093],[80.4764,29.9975],[80.4692,29.9842],[80.461,29.9807],[80.4537,29.973],[80.4471,29.9725],[80.437,29.9642],[80.4351,29.9601],[80.4281,29.957],[80.4161,29.9604],[80.3952,29.9458],[80.381,29.9389],[80.372,29.9431],[80.3624,29.9524],[80.3507,29.9568],[80.347,29.9598],[80.3419,29.9698],[80.334,29.9731],[80.324,29.9729],[80.3143,29.9704],[80.3136,29.965],[80.3057,29.9573],[80.3059,29.9512],[80.323,29.9488],[80.338,29.9402],[80.3484,29.9357],[80.353,29.9294],[80.3537,29.9192],[80.3419,29.9169],[80.332,29.9242],[80.3207,29.9261],[80.3195,29.9298],[80.3035,29.9343],[80.3034,29.9298],[80.3095,29.9226],[80.3209,29.9206],[80.3242,29.9217],[80.3394,29.9104],[80.355,29.9018],[80.3591,29.8978],[80.3617,29.8881],[80.36,29.8828],[80.3669,29.8782],[80.3607,29.8742],[80.359,29.8688],[80.3525,29.8736],[80.3557,29.8763],[80.353,29.8823],[80.3435,29.881],[80.344,29.8867],[80.3367,29.8891],[80.3339,29.9004],[80.3268,29.9084],[80.3182,29.9065],[80.3185,29.9009],[80.3234,29.8909],[80.3341,29.8847],[80.3371,29.8729],[80.3449,29.8701],[80.3523,29.8576],[80.3627,29.8552],[80.3657,29.849],[80.3746,29.8456],[80.3826,29.8516],[80.3905,29.8499],[80.4018,29.8498],[80.4003,29.8464],[80.4052,29.8432],[80.4106,29.8474],[80.4146,29.8613],[80.4191,29.8622],[80.4228,29.8584],[80.4202,29.8511],[80.4222,29.8441],[80.4354,29.8344],[80.4381,29.8469],[80.4482,29.8529],[80.46,29.8487],[80.4652,29.8514],[80.4692,29.8598],[80.4771,29.869],[80.474,29.8776],[80.4758,29.8836],[80.4695,29.8894],[80.4679,29.8955],[80.4696,29.9005],[80.4739,29.9029],[80.493,29.9042],[80.5033,29.904],[80.5042,29.9063],[80.5031,29.925],[80.5071,29.9322],[80.5164,29.938],[80.5252,29.9409],[80.5425,29.943],[80.5495,29.9491],[80.5567,29.9669],[80.5509,29.9775],[80.5521,29.9929],[80.5512,29.9996],[80.5743,30.0252],[80.5782,30.0236],[80.5774,30.0153],[80.5815,30.0095],[80.5783,30.0081],[80.5908,30.0011],[80.6064,29.9984],[80.6219,29.9986],[80.6222,30.0083],[80.626,30.0148],[80.6387,30.0157],[80.643,30.0091],[80.6357,29.9995],[80.6359,29.9952],[80.643,29.9938],[80.6507,30.0034],[80.656,30.0057],[80.6707,30.0059],[80.6745,30.0047],[80.6859,30.0082],[80.6975,30.0047]]]]},"properties":{"id":"askot-musk-deer-wls","name":"Askot Musk Deer Wildlife Sanctuary","category":"wls","area_km2":600}}]}