{"type":"FeatureCollection","features":[{"type":"Feature","geometry":{"type":"Polygon","coordinates":[[[77.2219,28.4126],[77.2285,28.4139],[77.2386,28.4209],[77.2495,28.4245],[77.2526,28.4328],[77.249,28.433],[77.2489,28.447],[77.2458,28.4542],[77.2418,28.4562],[77.2344,28.4547],[77.2329,28.4581],[77.2356,28.4712],[77.2434,28.4789],[77.262,28.4851],[77.2705,28.4889],[77.2662,28.4977],[77.2599,28.5043],[77.257,28.5043],[77.2559,28.495],[77.2477,28.4925],[77.2497,28.4901],[77.238,28.4929],[77.2379,28.4881],[77.2312,28.4901],[77.2217,28.4888],[77.2191,28.4845],[77.2089,28.4879],[77.2065,28.4836],[77.2121,28.4811],[77.2093,28.4779],[77.2151,28.4779],[77.2189,28.4723],[77.217,28.4692],[77.2108,28.4693],[77.2098,28.461],[77.2037,28.4591],[77.2195,28.4534],[77.2221,28.4433],[77.217,28.4418],[77.2196,28.4382],[77.2126,28.4397],[77.2144,28.4339],[77.2066,28.4306],[77.2068,28.4242],[77.1986,28.4255],[77.1904,28.4234],[77.1909,28.4174],[77.1944,28.4153],[77.1947,28.4099],[77.2012,28.4113],[77.2219,28.4126]],[[77.2249,28.426],[77.2234,28.4359],[77.2319,28.4347],[77.2323,28.4322],[77.2249,28.426]]]},"properties":{"id":"asola-bhati-indira-priyadarshini-wls","name":"Asola Bhati (Indira Priyadarshini) Wildlife Sanctuary","category":"wls","area_km2":19.6}}]}