{"type":"FeatureCollection","features":[{"type":"Feature","geometry":{"type":"Polygon","coordinates":[[[76.6339,9.0022],[76.631,9.0063],[76.6215,9.0036],[76.6263,9.0077],[76.6256,9.0194],[76.6096,9.02],[76.6059,9.0143],[76.6032,9.0198],[76.5925,9.0149],[76.601,9.0106],[76.5936,9.0091],[76.5938,9.0051],[76.5847,8.9993],[76.581,8.9874],[76.5814,8.9838],[76.574,8.9792],[76.577,8.9736],[76.5692,8.9644],[76.5653,8.9532],[76.5564,8.9494],[76.5594,8.9578],[76.5544,8.9555],[76.5471,8.9588],[76.5491,8.9639],[76.5559,8.9628],[76.5604,8.967],[76.5551,8.967],[76.5552,8.9723],[76.5686,8.9773],[76.5716,8.9766],[76.5671,8.9879],[76.5664,8.9798],[76.5552,8.9774],[76.5464,8.97],[76.5426,8.9617],[76.5336,8.9609],[76.544,8.9555],[76.5409,8.9502],[76.5462,8.9521],[76.5483,8.9467],[76.5456,8.9421],[76.5491,8.9397],[76.5464,8.9368],[76.5354,8.9334],[76.5459,8.9331],[76.5534,8.9302],[76.5611,8.9308],[76.5623,8.9203],[76.5657,8.915],[76.5691,8.9196],[76.5675,8.924],[76.5788,8.9265],[76.5821,8.9293],[76.5907,8.9289],[76.591,8.9348],[76.6016,8.9373],[76.5937,8.9383],[76.5953,8.942],[76.5881,8.9406],[76.5889,8.9361],[76.5801,8.935],[76.5755,8.9288],[76.5704,8.9296],[76.5826,8.9439],[76.5933,8.952],[76.5979,8.9615],[76.594,8.9686],[76.5984,8.9738],[76.6034,8.9705],[76.5991,8.9657],[76.6032,8.9634],[76.5996,8.9582],[76.6074,8.9526],[76.6093,8.9607],[76.615,8.9626],[76.607,8.9646],[76.6079,8.9709],[76.6153,8.9699],[76.6187,8.967],[76.6229,8.9684],[76.6228,8.9639],[76.6183,8.958],[76.6238,8.9589],[76.6258,8.9497],[76.6383,8.9525],[76.643,8.9553],[76.6327,8.9567],[76.6365,8.9605],[76.6291,8.9573],[76.6282,8.9679],[76.6319,8.9716],[76.6324,8.9629],[76.6384,8.9696],[76.6439,8.9675],[76.6443,8.9614],[76.6489,8.965],[76.648,8.9592],[76.6564,8.9661],[76.6602,8.9628],[76.6566,8.9558],[76.6627,8.96],[76.6594,8.9705],[76.6666,8.9782],[76.6568,8.9752],[76.6557,8.9722],[76.6491,8.972],[76.6512,8.9763],[76.6487,8.9798],[76.6476,8.9741],[76.6409,8.9741],[76.6408,8.9779],[76.6361,8.9758],[76.6335,8.9811],[76.6285,8.9825],[76.6332,8.9852],[76.6356,8.981],[76.6429,8.9818],[76.6373,8.9851],[76.6378,8.9876],[76.6452,8.9842],[76.6427,8.9881],[76.6514,8.9881],[76.6535,8.9824],[76.6588,8.9816],[76.6556,8.985],[76.658,8.9894],[76.6552,8.9936],[76.664,8.9974],[76.6592,9.0002],[76.6546,8.9972],[76.6528,9.0015],[76.6504,8.994],[76.643,8.9928],[76.6462,9.0008],[76.6382,9.0007],[76.6404,8.996],[76.6331,8.9978],[76.6307,8.9904],[76.6246,8.9925],[76.6318,8.9967],[76.6339,9.0022]],[[76.6102,8.977],[76.611,8.9746],[76.6057,8.9714],[76.6037,8.9748],[76.6102,8.977]]]},"properties":{"id":"asthamudi-wetland-ramsar","name":"Asthamudi Wetland","category":"ramsar","area_km2":61.4}}]}