{"type":"FeatureCollection","features":[{"type":"Feature","geometry":{"type":"Polygon","coordinates":[[[83.7618,23.0085],[83.7488,23.0066],[83.7409,22.9973],[83.7544,22.9891],[83.7484,22.9788],[83.736,22.9788],[83.7349,22.9744],[83.7376,22.9673],[83.735,22.9614],[83.7383,22.9533],[83.7376,22.948],[83.7414,22.9394],[83.743,22.9283],[83.7412,22.9164],[83.7347,22.9091],[83.7358,22.9028],[83.7465,22.8936],[83.7478,22.89],[83.7546,22.8906],[83.7631,22.8988],[83.7624,22.9018],[83.7757,22.9012],[83.7802,22.8995],[83.7795,22.905],[83.7747,22.9082],[83.7648,22.9101],[83.7606,22.9201],[83.7644,22.9236],[83.7645,22.9332],[83.7692,22.935],[83.7769,22.9338],[83.7811,22.9246],[83.7902,22.9196],[83.7967,22.9225],[83.8042,22.9186],[83.7956,22.9116],[83.7969,22.909],[83.8037,22.9108],[83.8118,22.9106],[83.8225,22.9079],[83.8197,22.9055],[83.8268,22.9029],[83.8359,22.8953],[83.8302,22.8956],[83.8329,22.8895],[83.8457,22.888],[83.8485,22.8903],[83.8608,22.8897],[83.8689,22.893],[83.8748,22.8912],[83.8798,22.8869],[83.8894,22.8838],[83.8887,22.8785],[83.8965,22.8683],[83.8963,22.8602],[83.8996,22.862],[83.9045,22.8715],[83.9119,22.8712],[83.9073,22.8667],[83.913,22.8663],[83.9221,22.8712],[83.9242,22.8675],[83.9325,22.8621],[83.9377,22.8626],[83.931,22.8703],[83.9342,22.8722],[83.9498,22.873],[83.9476,22.8813],[83.9424,22.8831],[83.9473,22.8855],[83.9395,22.8887],[83.9454,22.8919],[83.9514,22.8915],[83.9489,22.8965],[83.9504,22.9035],[83.9469,22.9111],[83.9405,22.9124],[83.9336,22.9027],[83.9308,22.9076],[83.9358,22.9153],[83.9375,22.9244],[83.9337,22.9266],[83.9281,22.9253],[83.9246,22.9185],[83.9146,22.9229],[83.9099,22.9209],[83.9048,22.9253],[83.8975,22.9224],[83.9022,22.9191],[83.904,22.913],[83.9015,22.9059],[83.888,22.9046],[83.8825,22.9021],[83.8727,22.9008],[83.8544,22.9012],[83.8496,22.9112],[83.8524,22.9251],[83.8512,22.9319],[83.8561,22.9322],[83.8627,22.9284],[83.8617,22.9229],[83.8652,22.9221],[83.873,22.9286],[83.8765,22.9354],[83.881,22.9503],[83.8807,22.9546],[83.8737,22.9625],[83.8686,22.9646],[83.8643,22.9631],[83.8666,22.9555],[83.8598,22.9498],[83.8601,22.9442],[83.8504,22.9478],[83.8377,22.9429],[83.8341,22.9373],[83.8233,22.9407],[83.8139,22.9392],[83.798,22.9398],[83.7892,22.9367],[83.7856,22.9325],[83.7807,22.9336],[83.7782,22.9381],[83.7829,22.9491],[83.7819,22.9536],[83.7765,22.9581],[83.7778,22.9652],[83.7818,22.9715],[83.7959,22.9783],[83.8076,22.9768],[83.8049,22.9869],[83.801,22.9885],[83.7989,22.9959],[83.7853,22.9876],[83.7848,22.9974],[83.7796,23.0034],[83.7618,23.0085]]]},"properties":{"id":"badalkhol-wls","name":"Badalkhol Wildlife Sanctuary","category":"wls","area_km2":104.5}}]}