{"type":"FeatureCollection","features":[{"type":"Feature","geometry":{"type":"Polygon","coordinates":[[[84.2966,21.5772],[84.2916,21.5799],[84.2737,21.5772],[84.276,21.5713],[84.2816,21.5673],[84.2893,21.5588],[84.299,21.5443],[84.2971,21.5419],[84.29,21.5438],[84.2869,21.5528],[84.2712,21.5705],[84.2675,21.5682],[84.2674,21.5617],[84.2724,21.5466],[84.2775,21.5412],[84.2762,21.5351],[84.2696,21.5295],[84.2652,21.5291],[84.2566,21.5354],[84.245,21.5324],[84.2429,21.5334],[84.2413,21.5432],[84.2297,21.5484],[84.2185,21.5499],[84.2119,21.5488],[84.2089,21.5443],[84.2068,21.5268],[84.2069,21.5155],[84.2208,21.488],[84.2274,21.4875],[84.2237,21.4793],[84.2306,21.4719],[84.2366,21.4681],[84.2462,21.4713],[84.2508,21.4705],[84.2526,21.4618],[84.2496,21.4533],[84.2568,21.4491],[84.2575,21.4461],[84.2518,21.446],[84.2426,21.452],[84.2394,21.4589],[84.2354,21.4599],[84.2386,21.4473],[84.2515,21.4191],[84.26,21.4125],[84.2632,21.4045],[84.2814,21.3929],[84.2978,21.3789],[84.3167,21.366],[84.3445,21.352],[84.3669,21.3466],[84.3965,21.3337],[84.399,21.3257],[84.4071,21.321],[84.4299,21.3174],[84.4373,21.3118],[84.4405,21.3248],[84.4352,21.3304],[84.4359,21.3346],[84.4444,21.3258],[84.4564,21.3182],[84.4795,21.3114],[84.4819,21.3261],[84.478,21.3303],[84.4833,21.3368],[84.4707,21.3559],[84.4737,21.3612],[84.4705,21.3748],[84.474,21.381],[84.4739,21.3905],[84.4709,21.399],[84.4629,21.4076],[84.4637,21.4274],[84.4675,21.432],[84.4699,21.4429],[84.4808,21.4417],[84.4806,21.4446],[84.4583,21.4451],[84.4511,21.4481],[84.4508,21.4554],[84.4361,21.4554],[84.4272,21.4635],[84.4183,21.4766],[84.415,21.4833],[84.4203,21.4881],[84.4251,21.486],[84.4332,21.4873],[84.438,21.4908],[84.4457,21.4908],[84.4502,21.5],[84.4445,21.5115],[84.4316,21.5146],[84.4229,21.5217],[84.4071,21.5248],[84.4033,21.5186],[84.397,21.5157],[84.3815,21.5158],[84.378,21.5094],[84.3683,21.5057],[84.3559,21.5052],[84.3506,21.5072],[84.3485,21.5138],[84.3369,21.5114],[84.33,21.5138],[84.3285,21.5245],[84.3223,21.5304],[84.3143,21.543],[84.3098,21.5471],[84.3069,21.5542],[84.3113,21.5574],[84.3122,21.5629],[84.3081,21.5712],[84.3014,21.5706],[84.2966,21.5772]]]},"properties":{"id":"badrama-wls","name":"Badrama Wildlife Sanctuary","category":"wls","area_km2":304}}]}