{"type":"FeatureCollection","features":[{"type":"Feature","geometry":{"type":"Polygon","coordinates":[[[82.453,24.6843],[82.4508,24.6898],[82.4381,24.7006],[82.4275,24.7024],[82.4145,24.6922],[82.4142,24.6884],[82.4059,24.6813],[82.4111,24.6717],[82.414,24.6699],[82.4115,24.6651],[82.4123,24.659],[82.4178,24.6515],[82.4166,24.6425],[82.4094,24.6348],[82.4092,24.6255],[82.4137,24.6205],[82.411,24.6146],[82.421,24.6021],[82.4109,24.5996],[82.4108,24.5949],[82.4057,24.5968],[82.4041,24.5939],[82.3913,24.593],[82.361,24.5991],[82.3557,24.6043],[82.3498,24.615],[82.3444,24.6154],[82.3389,24.6202],[82.3299,24.6184],[82.3221,24.6122],[82.32,24.6063],[82.3161,24.6076],[82.3011,24.6076],[82.2962,24.6065],[82.291,24.6182],[82.2822,24.6191],[82.2805,24.6144],[82.2819,24.604],[82.2867,24.5876],[82.2898,24.5863],[82.3123,24.588],[82.3204,24.5863],[82.3342,24.5757],[82.3451,24.5746],[82.3608,24.5707],[82.3837,24.5685],[82.3984,24.5628],[82.4032,24.5624],[82.4134,24.5578],[82.433,24.5469],[82.4423,24.5443],[82.4801,24.5424],[82.4987,24.5355],[82.5109,24.5267],[82.5225,24.5216],[82.5375,24.5234],[82.5444,24.5266],[82.5511,24.5324],[82.5658,24.5373],[82.5879,24.5434],[82.6004,24.5507],[82.6128,24.5558],[82.6449,24.5661],[82.6495,24.5691],[82.6605,24.5822],[82.6726,24.5862],[82.6921,24.5832],[82.7006,24.583],[82.7197,24.5932],[82.7301,24.6046],[82.7421,24.6114],[82.7503,24.6121],[82.7542,24.6033],[82.7683,24.6062],[82.7943,24.5973],[82.8006,24.5976],[82.8103,24.6007],[82.8281,24.6022],[82.8408,24.6059],[82.8613,24.6064],[82.8714,24.6051],[82.8867,24.6073],[82.8942,24.6037],[82.9145,24.6003],[82.9321,24.6],[82.9424,24.5971],[82.9452,24.6117],[82.9274,24.6143],[82.9155,24.6201],[82.9063,24.6134],[82.8963,24.6155],[82.8874,24.6151],[82.8689,24.6211],[82.8631,24.6286],[82.8456,24.6265],[82.8349,24.6285],[82.8235,24.6266],[82.8094,24.6271],[82.8042,24.6314],[82.7943,24.6325],[82.7806,24.6404],[82.7742,24.6364],[82.7674,24.6356],[82.7615,24.6379],[82.7523,24.6351],[82.7458,24.6393],[82.7338,24.638],[82.7306,24.633],[82.7187,24.6318],[82.707,24.6373],[82.6965,24.631],[82.692,24.634],[82.6959,24.6463],[82.6899,24.6508],[82.6926,24.6586],[82.6939,24.6705],[82.6905,24.6754],[82.6844,24.6758],[82.6828,24.6707],[82.6704,24.673],[82.667,24.6801],[82.6621,24.6833],[82.6489,24.6803],[82.6413,24.6817],[82.6351,24.6759],[82.6266,24.6771],[82.6141,24.6743],[82.6135,24.6679],[82.6054,24.6697],[82.5961,24.6636],[82.5878,24.6623],[82.5837,24.6583],[82.565,24.6508],[82.5512,24.6487],[82.5538,24.6448],[82.5481,24.6387],[82.5414,24.6377],[82.5263,24.6464],[82.5216,24.6517],[82.5153,24.6636],[82.5105,24.6666],[82.4989,24.6672],[82.479,24.6796],[82.4511,24.6795],[82.453,24.6843]]]},"properties":{"id":"bagdara-wls","name":"Bagdara Wildlife Sanctuary","category":"wls","area_km2":478}}]}