{"type":"FeatureCollection","features":[{"type":"Feature","geometry":{"type":"Polygon","coordinates":[[[84.7902,20.5157],[84.7839,20.5199],[84.7774,20.5289],[84.7693,20.5322],[84.7595,20.5329],[84.759,20.5295],[84.7496,20.5172],[84.7298,20.5177],[84.7175,20.5208],[84.7144,20.5164],[84.7133,20.5068],[84.7019,20.4996],[84.6967,20.4898],[84.6922,20.4696],[84.6846,20.4632],[84.6925,20.4533],[84.6894,20.4479],[84.6906,20.4418],[84.685,20.4388],[84.6837,20.4344],[84.6772,20.4325],[84.6679,20.4248],[84.6473,20.424],[84.6403,20.4258],[84.631,20.4311],[84.6197,20.4322],[84.6227,20.4285],[84.637,20.4237],[84.6684,20.4155],[84.6913,20.4112],[84.7056,20.4107],[84.7189,20.4127],[84.729,20.4097],[84.7365,20.4037],[84.7423,20.4081],[84.7563,20.4148],[84.7677,20.4155],[84.7826,20.424],[84.7868,20.4317],[84.7784,20.4367],[84.7797,20.4392],[84.789,20.4403],[84.7954,20.4492],[84.8038,20.4486],[84.8109,20.4536],[84.8034,20.4627],[84.8031,20.4756],[84.7981,20.4836],[84.7994,20.4957],[84.7955,20.5038],[84.7958,20.5096],[84.7902,20.5157]]]},"properties":{"id":"baisipalli-wls","name":"Baisipalli Wildlife Sanctuary","category":"wls","area_km2":168.4}}]}