{"type":"FeatureCollection","features":[{"type":"Feature","geometry":{"type":"Polygon","coordinates":[[[83.1736,26.8871],[83.1712,26.8893],[83.1716,26.8967],[83.1656,26.9069],[83.1555,26.9138],[83.1409,26.9174],[83.1377,26.9236],[83.1312,26.9235],[83.1302,26.9263],[83.1158,26.9349],[83.1063,26.9342],[83.0994,26.9392],[83.0958,26.9371],[83.0883,26.921],[83.0925,26.9139],[83.1,26.9097],[83.1048,26.9099],[83.1119,26.9019],[83.1237,26.8933],[83.1321,26.8955],[83.1457,26.8782],[83.1528,26.8728],[83.1569,26.8732],[83.1636,26.8804],[83.1742,26.8754],[83.1899,26.8721],[83.1937,26.8756],[83.1807,26.8775],[83.1851,26.8841],[83.1736,26.8871]]]},"properties":{"id":"bakhira-wls","name":"Bakhira Wildlife Sanctuary","category":"wls","area_km2":28.9}}]}