{"type":"FeatureCollection","features":[{"type":"Feature","geometry":{"type":"Polygon","coordinates":[[[83.089,26.9239],[83.0887,26.9182],[83.0929,26.9137],[83.1008,26.9095],[83.1052,26.9099],[83.1149,26.8992],[83.1223,26.8942],[83.1328,26.8956],[83.1418,26.8852],[83.1441,26.8803],[83.1522,26.873],[83.1574,26.8732],[83.1661,26.8822],[83.1657,26.8865],[83.1556,26.8906],[83.1645,26.892],[83.1701,26.898],[83.1598,26.9084],[83.1605,26.9131],[83.1449,26.9172],[83.1443,26.9217],[83.1209,26.9403],[83.1101,26.9361],[83.1006,26.9422],[83.0964,26.9385],[83.089,26.9239]]]},"properties":{"id":"bakhira-wildlife-sanctuary-ramsar","name":"Bakhira Wildlife Sanctuary","category":"ramsar","area_km2":28.9}}]}