{"type":"FeatureCollection","features":[{"type":"Feature","geometry":{"type":"Polygon","coordinates":[[[72.7326,24.3636],[72.7243,24.3676],[72.7199,24.3748],[72.705,24.3907],[72.7004,24.3836],[72.6956,24.3804],[72.685,24.3613],[72.6807,24.3632],[72.6707,24.3636],[72.6688,24.3702],[72.6644,24.3757],[72.6626,24.3825],[72.6533,24.3878],[72.6475,24.3847],[72.6406,24.3866],[72.6322,24.3817],[72.6305,24.3728],[72.6324,24.3617],[72.626,24.361],[72.627,24.366],[72.6218,24.3716],[72.6167,24.3724],[72.6139,24.3616],[72.6231,24.3562],[72.609,24.361],[72.6,24.359],[72.5983,24.3538],[72.6019,24.3481],[72.6097,24.3451],[72.6101,24.3425],[72.5907,24.3475],[72.5863,24.3434],[72.5703,24.3456],[72.5614,24.3456],[72.5547,24.3425],[72.5521,24.3374],[72.5616,24.3307],[72.5753,24.3309],[72.5864,24.3343],[72.5963,24.3307],[72.596,24.3279],[72.5874,24.328],[72.5845,24.3233],[72.578,24.3202],[72.5759,24.3233],[72.5668,24.3275],[72.5567,24.3239],[72.554,24.3162],[72.5597,24.3069],[72.5667,24.3055],[72.5785,24.2995],[72.5825,24.2954],[72.6111,24.2903],[72.6215,24.2965],[72.6277,24.3043],[72.6364,24.3061],[72.6387,24.3164],[72.6514,24.3168],[72.6656,24.3203],[72.6678,24.3289],[72.6801,24.3274],[72.6838,24.3255],[72.6952,24.3248],[72.6963,24.3212],[72.6885,24.3218],[72.6932,24.317],[72.6866,24.3174],[72.6844,24.3122],[72.6881,24.3121],[72.6804,24.2908],[72.6846,24.2897],[72.6941,24.2913],[72.7046,24.296],[72.7069,24.3051],[72.7102,24.3102],[72.7165,24.31],[72.7181,24.2993],[72.7255,24.2949],[72.7257,24.2894],[72.7194,24.2913],[72.7181,24.2956],[72.7075,24.2962],[72.7052,24.2916],[72.7095,24.2701],[72.72,24.2595],[72.728,24.2534],[72.7378,24.2501],[72.7335,24.243],[72.7283,24.2395],[72.7207,24.2406],[72.7141,24.2342],[72.7063,24.2321],[72.7019,24.2366],[72.6973,24.2358],[72.6923,24.2402],[72.687,24.2378],[72.6895,24.2324],[72.6842,24.2322],[72.6846,24.2361],[72.6799,24.2361],[72.6698,24.2488],[72.6593,24.2464],[72.6359,24.2453],[72.6366,24.2397],[72.6437,24.2359],[72.6482,24.2291],[72.6477,24.2206],[72.6516,24.2164],[72.647,24.2154],[72.6368,24.2256],[72.6258,24.2284],[72.6252,24.2259],[72.6177,24.2246],[72.6116,24.2146],[72.6023,24.2269],[72.5994,24.222],[72.6005,24.2029],[72.6106,24.196],[72.6209,24.1998],[72.6213,24.1864],[72.619,24.1878],[72.6111,24.1802],[72.6151,24.1716],[72.6241,24.1694],[72.6261,24.164],[72.6154,24.1611],[72.6156,24.1533],[72.6268,24.1495],[72.6386,24.155],[72.6413,24.1611],[72.6495,24.1631],[72.6489,24.1744],[72.6532,24.1712],[72.6548,24.1661],[72.6648,24.1765],[72.679,24.1871],[72.6882,24.2001],[72.6854,24.2053],[72.6937,24.2084],[72.6989,24.2147],[72.7044,24.2123],[72.7101,24.2146],[72.7178,24.2259],[72.7264,24.2225],[72.7355,24.2246],[72.7441,24.2162],[72.7517,24.2244],[72.755,24.2436],[72.7643,24.2601],[72.7714,24.2621],[72.7849,24.278],[72.7883,24.277],[72.7961,24.2843],[72.8098,24.291],[72.8093,24.2856],[72.8126,24.2794],[72.8195,24.2782],[72.8251,24.2707],[72.8296,24.2706],[72.8371,24.2583],[72.8356,24.2545],[72.842,24.2558],[72.8541,24.2475],[72.8704,24.231],[72.8718,24.218],[72.876,24.2154],[72.8927,24.2131],[72.8982,24.2162],[72.9026,24.231],[72.9064,24.2356],[72.9065,24.2464],[72.9013,24.2564],[72.9101,24.2531],[72.9117,24.2418],[72.9103,24.2352],[72.9134,24.2267],[72.9233,24.2249],[72.9255,24.2284],[72.9199,24.2341],[72.9214,24.2403],[72.9283,24.2374],[72.9344,24.2408],[72.9426,24.2538],[72.9447,24.2609],[72.9352,24.2655],[72.937,24.2686],[72.9459,24.2675],[72.9503,24.2633],[72.9504,24.2576],[72.9594,24.2575],[72.963,24.2605],[72.963,24.2681],[72.9586,24.2683],[72.9505,24.2732],[72.9413,24.2759],[72.9388,24.279],[72.9398,24.2871],[72.9498,24.3034],[72.948,24.3109],[72.9449,24.3102],[72.9354,24.2976],[72.9255,24.3003],[72.9215,24.3067],[72.9161,24.3053],[72.9165,24.311],[72.9256,24.3087],[72.9292,24.3112],[72.9306,24.3219],[72.9277,24.3251],[72.9315,24.3284],[72.9467,24.3332],[72.9491,24.3307],[72.9456,24.3159],[72.949,24.3158],[72.9565,24.328],[72.9618,24.3307],[72.956,24.3162],[72.9623,24.3061],[72.9611,24.2982],[72.9702,24.2989],[72.9759,24.3057],[72.9819,24.3168],[72.9761,24.3229],[72.9769,24.3389],[72.9943,24.3421],[72.9995,24.3464],[72.9993,24.3509],[72.9945,24.3566],[72.9931,24.3625],[72.9894,24.3635],[72.9816,24.3588],[72.9753,24.3632],[72.9613,24.3624],[72.9537,24.3565],[72.9503,24.3563],[72.9377,24.3483],[72.9275,24.345],[72.9192,24.3444],[72.9161,24.3356],[72.9064,24.338],[72.8991,24.3343],[72.8898,24.3234],[72.8861,24.3149],[72.8873,24.3087],[72.8829,24.3035],[72.8773,24.3098],[72.8708,24.312],[72.8576,24.3104],[72.851,24.3133],[72.8546,24.3199],[72.8504,24.3202],[72.847,24.3108],[72.843,24.2951],[72.8426,24.2856],[72.8609,24.2854],[72.858,24.2803],[72.8491,24.2797],[72.8362,24.2828],[72.8337,24.2788],[72.8374,24.2776],[72.8342,24.2706],[72.8297,24.2736],[72.8259,24.2833],[72.82,24.2803],[72.8151,24.2841],[72.8223,24.2856],[72.8244,24.2892],[72.8371,24.2921],[72.8347,24.2961],[72.8402,24.3043],[72.8377,24.3113],[72.8325,24.3108],[72.8339,24.3188],[72.8382,24.3228],[72.8351,24.3279],[72.8352,24.3403],[72.8438,24.3399],[72.8368,24.3461],[72.8412,24.3489],[72.839,24.3577],[72.8442,24.3544],[72.8457,24.3473],[72.8566,24.3457],[72.8558,24.3504],[72.8604,24.3612],[72.8544,24.3711],[72.8497,24.372],[72.8374,24.3693],[72.8148,24.3702],[72.8036,24.3633],[72.7714,24.3682],[72.7482,24.3651],[72.7406,24.3619],[72.7427,24.3547],[72.7394,24.3494],[72.7465,24.345],[72.7434,24.3341],[72.7371,24.3319],[72.7306,24.3345],[72.7301,24.3423],[72.7359,24.3516],[72.7341,24.3538],[72.7354,24.3626],[72.7326,24.3636]],[[72.7545,24.331],[72.754,24.3357],[72.7767,24.3433],[72.776,24.3518],[72.7811,24.3575],[72.7907,24.3552],[72.7987,24.36],[72.8031,24.3531],[72.7981,24.3501],[72.7945,24.3356],[72.7947,24.3149],[72.7959,24.2891],[72.7886,24.2853],[72.7667,24.2848],[72.7468,24.2923],[72.7432,24.3039],[72.737,24.3076],[72.7385,24.3132],[72.7442,24.3204],[72.7507,24.3184],[72.7583,24.3222],[72.7545,24.331]],[[72.823,24.3354],[72.8229,24.3397],[72.8272,24.3407],[72.8296,24.336],[72.823,24.3354]]]},"properties":{"id":"balaram-ambaji-wls","name":"Balaram Ambaji Wildlife Sanctuary","category":"wls","area_km2":542.1}}]}