{"type":"FeatureCollection","features":[{"type":"Feature","geometry":{"type":"Polygon","coordinates":[[[90.7389,25.3385],[90.7142,25.3335],[90.7113,25.3235],[90.701,25.3244],[90.6955,25.3205],[90.6876,25.323],[90.6723,25.3248],[90.6694,25.3209],[90.6621,25.3172],[90.6592,25.3071],[90.6602,25.3007],[90.6746,25.3006],[90.6754,25.2947],[90.6828,25.2951],[90.6934,25.3019],[90.706,25.292],[90.7156,25.2884],[90.7229,25.2826],[90.7232,25.2767],[90.7315,25.268],[90.7452,25.2604],[90.7344,25.255],[90.7167,25.2435],[90.7105,25.2345],[90.7112,25.2257],[90.7271,25.2211],[90.732,25.222],[90.7423,25.2314],[90.7535,25.233],[90.7623,25.2372],[90.7626,25.2456],[90.7706,25.2506],[90.7795,25.2491],[90.7836,25.2416],[90.7895,25.2415],[90.7921,25.247],[90.7964,25.247],[90.8078,25.2404],[90.8186,25.2214],[90.8287,25.2071],[90.8412,25.2046],[90.8447,25.2004],[90.8402,25.1893],[90.8407,25.1854],[90.846,25.1836],[90.8535,25.1844],[90.8661,25.1907],[90.8668,25.1971],[90.8747,25.1987],[90.8884,25.195],[90.8957,25.1976],[90.8981,25.2046],[90.9173,25.2058],[90.9304,25.2026],[90.9356,25.2044],[90.9495,25.219],[90.9594,25.2344],[90.9585,25.245],[90.949,25.2575],[90.9428,25.2609],[90.9344,25.2716],[90.9229,25.2821],[90.9066,25.2938],[90.8951,25.2965],[90.879,25.2925],[90.8645,25.2913],[90.8569,25.2933],[90.8591,25.3013],[90.8665,25.3188],[90.8669,25.3324],[90.8604,25.3396],[90.8421,25.3487],[90.8375,25.3554],[90.8251,25.3537],[90.8164,25.3589],[90.815,25.3634],[90.8095,25.3673],[90.8016,25.3686],[90.7925,25.3678],[90.779,25.3634],[90.7696,25.3509],[90.7619,25.3444],[90.7501,25.3396],[90.7389,25.3385]]]},"properties":{"id":"balphakram-np","name":"Balphakram National Park","category":"np","area_km2":220}}]}