{"type":"FeatureCollection","features":[{"type":"Feature","geometry":{"type":"Polygon","coordinates":[[[75.4763,34.1236],[75.4794,34.1247],[75.4823,34.14],[75.4978,34.1636],[75.5007,34.1757],[75.4913,34.1859],[75.4898,34.1921],[75.4692,34.2061],[75.45,34.2129],[75.4359,34.2226],[75.4135,34.2344],[75.4111,34.2415],[75.4183,34.251],[75.4155,34.2545],[75.4016,34.2594],[75.3751,34.2622],[75.353,34.2717],[75.3457,34.2771],[75.335,34.2795],[75.3321,34.283],[75.3237,34.2858],[75.3192,34.2952],[75.3011,34.2967],[75.2895,34.3005],[75.2744,34.2992],[75.2717,34.2909],[75.2676,34.2916],[75.2629,34.2989],[75.2569,34.2926],[75.2517,34.2904],[75.2381,34.2916],[75.2276,34.2965],[75.2166,34.2995],[75.2136,34.2941],[75.2191,34.2849],[75.2302,34.2724],[75.2477,34.2544],[75.2534,34.251],[75.2638,34.2573],[75.2751,34.2525],[75.2921,34.2386],[75.3117,34.2331],[75.3215,34.2261],[75.3342,34.2145],[75.3381,34.2059],[75.3368,34.1951],[75.3275,34.1848],[75.3192,34.1792],[75.3073,34.1622],[75.3064,34.1492],[75.2988,34.1275],[75.2984,34.1168],[75.3021,34.1127],[75.3108,34.1107],[75.3217,34.1039],[75.3254,34.0956],[75.3297,34.0929],[75.3436,34.0946],[75.3514,34.0994],[75.3564,34.1054],[75.3649,34.1201],[75.374,34.1392],[75.3742,34.1467],[75.3801,34.1613],[75.3907,34.1731],[75.3987,34.1782],[75.405,34.1789],[75.4122,34.1737],[75.4196,34.1652],[75.4196,34.1534],[75.4226,34.1492],[75.4354,34.1437],[75.4426,34.1374],[75.4498,34.1384],[75.458,34.1332],[75.4696,34.1336],[75.4763,34.1236]]]},"properties":{"id":"baltas-thajwas-wls","name":"Baltas-Thajwas Wildlife Sanctuary","category":"wls","area_km2":210.5}}]}