{"type":"FeatureCollection","features":[{"type":"Feature","geometry":{"type":"Polygon","coordinates":[[[86.1292,19.8948],[86.1163,19.8867],[86.1096,19.8894],[86.1053,19.8886],[86.1082,19.8833],[86.1029,19.881],[86.0944,19.8822],[86.0825,19.8879],[86.0627,19.8833],[86.0478,19.8762],[86.0388,19.879],[86.0313,19.8796],[86.0243,19.8758],[86.0236,19.8663],[86.0272,19.8584],[86.0163,19.8526],[86.01,19.8475],[86.0075,19.8535],[85.9954,19.8541],[85.9912,19.8561],[85.9631,19.8486],[85.9382,19.8597],[85.9142,19.8474],[85.8924,19.838],[85.8582,19.8247],[85.8645,19.8054],[85.8916,19.8122],[85.9177,19.8181],[85.9259,19.8226],[85.9481,19.8282],[85.9779,19.8342],[85.9884,19.8356],[86.0343,19.8446],[86.058,19.8498],[86.0863,19.8582],[86.1158,19.8656],[86.1437,19.8735],[86.1938,19.8888],[86.2037,19.8925],[86.1948,19.8987],[86.1916,19.9083],[86.1873,19.9101],[86.1799,19.9091],[86.17,19.9016],[86.1595,19.8987],[86.1466,19.9004],[86.1292,19.8948]]]},"properties":{"id":"balukhand-konark-wls","name":"Balukhand Konark Wildlife Sanctuary","category":"wls","area_km2":71.7}}]}