{"type":"FeatureCollection","features":[{"type":"Feature","geometry":{"type":"Polygon","coordinates":[[[76.9355,31.4576],[76.9307,31.4729],[76.9227,31.4808],[76.9031,31.4825],[76.8961,31.48],[76.8899,31.4809],[76.8837,31.4769],[76.8777,31.4654],[76.8819,31.4615],[76.8786,31.4597],[76.8735,31.4625],[76.8695,31.4562],[76.8683,31.4453],[76.8658,31.4406],[76.87,31.4381],[76.8733,31.4434],[76.885,31.4416],[76.8855,31.4358],[76.8814,31.4283],[76.8878,31.4257],[76.8837,31.4201],[76.8856,31.4107],[76.8971,31.4109],[76.9045,31.4044],[76.914,31.4057],[76.9203,31.4152],[76.9212,31.421],[76.9178,31.4264],[76.9249,31.4202],[76.9356,31.4241],[76.9413,31.4233],[76.9465,31.4295],[76.942,31.4344],[76.9444,31.4387],[76.95,31.441],[76.9424,31.4476],[76.9355,31.4576]]]},"properties":{"id":"bandli-wls","name":"Bandli Wildlife Sanctuary","category":"wls","area_km2":32.1}}]}