{"type":"FeatureCollection","features":[{"type":"Feature","geometry":{"type":"Polygon","coordinates":[[[76.4368,11.9436],[76.4339,11.9493],[76.4215,11.9487],[76.4206,11.9413],[76.4154,11.9335],[76.402,11.9205],[76.3846,11.9191],[76.3825,11.9172],[76.3886,11.9075],[76.4007,11.9077],[76.4023,11.9035],[76.3904,11.8887],[76.3919,11.8663],[76.3843,11.8579],[76.3793,11.8551],[76.3643,11.8528],[76.3573,11.856],[76.3455,11.8573],[76.3435,11.8765],[76.3389,11.883],[76.3402,11.8896],[76.349,11.9012],[76.3533,11.9115],[76.3521,11.9159],[76.3316,11.924],[76.3166,11.9223],[76.3118,11.9133],[76.3093,11.9015],[76.3019,11.9012],[76.2824,11.9043],[76.2704,11.9008],[76.2658,11.9053],[76.253,11.9083],[76.2267,11.91],[76.2202,11.9158],[76.2123,11.9187],[76.2061,11.9141],[76.2118,11.9077],[76.2118,11.9033],[76.2051,11.8902],[76.2066,11.8856],[76.2154,11.8829],[76.213,11.8776],[76.2051,11.8763],[76.2042,11.8738],[76.2097,11.8677],[76.2076,11.861],[76.2117,11.8404],[76.2096,11.8282],[76.2181,11.8187],[76.2185,11.8139],[76.2269,11.8062],[76.2381,11.8035],[76.2489,11.8036],[76.2583,11.8088],[76.2676,11.8096],[76.2801,11.8124],[76.2883,11.7951],[76.3017,11.786],[76.3077,11.7848],[76.311,11.768],[76.3144,11.7624],[76.3149,11.7568],[76.3188,11.7508],[76.329,11.7483],[76.3396,11.739],[76.3502,11.7403],[76.3524,11.7383],[76.3624,11.7482],[76.3684,11.7482],[76.3769,11.7446],[76.3863,11.7491],[76.3933,11.7551],[76.3975,11.7509],[76.4141,11.7589],[76.4122,11.7519],[76.4132,11.7402],[76.4181,11.7426],[76.422,11.7383],[76.4273,11.726],[76.4246,11.7209],[76.4165,11.7176],[76.4135,11.7111],[76.4117,11.7158],[76.4036,11.7117],[76.4052,11.7059],[76.4088,11.7064],[76.41,11.6946],[76.4084,11.6897],[76.4131,11.6857],[76.4128,11.6823],[76.4166,11.6718],[76.4206,11.6725],[76.4281,11.67],[76.4295,11.6662],[76.4335,11.6667],[76.4438,11.6637],[76.4489,11.6656],[76.458,11.6644],[76.4749,11.6818],[76.4825,11.6862],[76.4816,11.6926],[76.4892,11.6916],[76.5045,11.6992],[76.5116,11.705],[76.5311,11.6949],[76.5387,11.6896],[76.5513,11.6724],[76.5499,11.6612],[76.5543,11.6555],[76.5538,11.6458],[76.5586,11.6385],[76.5617,11.6289],[76.5595,11.6253],[76.5669,11.6188],[76.5754,11.619],[76.5764,11.6148],[76.5832,11.6139],[76.5908,11.6189],[76.5966,11.6158],[76.5975,11.6107],[76.6105,11.6109],[76.6135,11.6077],[76.629,11.6137],[76.6501,11.6135],[76.6713,11.616],[76.6845,11.614],[76.7026,11.6159],[76.7217,11.6145],[76.7377,11.6153],[76.7484,11.6141],[76.7568,11.6185],[76.7647,11.6142],[76.7701,11.6158],[76.7746,11.6124],[76.7914,11.6128],[76.7956,11.6088],[76.8091,11.6084],[76.8174,11.6048],[76.8227,11.6081],[76.8396,11.597],[76.8467,11.5946],[76.8563,11.5994],[76.8556,11.6076],[76.8579,11.6141],[76.8504,11.6161],[76.8494,11.6244],[76.8447,11.6282],[76.8454,11.6323],[76.8384,11.6354],[76.8345,11.6397],[76.8375,11.6416],[76.8336,11.649],[76.8409,11.661],[76.8472,11.678],[76.8449,11.6833],[76.8449,11.6979],[76.8436,11.7007],[76.8372,11.7009],[76.8253,11.6919],[76.8097,11.6843],[76.8114,11.678],[76.8081,11.6743],[76.7964,11.6723],[76.774,11.6764],[76.7696,11.6752],[76.763,11.6687],[76.7471,11.666],[76.7438,11.6639],[76.7361,11.6462],[76.7235,11.6391],[76.7208,11.6341],[76.6999,11.6353],[76.6936,11.6338],[76.6851,11.6257],[76.6869,11.619],[76.6821,11.617],[76.6666,11.6256],[76.6606,11.6308],[76.6584,11.6376],[76.645,11.6382],[76.6471,11.6474],[76.6455,11.6586],[76.6498,11.6658],[76.6674,11.6632],[76.677,11.6599],[76.6786,11.6635],[76.6704,11.6775],[76.6548,11.6769],[76.6514,11.6783],[76.6449,11.6882],[76.6178,11.7035],[76.6165,11.7074],[76.6346,11.7058],[76.6407,11.7118],[76.6407,11.7181],[76.6291,11.7188],[76.6303,11.7255],[76.596,11.7277],[76.5921,11.7332],[76.5764,11.7476],[76.5541,11.7483],[76.5477,11.7631],[76.5458,11.772],[76.5489,11.7758],[76.5447,11.7793],[76.5403,11.7892],[76.551,11.7884],[76.5568,11.7953],[76.5666,11.802],[76.5626,11.8087],[76.5626,11.8183],[76.5657,11.8478],[76.5658,11.8569],[76.5606,11.86],[76.5652,11.8803],[76.5899,11.9268],[76.5889,11.9289],[76.5777,11.9279],[76.5739,11.9205],[76.5651,11.9158],[76.558,11.9157],[76.5467,11.9183],[76.5449,11.9161],[76.5453,11.901],[76.5384,11.8924],[76.5281,11.8888],[76.5205,11.8924],[76.5183,11.9164],[76.5115,11.9343],[76.5083,11.935],[76.5027,11.9283],[76.5033,11.901],[76.4965,11.8943],[76.484,11.8798],[76.473,11.8782],[76.4657,11.8741],[76.4399,11.8537],[76.4393,11.851],[76.4467,11.8194],[76.4385,11.8187],[76.422,11.8277],[76.4206,11.8329],[76.4084,11.8357],[76.4079,11.8523],[76.4116,11.8664],[76.4091,11.8757],[76.4122,11.8867],[76.4249,11.8914],[76.4284,11.8977],[76.4275,11.9042],[76.4342,11.9155],[76.4322,11.9199],[76.4354,11.926],[76.4402,11.9264],[76.4304,11.9317],[76.4378,11.9332],[76.4391,11.9358],[76.4335,11.9395],[76.4384,11.94],[76.4412,11.9444],[76.4368,11.9436]]]},"properties":{"id":"bandipur-tr","name":"Bandipur Tiger Reserve","category":"tr","area_km2":872.2}}]}