{"type":"FeatureCollection","features":[{"type":"Feature","geometry":{"type":"Polygon","coordinates":[[[80.9915,23.7525],[81.0015,23.7516],[80.9998,23.7465],[80.9914,23.747],[80.9799,23.7436],[80.9826,23.7386],[80.9937,23.7372],[81.0058,23.7388],[81.0127,23.7413],[81.0171,23.7513],[81.0309,23.7705],[81.0302,23.7732],[81.0222,23.7735],[81.0095,23.7781],[80.9869,23.7772],[80.9836,23.7808],[80.9576,23.7736],[80.9483,23.7654],[80.9505,23.76],[80.9458,23.7618],[80.9393,23.758],[80.9359,23.7491],[80.9309,23.7516],[80.9367,23.7612],[80.9247,23.7632],[80.9196,23.7521],[80.9241,23.7465],[80.9165,23.743],[80.9162,23.7368],[80.9131,23.7329],[80.8987,23.7258],[80.8908,23.7235],[80.8789,23.7141],[80.8808,23.701],[80.8781,23.6954],[80.8777,23.6863],[80.864,23.6837],[80.8771,23.6771],[80.8582,23.6712],[80.8484,23.6722],[80.8458,23.6783],[80.8488,23.6842],[80.8563,23.6886],[80.8546,23.6942],[80.8491,23.7012],[80.8443,23.7022],[80.8424,23.6926],[80.8352,23.6879],[80.8207,23.6863],[80.8165,23.6887],[80.8162,23.6809],[80.8045,23.683],[80.7853,23.665],[80.7781,23.6605],[80.7867,23.6539],[80.7968,23.6485],[80.8006,23.6483],[80.8036,23.6419],[80.8114,23.6399],[80.8163,23.6316],[80.8196,23.6375],[80.834,23.6378],[80.8359,23.6359],[80.8242,23.6231],[80.8306,23.6195],[80.8351,23.6225],[80.8434,23.6236],[80.842,23.6286],[80.8467,23.6292],[80.8566,23.6348],[80.8581,23.6386],[80.8748,23.6455],[80.8869,23.6531],[80.9117,23.6629],[80.918,23.6717],[80.925,23.6719],[80.9246,23.675],[80.9318,23.6746],[80.9365,23.6774],[80.9499,23.6763],[80.9523,23.6735],[80.955,23.6852],[80.9582,23.6831],[80.9631,23.6873],[80.9683,23.6802],[80.9787,23.6825],[80.9695,23.6722],[80.9774,23.6693],[80.9786,23.6719],[80.9855,23.6672],[80.9851,23.6634],[80.9787,23.6599],[80.9775,23.6644],[80.9703,23.6648],[80.9669,23.6614],[80.9666,23.6492],[80.9792,23.6493],[80.9914,23.6549],[81.0001,23.6518],[80.9874,23.6464],[80.9904,23.6435],[80.9867,23.6406],[80.9737,23.6378],[80.9724,23.6333],[80.9812,23.6247],[80.9814,23.6197],[80.9714,23.6169],[80.9687,23.6185],[80.9643,23.6281],[80.9562,23.6251],[80.9493,23.6357],[80.9367,23.6284],[80.9404,23.6181],[80.9453,23.6129],[80.955,23.6132],[80.9638,23.6071],[80.9689,23.6063],[80.9758,23.6017],[80.969,23.6035],[80.9644,23.5992],[80.9627,23.5878],[80.9718,23.5852],[80.9775,23.5785],[80.9729,23.5756],[80.9815,23.5543],[80.9881,23.5501],[80.9936,23.5524],[80.9996,23.5506],[80.9954,23.5447],[80.986,23.5457],[80.9833,23.5384],[80.9852,23.5346],[80.9929,23.5292],[80.991,23.5243],[80.9952,23.5241],[80.9997,23.5183],[81.0078,23.5239],[81.0118,23.5192],[81.0259,23.5221],[81.0337,23.5171],[81.0475,23.5116],[81.0604,23.5146],[81.0655,23.5114],[81.07,23.5137],[81.0768,23.5083],[81.0883,23.5044],[81.0909,23.507],[81.0991,23.5047],[81.1083,23.5042],[81.113,23.5087],[81.1121,23.5127],[81.1244,23.52],[81.1216,23.5253],[81.1257,23.5325],[81.1169,23.5413],[81.1323,23.5404],[81.1363,23.5422],[81.1518,23.5422],[81.1711,23.5545],[81.1727,23.5577],[81.1837,23.5542],[81.1868,23.5605],[81.1937,23.5672],[81.1868,23.5763],[81.1804,23.5751],[81.1706,23.5796],[81.1679,23.5856],[81.1558,23.5852],[81.1526,23.5876],[81.1516,23.597],[81.1457,23.6045],[81.1419,23.6137],[81.1383,23.6169],[81.139,23.6227],[81.1332,23.6252],[81.1123,23.6194],[81.1093,23.621],[81.1004,23.6142],[81.0937,23.6196],[81.0869,23.6214],[81.0752,23.6307],[81.061,23.6245],[81.0549,23.6268],[81.0571,23.6339],[81.0596,23.6526],[81.0697,23.6583],[81.0707,23.6614],[81.0778,23.663],[81.0749,23.6746],[81.0814,23.6766],[81.0844,23.6731],[81.0927,23.6783],[81.0997,23.6795],[81.1032,23.6855],[81.0999,23.6869],[81.1034,23.6958],[81.0974,23.7016],[81.0944,23.7118],[81.091,23.7085],[81.0866,23.7133],[81.0876,23.7164],[81.0732,23.7156],[81.0589,23.7169],[81.0524,23.72],[81.0428,23.7157],[81.0353,23.7192],[81.0264,23.715],[81.0224,23.7186],[81.017,23.7179],[81.0146,23.7218],[81.0065,23.7248],[81.0061,23.7313],[80.984,23.7273],[80.9735,23.7286],[80.9697,23.7323],[80.9722,23.7362],[80.9718,23.7429],[80.981,23.7522],[80.9915,23.7525]]]},"properties":{"id":"bandhavgarh-tr","name":"Bandhavgarh Tiger Reserve","category":"tr","area_km2":1536.9}}]}