{"type":"FeatureCollection","features":[{"type":"Feature","geometry":{"type":"MultiPolygon","coordinates":[[[[77.4229,26.7994],[77.4095,26.7955],[77.3982,26.7886],[77.394,26.7845],[77.3881,26.7713],[77.3797,26.7691],[77.367,26.7598],[77.3596,26.7589],[77.3454,26.75],[77.34,26.7452],[77.3265,26.7406],[77.3257,26.7368],[77.3277,26.7237],[77.3233,26.7138],[77.3231,26.7069],[77.3338,26.7029],[77.3457,26.6968],[77.3709,26.6863],[77.3871,26.6885],[77.3973,26.6869],[77.4133,26.6907],[77.4203,26.6866],[77.433,26.6937],[77.444,26.6921],[77.4484,26.6932],[77.4462,26.6982],[77.4488,26.7056],[77.4428,26.7117],[77.4555,26.7143],[77.4579,26.7186],[77.4427,26.7278],[77.4602,26.7238],[77.4753,26.7278],[77.4837,26.7322],[77.4887,26.738],[77.4857,26.741],[77.4864,26.7479],[77.4898,26.7519],[77.4829,26.7549],[77.4811,26.7596],[77.4684,26.757],[77.4646,26.7544],[77.4602,26.7605],[77.4572,26.7602],[77.4542,26.7532],[77.4501,26.7509],[77.4483,26.7456],[77.4396,26.7443],[77.4299,26.7393],[77.4229,26.7428],[77.4244,26.7496],[77.4188,26.7527],[77.4171,26.7578],[77.4115,26.7571],[77.4076,26.7637],[77.4121,26.7674],[77.4067,26.7739],[77.4105,26.7789],[77.4088,26.782],[77.413,26.7868],[77.412,26.792],[77.4229,26.7994]]],[[[77.5259,26.9106],[77.5192,26.9117],[77.5023,26.9051],[77.4898,26.9022],[77.4786,26.8973],[77.4662,26.887],[77.4584,26.8844],[77.4454,26.8756],[77.4404,26.8707],[77.4247,26.8665],[77.4053,26.8569],[77.4066,26.8499],[77.3969,26.8489],[77.3968,26.8459],[77.3896,26.8476],[77.3875,26.8412],[77.3824,26.842],[77.3764,26.8379],[77.3648,26.8387],[77.361,26.8344],[77.357,26.8387],[77.3506,26.8315],[77.3531,26.8296],[77.3349,26.8316],[77.3127,26.8312],[77.2945,26.8254],[77.2899,26.8262],[77.2922,26.8298],[77.2941,26.8437],[77.308,26.8562],[77.3132,26.8594],[77.3204,26.8704],[77.337,26.8802],[77.3607,26.8923],[77.3731,26.9043],[77.3691,26.9043],[77.3652,26.9001],[77.3529,26.8922],[77.3296,26.8822],[77.3161,26.8738],[77.3118,26.8686],[77.3045,26.8698],[77.3061,26.8726],[77.2989,26.8748],[77.2933,26.8657],[77.2888,26.8629],[77.2868,26.8568],[77.2797,26.8528],[77.2769,26.8538],[77.267,26.8492],[77.2586,26.8429],[77.255,26.8372],[77.2556,26.8124],[77.2595,26.8065],[77.268,26.8086],[77.2744,26.7979],[77.2703,26.7925],[77.2753,26.7863],[77.275,26.7817],[77.2823,26.7729],[77.2917,26.7663],[77.3054,26.7601],[77.3071,26.7645],[77.3122,26.7661],[77.3157,26.7711],[77.3225,26.7728],[77.3254,26.7806],[77.333,26.7842],[77.343,26.7951],[77.3456,26.8046],[77.3507,26.8068],[77.3531,26.8131],[77.3616,26.8163],[77.3628,26.8233],[77.3702,26.8248],[77.3678,26.8145],[77.359,26.8081],[77.3616,26.7999],[77.3557,26.7964],[77.3462,26.786],[77.3493,26.7815],[77.3465,26.7768],[77.3299,26.7639],[77.3283,26.7597],[77.3315,26.7528],[77.3428,26.7566],[77.3657,26.7681],[77.3742,26.7758],[77.3749,26.7787],[77.3806,26.7763],[77.387,26.7844],[77.3892,26.7908],[77.3872,26.7942],[77.4129,26.8071],[77.4241,26.8133],[77.4451,26.8179],[77.46,26.8247],[77.4677,26.8256],[77.4637,26.8326],[77.4691,26.8369],[77.4587,26.8426],[77.4506,26.8407],[77.4494,26.8472],[77.4452,26.8559],[77.4482,26.8601],[77.4587,26.8583],[77.4624,26.8633],[77.4735,26.8692],[77.4861,26.8679],[77.4833,26.8735],[77.47,26.8791],[77.4712,26.8868],[77.4799,26.8928],[77.4839,26.891],[77.4908,26.8926],[77.4885,26.8962],[77.505,26.9036],[77.5259,26.9106]]],[[[77.4818,26.9303],[77.4556,26.9288],[77.4456,26.9233],[77.4358,26.9209],[77.4329,26.9133],[77.4275,26.9191],[77.4168,26.9166],[77.4111,26.9104],[77.4057,26.9099],[77.4005,26.9049],[77.3975,26.907],[77.3909,26.9023],[77.3841,26.9045],[77.3761,26.8984],[77.3717,26.8886],[77.3664,26.8826],[77.3665,26.8747],[77.373,26.8715],[77.3805,26.872],[77.3821,26.8762],[77.3745,26.8831],[77.378,26.8895],[77.3869,26.8877],[77.3815,26.8847],[77.3997,26.8744],[77.4146,26.8838],[77.4236,26.8911],[77.4266,26.8894],[77.4401,26.8947],[77.4542,26.9023],[77.465,26.9045],[77.4687,26.9076],[77.4882,26.9172],[77.4987,26.9209],[77.503,26.9292],[77.496,26.927],[77.4875,26.9309],[77.4818,26.9303]]],[[[77.4957,26.9598],[77.4927,26.9607],[77.4786,26.9506],[77.4725,26.9487],[77.4706,26.9432],[77.4779,26.9436],[77.4843,26.9467],[77.4923,26.941],[77.4868,26.937],[77.4935,26.9334],[77.5003,26.933],[77.5032,26.9388],[77.4981,26.9448],[77.4926,26.9552],[77.5001,26.9533],[77.4957,26.9598]]]]},"properties":{"id":"bandh-baratha-wls","name":"Bandh Baratha Wildlife Sanctuary","category":"wls","area_km2":199.5}}]}