{"type":"FeatureCollection","features":[{"type":"Feature","geometry":{"type":"MultiPolygon","coordinates":[[[[77.5606,12.5861],[77.5573,12.5878],[77.5468,12.6012],[77.5338,12.5907],[77.5337,12.5834],[77.5314,12.5782],[77.5251,12.5776],[77.5222,12.5832],[77.515,12.5816],[77.5121,12.5757],[77.5157,12.5716],[77.514,12.5677],[77.5058,12.5694],[77.4993,12.5748],[77.4949,12.5741],[77.4961,12.5668],[77.4947,12.5599],[77.4848,12.5477],[77.4828,12.5389],[77.4867,12.5269],[77.4854,12.5221],[77.4753,12.5207],[77.4741,12.5166],[77.4634,12.5063],[77.4626,12.5035],[77.4661,12.486],[77.4669,12.477],[77.4758,12.4642],[77.4783,12.466],[77.4711,12.4834],[77.4703,12.4977],[77.4735,12.5004],[77.4824,12.4955],[77.482,12.481],[77.4833,12.4708],[77.4865,12.4639],[77.4937,12.4631],[77.496,12.4681],[77.4932,12.471],[77.4947,12.4817],[77.4999,12.4866],[77.5055,12.488],[77.5118,12.4956],[77.5165,12.4966],[77.5209,12.5058],[77.5175,12.51],[77.519,12.516],[77.5282,12.5187],[77.5276,12.5146],[77.5397,12.5124],[77.5466,12.5131],[77.5486,12.507],[77.5404,12.5017],[77.5398,12.4952],[77.5459,12.4915],[77.5498,12.477],[77.5546,12.4697],[77.5565,12.4545],[77.5534,12.4511],[77.5597,12.4506],[77.5689,12.455],[77.5679,12.4599],[77.5636,12.4606],[77.5632,12.4646],[77.5707,12.4632],[77.581,12.4645],[77.5871,12.4705],[77.5862,12.4746],[77.5811,12.4755],[77.5783,12.4852],[77.5793,12.4926],[77.5778,12.5033],[77.569,12.5044],[77.5651,12.5083],[77.5673,12.5134],[77.5759,12.5124],[77.5798,12.5073],[77.5891,12.5076],[77.5872,12.5132],[77.5884,12.5267],[77.5854,12.5368],[77.5863,12.5458],[77.5838,12.5483],[77.5674,12.5428],[77.5557,12.5433],[77.5498,12.5497],[77.5514,12.5569],[77.556,12.5612],[77.5654,12.5642],[77.5745,12.5633],[77.5806,12.5645],[77.5793,12.5731],[77.5837,12.5759],[77.589,12.5891],[77.5804,12.5893],[77.5742,12.5962],[77.5659,12.5866],[77.5606,12.5861]],[[77.4957,12.521],[77.5026,12.533],[77.5094,12.5303],[77.5077,12.519],[77.5043,12.5153],[77.4959,12.5149],[77.4957,12.521]]],[[[77.577,12.8225],[77.5717,12.8219],[77.5667,12.8105],[77.5647,12.8122],[77.5572,12.7944],[77.5521,12.7887],[77.5475,12.7884],[77.5492,12.7978],[77.5457,12.8015],[77.5402,12.7958],[77.5438,12.793],[77.546,12.7817],[77.5437,12.7757],[77.5516,12.7734],[77.5463,12.7699],[77.5416,12.756],[77.5416,12.7505],[77.5493,12.7367],[77.5515,12.7295],[77.5458,12.7256],[77.545,12.7377],[77.5362,12.7458],[77.5326,12.7462],[77.5258,12.7407],[77.5219,12.7314],[77.523,12.7256],[77.5319,12.724],[77.5324,12.7197],[77.5276,12.7137],[77.5234,12.7033],[77.5231,12.6966],[77.5282,12.6921],[77.5379,12.6906],[77.5492,12.6863],[77.5552,12.6873],[77.5594,12.6928],[77.5669,12.6945],[77.5726,12.6928],[77.5697,12.6842],[77.5773,12.6795],[77.5851,12.6782],[77.5876,12.6841],[77.5887,12.6981],[77.5985,12.6958],[77.5991,12.691],[77.6046,12.6902],[77.5993,12.6831],[77.5887,12.6799],[77.587,12.6736],[77.588,12.66],[77.5859,12.6549],[77.5809,12.655],[77.5796,12.645],[77.5764,12.6384],[77.5826,12.6333],[77.5859,12.6366],[77.5885,12.6469],[77.5966,12.6466],[77.596,12.6503],[77.5988,12.6672],[77.6238,12.6739],[77.6378,12.6757],[77.6314,12.6915],[77.6299,12.7064],[77.6266,12.7107],[77.6192,12.7135],[77.6141,12.7128],[77.6036,12.7172],[77.5982,12.7098],[77.5924,12.7092],[77.5931,12.7163],[77.5895,12.7167],[77.5832,12.7093],[77.5793,12.7087],[77.5698,12.7025],[77.5615,12.7044],[77.5598,12.7167],[77.5568,12.7194],[77.5578,12.7312],[77.5659,12.7326],[77.5728,12.7468],[77.5818,12.7543],[77.5868,12.7489],[77.5857,12.7455],[77.5914,12.7379],[77.5946,12.7379],[77.5956,12.7435],[77.6013,12.7407],[77.6051,12.7491],[77.6041,12.7571],[77.5981,12.757],[77.5959,12.7705],[77.6012,12.7775],[77.5959,12.7815],[77.5966,12.7885],[77.5889,12.7884],[77.5878,12.8023],[77.5748,12.7994],[77.5751,12.8154],[77.577,12.8225]],[[77.6081,12.6713],[77.6017,12.677],[77.6032,12.6846],[77.6111,12.6891],[77.6193,12.6829],[77.619,12.6767],[77.6138,12.6757],[77.6081,12.6713]]],[[[77.6325,12.4768],[77.6347,12.4868],[77.626,12.4963],[77.6164,12.4828],[77.6079,12.4756],[77.6224,12.4753],[77.6243,12.4707],[77.62,12.462],[77.6157,12.4484],[77.6116,12.4448],[77.6114,12.4364],[77.607,12.4337],[77.6114,12.4251],[77.6105,12.42],[77.6034,12.4165],[77.5946,12.418],[77.5858,12.4177],[77.5875,12.4085],[77.5919,12.3989],[77.6136,12.3871],[77.6209,12.3881],[77.623,12.4022],[77.6233,12.4123],[77.6295,12.4182],[77.629,12.4251],[77.626,12.4308],[77.6269,12.4411],[77.6289,12.4453],[77.6271,12.4585],[77.6323,12.4717],[77.6325,12.4768]]],[[[77.5822,12.4225],[77.5867,12.4411],[77.5786,12.4289],[77.577,12.4216],[77.5731,12.4214],[77.5696,12.4151],[77.5747,12.4099],[77.5759,12.402],[77.5653,12.3951],[77.5708,12.374],[77.5761,12.3734],[77.5786,12.3822],[77.5786,12.3945],[77.5832,12.4095],[77.5822,12.4225]]],[[[77.5641,12.3704],[77.5633,12.3767],[77.5561,12.3785],[77.5556,12.3699],[77.5396,12.3754],[77.5316,12.3721],[77.5329,12.3688],[77.5397,12.3695],[77.5377,12.3581],[77.5421,12.3541],[77.5404,12.3476],[77.5448,12.3444],[77.5525,12.3484],[77.5522,12.3557],[77.5554,12.3569],[77.5561,12.3626],[77.5642,12.366],[77.5641,12.3704]]]]},"properties":{"id":"bannerghatta-np","name":"Bannerghatta National Park","category":"np","area_km2":260.5}}]}