{"type":"FeatureCollection","features":[{"type":"Feature","geometry":{"type":"MultiPolygon","coordinates":[[[[92.8012,24.9792],[92.811,24.9793],[92.8261,24.9833],[92.8388,24.9848],[92.8528,24.988],[92.8686,25.0037],[92.867,25.01],[92.868,25.0177],[92.873,25.0266],[92.8716,25.0349],[92.8746,25.0475],[92.8739,25.0658],[92.8254,25.079],[92.8169,25.0748],[92.8086,25.0604],[92.8031,25.0579],[92.8034,25.0503],[92.7968,25.0483],[92.7837,25.0396],[92.7772,25.0295],[92.7732,25.0263],[92.772,25.0108],[92.7854,24.9881],[92.8012,24.9792]]],[[[92.7763,25.0841],[92.7697,25.1098],[92.7559,25.1405],[92.733,25.1428],[92.7266,25.1126],[92.643,25.1168],[92.6011,25.1097],[92.5473,25.1027],[92.5371,25.1037],[92.5394,25.0993],[92.5306,25.1003],[92.5278,25.104],[92.5184,25.1062],[92.5059,25.1047],[92.497,25.1095],[92.492,25.1078],[92.4804,25.108],[92.4775,25.1005],[92.4773,25.0908],[92.4792,25.0863],[92.4747,25.0822],[92.4752,25.0777],[92.4708,25.0768],[92.4721,25.0674],[92.4686,25.0661],[92.4628,25.0547],[92.457,25.054],[92.4569,25.0472],[92.4612,25.0487],[92.4644,25.043],[92.4631,25.0399],[92.4642,25.0294],[92.4739,25.0244],[92.4863,25.0199],[92.4902,25.0205],[92.4994,25.0452],[92.5158,25.0546],[92.5306,25.0492],[92.5365,25.0211],[92.5643,25.0396],[92.5972,25.0425],[92.6314,25.0171],[92.6476,25.036],[92.6809,25.0562],[92.7094,25.0391],[92.7315,25.0384],[92.7504,25.0338],[92.7585,25.0205],[92.764,25.0215],[92.7672,25.029],[92.7751,25.0329],[92.7834,25.045],[92.7959,25.0526],[92.8019,25.0646],[92.7987,25.0836],[92.7763,25.0841]]]]},"properties":{"id":"barail-wls","name":"Barail Wildlife Sanctuary","category":"wls","area_km2":326.2}}]}