{"type":"FeatureCollection","features":[{"type":"Feature","geometry":{"type":"Polygon","coordinates":[[[69.8012,21.8445],[69.8068,21.8504],[69.8084,21.8553],[69.7952,21.8711],[69.7913,21.8644],[69.7859,21.8629],[69.787,21.869],[69.7925,21.8713],[69.7917,21.8742],[69.7791,21.883],[69.7693,21.8852],[69.7601,21.8814],[69.7598,21.8847],[69.751,21.8858],[69.7433,21.8819],[69.7375,21.8881],[69.7288,21.8885],[69.7162,21.8817],[69.7137,21.8755],[69.7082,21.872],[69.7068,21.8614],[69.7111,21.8504],[69.7002,21.8472],[69.6901,21.8347],[69.6861,21.8265],[69.6919,21.8185],[69.6845,21.8182],[69.6801,21.8211],[69.6737,21.8174],[69.6744,21.8128],[69.6681,21.7994],[69.6687,21.7884],[69.6717,21.7789],[69.6862,21.7681],[69.6955,21.7564],[69.6959,21.7479],[69.7037,21.7383],[69.7046,21.7301],[69.7187,21.7168],[69.7235,21.7152],[69.7306,21.7029],[69.7347,21.7012],[69.7515,21.714],[69.7581,21.7169],[69.782,21.7129],[69.7856,21.719],[69.7842,21.7236],[69.7895,21.7331],[69.7894,21.7417],[69.7843,21.7466],[69.7761,21.7477],[69.7636,21.7382],[69.7605,21.7299],[69.7521,21.7315],[69.7471,21.7384],[69.739,21.7403],[69.7422,21.7468],[69.7537,21.7475],[69.748,21.7499],[69.7479,21.7569],[69.7533,21.7589],[69.7663,21.7511],[69.7692,21.7562],[69.7675,21.7715],[69.7654,21.7767],[69.761,21.7763],[69.7641,21.782],[69.7628,21.791],[69.7683,21.7969],[69.7702,21.805],[69.7743,21.8056],[69.7762,21.8147],[69.7831,21.8214],[69.7915,21.8211],[69.7973,21.8158],[69.8069,21.8113],[69.8075,21.8196],[69.8052,21.8249],[69.8068,21.8353],[69.8066,21.8462],[69.8012,21.8445]]]},"properties":{"id":"barda-wls","name":"Barda Wildlife Sanctuary","category":"wls","area_km2":192.3}}]}