{"type":"FeatureCollection","features":[{"type":"Feature","geometry":{"type":"Polygon","coordinates":[[[82.5143,21.4901],[82.5155,21.4946],[82.5039,21.4995],[82.4952,21.4986],[82.4926,21.4932],[82.4689,21.4901],[82.4629,21.486],[82.4621,21.4816],[82.4557,21.4847],[82.4485,21.484],[82.447,21.4871],[82.4369,21.4892],[82.422,21.4885],[82.4033,21.4833],[82.3958,21.4766],[82.3889,21.4795],[82.3875,21.4835],[82.3769,21.4848],[82.3644,21.4927],[82.3612,21.4992],[82.3581,21.4967],[82.3631,21.4924],[82.3613,21.4899],[82.3715,21.4777],[82.3712,21.4807],[82.379,21.4774],[82.3851,21.4726],[82.3842,21.4682],[82.3954,21.4611],[82.3961,21.4572],[82.4095,21.4543],[82.4115,21.4565],[82.4193,21.4516],[82.4151,21.4447],[82.4193,21.4358],[82.4172,21.4275],[82.4103,21.4223],[82.4043,21.4105],[82.4008,21.4085],[82.3942,21.4103],[82.3912,21.4047],[82.3805,21.4043],[82.3779,21.401],[82.3717,21.3816],[82.3708,21.3719],[82.3728,21.3633],[82.3842,21.3507],[82.3902,21.3501],[82.3971,21.3439],[82.3993,21.3323],[82.3958,21.3248],[82.3983,21.319],[82.4072,21.3131],[82.4143,21.311],[82.4322,21.3107],[82.4441,21.3038],[82.4583,21.3065],[82.4604,21.3104],[82.4591,21.3178],[82.4536,21.3214],[82.4533,21.3267],[82.4376,21.3261],[82.4411,21.3314],[82.4373,21.3364],[82.439,21.3423],[82.4461,21.3466],[82.4535,21.3455],[82.4563,21.3337],[82.4626,21.3341],[82.469,21.33],[82.4707,21.3232],[82.4831,21.3129],[82.4859,21.3041],[82.4995,21.3027],[82.4999,21.2979],[82.5099,21.2986],[82.5169,21.305],[82.5133,21.3132],[82.5157,21.3168],[82.5272,21.3064],[82.5283,21.3125],[82.5237,21.3163],[82.5233,21.323],[82.5296,21.3302],[82.5357,21.333],[82.5447,21.3326],[82.5499,21.3263],[82.5549,21.3263],[82.5584,21.3298],[82.551,21.3342],[82.5498,21.3436],[82.5333,21.3427],[82.5276,21.3391],[82.531,21.3468],[82.5294,21.3518],[82.5304,21.3639],[82.5386,21.3629],[82.5417,21.3657],[82.5357,21.3721],[82.5334,21.3884],[82.5288,21.3959],[82.5352,21.3982],[82.5351,21.4196],[82.5381,21.4249],[82.5532,21.4233],[82.5607,21.4334],[82.5562,21.4415],[82.5442,21.448],[82.5273,21.4636],[82.5237,21.4631],[82.5147,21.4691],[82.5126,21.4757],[82.517,21.4818],[82.5187,21.4897],[82.5143,21.4901]],[[82.4372,21.3858],[82.4314,21.3842],[82.4247,21.3953],[82.4195,21.4004],[82.4209,21.4057],[82.4305,21.4095],[82.4331,21.405],[82.4442,21.4003],[82.4372,21.3858]],[[82.489,21.3641],[82.4877,21.3735],[82.4928,21.3817],[82.5006,21.3807],[82.4986,21.3755],[82.4999,21.3671],[82.489,21.3641]],[[82.4001,21.3505],[82.4037,21.3615],[82.4126,21.3628],[82.4131,21.3576],[82.4198,21.357],[82.4226,21.3501],[82.4097,21.3518],[82.4051,21.3494],[82.4001,21.3505]],[[82.4928,21.3526],[82.4933,21.3578],[82.4999,21.3613],[82.5065,21.3554],[82.5033,21.3526],[82.5023,21.3459],[82.4972,21.347],[82.4928,21.3526]],[[82.4192,21.3468],[82.4274,21.3441],[82.4317,21.3363],[82.4248,21.3328],[82.4207,21.3361],[82.408,21.3398],[82.4089,21.3447],[82.4192,21.3468]]]},"properties":{"id":"barnawapara-wls","name":"Barnawapara Wildlife Sanctuary","category":"wls","area_km2":244.7}}]}