{"type":"FeatureCollection","features":[{"type":"Feature","geometry":{"type":"MultiPolygon","coordinates":[[[[91.7792,26.8107],[91.776,26.8221],[91.7624,26.8331],[91.7208,26.8118],[91.7078,26.8127],[91.7026,26.8006],[91.7117,26.7933],[91.7119,26.7866],[91.7157,26.7846],[91.7378,26.7808],[91.7528,26.7804],[91.7594,26.7827],[91.7628,26.802],[91.769,26.8097],[91.7792,26.8107]]],[[[91.9417,26.8527],[91.9348,26.8609],[91.9329,26.8674],[91.9299,26.9014],[91.8917,26.9191],[91.8849,26.9167],[91.8591,26.9133],[91.8262,26.8669],[91.8573,26.8619],[91.8872,26.8554],[91.9011,26.854],[91.9417,26.8527]]]]},"properties":{"id":"barnadi-wls","name":"Barnadi Wildlife Sanctuary","category":"wls","area_km2":26.2}}]}