{"type":"FeatureCollection","features":[{"type":"Feature","geometry":{"type":"Polygon","coordinates":[[[88.0454,27.2693],[88.0431,27.2716],[88.0403,27.283],[88.0318,27.2856],[88.0328,27.2824],[88.0304,27.2719],[88.0306,27.2499],[88.0278,27.2495],[88.0243,27.2421],[88.0246,27.2376],[88.0193,27.2357],[88.0187,27.2263],[88.0126,27.2169],[88.0148,27.2115],[88.0215,27.2178],[88.028,27.2206],[88.0402,27.2205],[88.053,27.215],[88.065,27.2133],[88.0692,27.2078],[88.0786,27.2013],[88.0798,27.1975],[88.0744,27.1928],[88.0744,27.1855],[88.0783,27.1785],[88.0885,27.1792],[88.0983,27.1815],[88.0973,27.1748],[88.1014,27.1726],[88.1071,27.177],[88.1162,27.188],[88.1353,27.1863],[88.139,27.1874],[88.1412,27.1945],[88.1457,27.1977],[88.1551,27.2002],[88.1658,27.1985],[88.1743,27.1928],[88.1794,27.183],[88.1979,27.1891],[88.2085,27.1999],[88.2076,27.2071],[88.1972,27.219],[88.1992,27.2256],[88.2083,27.2316],[88.2073,27.2376],[88.2018,27.2441],[88.1953,27.2446],[88.1732,27.2395],[88.1628,27.242],[88.1646,27.2501],[88.1601,27.2516],[88.1456,27.2433],[88.1327,27.2422],[88.1324,27.2482],[88.1245,27.2496],[88.121,27.2415],[88.1177,27.24],[88.1113,27.2431],[88.1108,27.2501],[88.1051,27.2555],[88.0976,27.2527],[88.0904,27.2628],[88.0849,27.2633],[88.0835,27.2675],[88.0673,27.2661],[88.0549,27.2703],[88.0475,27.2672],[88.0454,27.2693]]]},"properties":{"id":"barsey-rhododendron-wls","name":"Barsey Rhododendron Wildlife Sanctuary","category":"wls","area_km2":104}}]}