{"type":"FeatureCollection","features":[{"type":"Feature","geometry":{"type":"Polygon","coordinates":[[[74.7898,25.0112],[74.7944,24.9896],[74.7944,24.9797],[74.7916,24.9719],[74.7931,24.9604],[74.8005,24.9628],[74.8019,24.9556],[74.8048,24.9566],[74.8059,24.9715],[74.8106,24.9752],[74.8124,24.9719],[74.8098,24.9617],[74.8104,24.9457],[74.8121,24.94],[74.8203,24.9417],[74.8203,24.947],[74.8166,24.9678],[74.8177,24.9786],[74.8199,24.9843],[74.825,24.9869],[74.8297,24.9854],[74.8276,24.9683],[74.8292,24.9613],[74.8348,24.9606],[74.8411,24.9677],[74.8435,24.9676],[74.8428,24.9571],[74.8445,24.9527],[74.8522,24.949],[74.8587,24.93],[74.8593,24.9163],[74.8554,24.9032],[74.8546,24.8949],[74.8571,24.8867],[74.866,24.8723],[74.8704,24.857],[74.8753,24.8579],[74.8768,24.8679],[74.8759,24.8834],[74.8806,24.8839],[74.8887,24.8791],[74.8924,24.8901],[74.8906,24.8997],[74.8821,24.914],[74.8786,24.9273],[74.8801,24.9342],[74.8853,24.9377],[74.8902,24.9188],[74.8955,24.9076],[74.9007,24.9061],[74.9048,24.9095],[74.9104,24.9085],[74.9145,24.9142],[74.9123,24.9295],[74.9069,24.943],[74.8995,24.9413],[74.901,24.9295],[74.8982,24.9286],[74.893,24.9337],[74.8878,24.9446],[74.8854,24.9542],[74.8885,24.9598],[74.8849,24.9762],[74.8864,24.9899],[74.8879,24.9907],[74.8908,24.9781],[74.893,24.9745],[74.8999,24.9734],[74.9022,24.9772],[74.8931,24.9999],[74.8925,25.01],[74.8943,25.0266],[74.8961,25.0297],[74.9017,25.0282],[74.9051,25.0166],[74.9095,25.0147],[74.9151,25.0227],[74.913,25.042],[74.9144,25.0462],[74.9229,25.0471],[74.9324,25.0513],[74.9356,25.0493],[74.9402,25.055],[74.9361,25.059],[74.9342,25.0658],[74.937,25.0728],[74.9484,25.0842],[74.947,25.0896],[74.9497,25.0929],[74.943,25.1015],[74.9343,25.1018],[74.9281,25.0871],[74.9063,25.0812],[74.9011,25.0813],[74.8952,25.0768],[74.8913,25.0779],[74.8842,25.0707],[74.8752,25.0701],[74.8725,25.0798],[74.8717,25.0904],[74.8734,25.0996],[74.8778,25.1057],[74.8757,25.1084],[74.8706,25.1041],[74.8631,25.0929],[74.8614,25.079],[74.873,25.0621],[74.8797,25.0589],[74.9014,25.0625],[74.9017,25.0553],[74.884,25.0489],[74.8759,25.0503],[74.8664,25.043],[74.8501,25.0513],[74.8446,25.0484],[74.847,25.0412],[74.8522,25.0369],[74.8498,25.0264],[74.8507,25.0203],[74.8578,25.0112],[74.8572,25.0035],[74.8537,25.0014],[74.8518,24.9856],[74.855,24.9814],[74.85,24.9804],[74.8461,24.971],[74.8418,24.9699],[74.8394,24.986],[74.8407,24.9927],[74.8397,25.0034],[74.8375,25.0055],[74.8306,25.0036],[74.8311,25.0194],[74.8275,25.0229],[74.8259,25.0187],[74.8293,24.9943],[74.8218,24.9945],[74.8231,25.0002],[74.8203,25.0036],[74.8177,25.0177],[74.8141,25.0248],[74.8095,25.0232],[74.8072,25.0169],[74.8005,25.0176],[74.7898,25.0112]]]},"properties":{"id":"bassi-wls","name":"Bassi Wildlife Sanctuary","category":"wls","area_km2":138.7}}]}