{"type":"FeatureCollection","features":[{"type":"Feature","geometry":{"type":"Polygon","coordinates":[[[84.0517,23.6925],[84.0469,23.6913],[84.035,23.6932],[84.0245,23.6911],[84.0163,23.6936],[83.9995,23.6893],[83.9827,23.6883],[83.9797,23.6912],[83.9791,23.6999],[83.9811,23.7038],[83.9902,23.7113],[83.9905,23.7198],[83.983,23.7234],[83.9628,23.7145],[83.942,23.7155],[83.9255,23.7151],[83.914,23.7133],[83.8946,23.7132],[83.8724,23.7172],[83.872,23.7123],[83.8754,23.7038],[83.8754,23.6968],[83.8722,23.6867],[83.8568,23.6569],[83.8615,23.6462],[83.8667,23.6426],[83.8747,23.6415],[83.8979,23.6418],[83.9072,23.6403],[83.9057,23.6328],[83.895,23.6288],[83.8779,23.6183],[83.8748,23.6112],[83.8914,23.6036],[83.8951,23.5986],[83.9037,23.5954],[83.8987,23.5915],[83.9002,23.5802],[83.9086,23.5762],[83.9187,23.5764],[83.9356,23.569],[83.9398,23.5705],[83.9381,23.5862],[83.9391,23.5904],[83.933,23.6008],[83.9338,23.6074],[83.9307,23.6112],[83.9319,23.6204],[83.9425,23.626],[83.9478,23.6267],[83.9613,23.6252],[83.9694,23.6267],[83.9807,23.625],[83.981,23.6337],[83.9874,23.6323],[83.9971,23.6345],[84.0142,23.6336],[84.0139,23.6302],[84.0087,23.6279],[84.0077,23.6223],[84.0111,23.6206],[84.0166,23.6087],[84.0208,23.6045],[84.03,23.6001],[84.0281,23.5912],[84.0298,23.5858],[84.028,23.5778],[84.0297,23.5681],[84.0361,23.5677],[84.0387,23.5646],[84.0358,23.5612],[84.0383,23.5521],[84.044,23.5566],[84.054,23.5554],[84.0557,23.552],[84.0478,23.5493],[84.0514,23.5442],[84.0915,23.5663],[84.0989,23.5695],[84.1011,23.5752],[84.0955,23.5775],[84.0857,23.5772],[84.077,23.5792],[84.0857,23.5896],[84.0868,23.5934],[84.0825,23.5973],[84.0831,23.605],[84.08,23.6075],[84.084,23.6171],[84.0803,23.6209],[84.0708,23.619],[84.0685,23.6205],[84.071,23.6293],[84.0749,23.6316],[84.0753,23.6384],[84.073,23.6433],[84.0786,23.6457],[84.0868,23.6543],[84.0919,23.6665],[84.0716,23.6664],[84.0588,23.6691],[84.0598,23.6855],[84.0581,23.6896],[84.0517,23.6925]]]},"properties":{"id":"betla-np","name":"Betla National Park","category":"np","area_km2":226.3}}]}