{"type":"FeatureCollection","features":[{"type":"Feature","geometry":{"type":"MultiPolygon","coordinates":[[[[75.7696,13.5334],[75.7639,13.5335],[75.7587,13.5478],[75.7513,13.5552],[75.748,13.5559],[75.7433,13.548],[75.7429,13.5406],[75.7378,13.5306],[75.7405,13.5181],[75.7487,13.518],[75.7505,13.512],[75.7425,13.5133],[75.7383,13.5029],[75.74,13.4969],[75.747,13.4954],[75.7462,13.5],[75.7505,13.504],[75.7576,13.5046],[75.7619,13.5163],[75.7607,13.5191],[75.773,13.5159],[75.7778,13.5176],[75.7828,13.5296],[75.7753,13.5434],[75.7718,13.5344],[75.7696,13.5334]]],[[[75.6392,13.7679],[75.6401,13.7725],[75.6364,13.7728],[75.6165,13.7683],[75.6129,13.7699],[75.6006,13.7676],[75.6022,13.7616],[75.6007,13.7462],[75.5906,13.7471],[75.5754,13.7446],[75.5663,13.7419],[75.5664,13.7513],[75.5609,13.7543],[75.5511,13.7522],[75.5493,13.7484],[75.5509,13.7423],[75.5588,13.7373],[75.5671,13.7387],[75.568,13.7251],[75.5624,13.7012],[75.5683,13.6822],[75.5669,13.6712],[75.5699,13.6626],[75.575,13.6627],[75.5759,13.6576],[75.573,13.6531],[75.5815,13.6491],[75.573,13.6455],[75.574,13.6405],[75.5814,13.6406],[75.5774,13.6333],[75.5834,13.6278],[75.5795,13.6218],[75.5854,13.6204],[75.5819,13.6134],[75.5826,13.6035],[75.5927,13.5975],[75.6017,13.5976],[75.5928,13.5949],[75.5877,13.5993],[75.5804,13.592],[75.5893,13.5894],[75.595,13.584],[75.604,13.585],[75.5963,13.5799],[75.5955,13.5738],[75.5849,13.5556],[75.5796,13.5486],[75.5791,13.5445],[75.5716,13.5388],[75.574,13.53],[75.5712,13.5241],[75.5663,13.5205],[75.561,13.5214],[75.5588,13.5315],[75.5527,13.5301],[75.5528,13.5205],[75.5504,13.5171],[75.5441,13.5154],[75.5421,13.5089],[75.5391,13.5087],[75.5391,13.5011],[75.5354,13.5002],[75.5275,13.4895],[75.5296,13.4817],[75.5271,13.4763],[75.5304,13.4738],[75.534,13.4645],[75.5315,13.4577],[75.5215,13.4441],[75.5256,13.4405],[75.5269,13.4345],[75.5166,13.4381],[75.5108,13.4346],[75.5002,13.4196],[75.5069,13.4149],[75.5074,13.4101],[75.5034,13.4034],[75.4904,13.4066],[75.4849,13.3992],[75.4857,13.3924],[75.492,13.3881],[75.4907,13.3812],[75.4952,13.3795],[75.5174,13.3752],[75.5161,13.3828],[75.5262,13.385],[75.5263,13.3781],[75.5288,13.3767],[75.5478,13.3821],[75.5559,13.3867],[75.5579,13.3918],[75.5635,13.3927],[75.5714,13.3893],[75.5763,13.4032],[75.5851,13.4078],[75.5894,13.4133],[75.5909,13.4212],[75.5899,13.4305],[75.5868,13.4417],[75.5829,13.444],[75.5723,13.4451],[75.5672,13.4416],[75.5657,13.4283],[75.5564,13.4073],[75.5487,13.3994],[75.5476,13.3912],[75.5419,13.3905],[75.5339,13.3951],[75.5306,13.4032],[75.5289,13.4126],[75.5256,13.4182],[75.5279,13.4265],[75.5353,13.4348],[75.5455,13.4432],[75.5433,13.4477],[75.5513,13.4561],[75.5602,13.4561],[75.5785,13.4745],[75.5775,13.4807],[75.5812,13.4861],[75.5852,13.4863],[75.5864,13.4797],[75.5941,13.4815],[75.5968,13.4799],[75.6003,13.4716],[75.6007,13.4614],[75.6033,13.4579],[75.6159,13.4539],[75.6166,13.446],[75.6195,13.4382],[75.6253,13.4313],[75.6353,13.4312],[75.6432,13.433],[75.6442,13.4162],[75.6432,13.4105],[75.6468,13.4063],[75.6464,13.3977],[75.6487,13.3948],[75.6536,13.3992],[75.6555,13.4179],[75.6592,13.4261],[75.659,13.442],[75.6669,13.4444],[75.6705,13.4523],[75.6752,13.4513],[75.6871,13.4441],[75.6904,13.4305],[75.6943,13.4296],[75.6967,13.4363],[75.6913,13.4461],[75.6924,13.4598],[75.6898,13.4641],[75.6882,13.4734],[75.684,13.4782],[75.6837,13.4886],[75.6894,13.4921],[75.7062,13.4965],[75.7097,13.5069],[75.7003,13.5179],[75.7053,13.5228],[75.7049,13.5307],[75.6984,13.5353],[75.6951,13.5467],[75.6866,13.5502],[75.6764,13.5512],[75.6595,13.5512],[75.6421,13.5474],[75.6399,13.5547],[75.6232,13.5508],[75.6021,13.5424],[75.6035,13.5486],[75.6136,13.5621],[75.6175,13.56],[75.6239,13.5661],[75.6259,13.5722],[75.6324,13.5733],[75.6379,13.5706],[75.6426,13.5725],[75.6525,13.5819],[75.6691,13.5818],[75.6767,13.5836],[75.6858,13.5776],[75.6994,13.5788],[75.7023,13.5867],[75.7215,13.5892],[75.7313,13.5887],[75.7409,13.5927],[75.7433,13.6023],[75.7472,13.6065],[75.7426,13.6274],[75.7363,13.6236],[75.7288,13.6299],[75.7277,13.6395],[75.722,13.6498],[75.7199,13.6491],[75.7194,13.6302],[75.7136,13.6375],[75.7079,13.6546],[75.7038,13.6585],[75.6842,13.6633],[75.6695,13.6636],[75.6657,13.6667],[75.6543,13.667],[75.6482,13.6703],[75.643,13.6794],[75.6383,13.6838],[75.6374,13.6898],[75.6342,13.692],[75.6394,13.6953],[75.632,13.7067],[75.6255,13.7191],[75.6234,13.7168],[75.617,13.7243],[75.6235,13.7306],[75.6275,13.7299],[75.6361,13.7377],[75.6348,13.7513],[75.6293,13.7573],[75.6306,13.7647],[75.6392,13.7679]]]]},"properties":{"id":"bhadra-tr","name":"Bhadra Tiger Reserve","category":"tr","area_km2":500.2}}]}