{"type":"FeatureCollection","features":[{"type":"Feature","geometry":{"type":"Polygon","coordinates":[[[74.194,15.3254],[74.185,15.3267],[74.1781,15.3314],[74.1745,15.3284],[74.1657,15.3263],[74.1664,15.3116],[74.1691,15.3053],[74.1837,15.3056],[74.2043,15.3072],[74.2079,15.3042],[74.2106,15.2969],[74.2091,15.2907],[74.204,15.2885],[74.1935,15.2872],[74.1898,15.2825],[74.206,15.2685],[74.2076,15.2652],[74.2006,15.2532],[74.2008,15.248],[74.1978,15.2439],[74.1971,15.2353],[74.1992,15.2319],[74.2034,15.2328],[74.2074,15.2287],[74.2065,15.2242],[74.2127,15.2229],[74.2142,15.2099],[74.2174,15.2086],[74.2264,15.1986],[74.2261,15.1808],[74.2243,15.1774],[74.2302,15.173],[74.2308,15.1667],[74.2427,15.1639],[74.2537,15.1652],[74.2557,15.168],[74.2614,15.1683],[74.2662,15.1721],[74.2662,15.1811],[74.2779,15.194],[74.2773,15.2],[74.2863,15.2015],[74.2962,15.2074],[74.3056,15.2098],[74.3045,15.2168],[74.2998,15.22],[74.3016,15.2244],[74.2915,15.2339],[74.2867,15.2329],[74.2811,15.2363],[74.2596,15.2411],[74.2522,15.2511],[74.2547,15.2541],[74.2511,15.2589],[74.261,15.2603],[74.2715,15.2812],[74.2763,15.2836],[74.2818,15.2805],[74.2939,15.2873],[74.285,15.294],[74.2782,15.3078],[74.2674,15.3076],[74.2603,15.3149],[74.2506,15.3127],[74.234,15.3163],[74.2285,15.3158],[74.2266,15.3206],[74.2178,15.3267],[74.2119,15.3286],[74.2005,15.3285],[74.194,15.3254]]]},"properties":{"id":"bhagwan-mahavir-wls","name":"Bhagwan Mahavir Wildlife Sanctuary","category":"wls","area_km2":133}}]}