{"type":"FeatureCollection","features":[{"type":"Feature","geometry":{"type":"Polygon","coordinates":[[[74.2624,15.4751],[74.2511,15.4914],[74.2468,15.4914],[74.2291,15.4831],[74.2172,15.4748],[74.2117,15.4758],[74.2096,15.4727],[74.199,15.4654],[74.1947,15.4582],[74.1944,15.4501],[74.1896,15.4443],[74.1898,15.4391],[74.1947,15.4329],[74.1906,15.4263],[74.1938,15.4172],[74.2019,15.4066],[74.2082,15.4015],[74.2082,15.3952],[74.2148,15.3956],[74.2244,15.3906],[74.2283,15.3816],[74.2369,15.385],[74.2385,15.3945],[74.2375,15.4072],[74.241,15.4093],[74.2551,15.412],[74.2633,15.4154],[74.2631,15.4106],[74.2673,15.4129],[74.2699,15.4261],[74.2769,15.4353],[74.2754,15.4493],[74.2624,15.4751]]]},"properties":{"id":"bhagwan-mahavir-np","name":"Bhagwan Mahavir National Park","category":"np","area_km2":107}}]}