{"type":"FeatureCollection","features":[{"type":"Feature","geometry":{"type":"Polygon","coordinates":[[[81.0047,19.1078],[80.9892,19.1188],[80.9727,19.1177],[80.9604,19.1329],[80.9377,19.129],[80.9342,19.1275],[80.9169,19.1099],[80.9157,19.1019],[80.9115,19.1009],[80.9068,19.0958],[80.9018,19.0954],[80.888,19.0985],[80.8864,19.0951],[80.8871,19.0824],[80.8922,19.0768],[80.8984,19.0665],[80.9037,19.0645],[80.9176,19.0648],[80.9292,19.0596],[80.9497,19.0354],[80.9596,19.0281],[80.9729,19.0253],[80.9845,19.0199],[81.0024,19.0089],[81.0047,19.0062],[81.0037,18.9973],[80.9988,18.9875],[80.9912,18.9847],[80.9855,18.9874],[80.9744,18.9982],[80.9689,18.9987],[80.9718,18.9874],[80.9714,18.9816],[80.9619,18.9762],[80.9624,18.9724],[80.9683,18.9669],[80.9752,18.9672],[80.9811,18.9737],[80.9874,18.9728],[80.9938,18.9687],[81.0077,18.9545],[81.0225,18.9509],[81.0345,18.9507],[81.0379,18.9528],[81.0395,18.9694],[81.0387,18.9805],[81.0366,18.9857],[81.0351,19.0177],[81.0332,19.0228],[81.0176,19.0275],[81.0125,19.0303],[81.009,19.0418],[81.0009,19.0461],[81.0069,19.0559],[81.0115,19.0555],[81.0318,19.0487],[81.0398,19.0479],[81.0469,19.0519],[81.044,19.0584],[81.0288,19.0661],[81.0132,19.0702],[81.009,19.0736],[81.0092,19.0805],[81.002,19.085],[81.0005,19.0891],[81.0058,19.1033],[81.0047,19.1078]]]},"properties":{"id":"bhairamgarh-wls","name":"Bhairamgarh Wildlife Sanctuary","category":"wls","area_km2":139}}]}