{"type":"FeatureCollection","features":[{"type":"Feature","geometry":{"type":"Polygon","coordinates":[[[80.7002,19.6078],[80.6909,19.6069],[80.6842,19.6021],[80.6716,19.5965],[80.6676,19.5914],[80.6653,19.5832],[80.6614,19.581],[80.6547,19.5668],[80.6553,19.5528],[80.6537,19.5441],[80.6571,19.5363],[80.6575,19.5294],[80.6784,19.5193],[80.6934,19.5103],[80.7094,19.5064],[80.7233,19.5106],[80.733,19.519],[80.736,19.5165],[80.7302,19.5066],[80.7372,19.504],[80.7444,19.5045],[80.7455,19.4931],[80.7496,19.4888],[80.7575,19.4876],[80.7705,19.4814],[80.7771,19.484],[80.7835,19.4934],[80.79,19.4956],[80.7968,19.4946],[80.8014,19.4914],[80.8091,19.4937],[80.8122,19.5103],[80.8198,19.5126],[80.8256,19.52],[80.8501,19.5341],[80.8446,19.5377],[80.8398,19.5492],[80.8398,19.5594],[80.8366,19.5659],[80.8238,19.5669],[80.8166,19.5711],[80.8067,19.5688],[80.7975,19.5625],[80.7882,19.5603],[80.781,19.5637],[80.7755,19.5625],[80.7703,19.569],[80.7674,19.5761],[80.7697,19.5865],[80.7617,19.5909],[80.7572,19.5968],[80.746,19.6014],[80.741,19.6059],[80.7332,19.6061],[80.7303,19.61],[80.7141,19.6165],[80.7008,19.6095],[80.7002,19.6078]]]},"properties":{"id":"bhamragarh-wls","name":"Bhamragarh Wildlife Sanctuary","category":"wls","area_km2":104.4}}]}