{"type":"FeatureCollection","features":[{"type":"Feature","geometry":{"type":"Polygon","coordinates":[[[75.4159,24.8529],[75.409,24.8404],[75.4036,24.833],[75.3925,24.8219],[75.3896,24.8162],[75.3871,24.805],[75.389,24.7999],[75.4019,24.791],[75.4022,24.7868],[75.3902,24.7832],[75.3889,24.7791],[75.3924,24.7664],[75.3992,24.7583],[75.4093,24.7591],[75.4149,24.7651],[75.4272,24.77],[75.4399,24.7724],[75.456,24.7695],[75.4606,24.7719],[75.4655,24.7803],[75.4699,24.7838],[75.4814,24.7852],[75.491,24.7763],[75.5001,24.778],[75.5061,24.7835],[75.5061,24.7911],[75.5019,24.8034],[75.5047,24.808],[75.5154,24.7995],[75.5214,24.7895],[75.5269,24.7882],[75.5267,24.7988],[75.5235,24.8067],[75.5364,24.8081],[75.5504,24.8036],[75.5615,24.8112],[75.568,24.8266],[75.5744,24.8383],[75.5807,24.8423],[75.5837,24.8566],[75.5837,24.863],[75.5797,24.8685],[75.5688,24.8726],[75.5755,24.8744],[75.5751,24.8785],[75.5674,24.89],[75.561,24.8899],[75.5582,24.8935],[75.5618,24.8994],[75.5789,24.8903],[75.5812,24.8818],[75.5884,24.8862],[75.5827,24.8913],[75.5788,24.8984],[75.5725,24.8986],[75.5725,24.9067],[75.5682,24.9098],[75.5583,24.9099],[75.56,24.9061],[75.5535,24.898],[75.5483,24.9001],[75.5467,24.9108],[75.5589,24.9186],[75.5625,24.9236],[75.572,24.9245],[75.5782,24.9202],[75.579,24.9248],[75.5758,24.9288],[75.5534,24.9275],[75.5459,24.9302],[75.5419,24.9239],[75.5372,24.9235],[75.532,24.9302],[75.5231,24.9349],[75.5292,24.9374],[75.5346,24.9347],[75.5478,24.9326],[75.5459,24.9387],[75.5306,24.9435],[75.5299,24.9502],[75.5332,24.9628],[75.5228,24.9726],[75.5225,24.9778],[75.5101,24.9721],[75.5043,24.9713],[75.505,24.9615],[75.5014,24.9564],[75.4834,24.953],[75.4758,24.9546],[75.4703,24.9635],[75.4652,24.9627],[75.4551,24.9508],[75.4488,24.9528],[75.4445,24.9504],[75.4434,24.9374],[75.4482,24.9259],[75.4462,24.9221],[75.4354,24.9107],[75.4322,24.9052],[75.4278,24.8875],[75.4256,24.8664],[75.4159,24.8529]],[[75.4565,24.8716],[75.462,24.8731],[75.4737,24.8859],[75.473,24.8932],[75.4773,24.8975],[75.4964,24.8973],[75.5019,24.8945],[75.5068,24.8873],[75.4999,24.8833],[75.4983,24.8735],[75.4952,24.8704],[75.4839,24.8701],[75.4743,24.8654],[75.4717,24.8505],[75.4751,24.8499],[75.473,24.8454],[75.4663,24.8421],[75.4483,24.8282],[75.4445,24.8177],[75.4404,24.817],[75.4329,24.8227],[75.4401,24.8281],[75.4482,24.8369],[75.4552,24.8387],[75.4594,24.8445],[75.4562,24.8478],[75.4564,24.8557],[75.4524,24.8584],[75.4461,24.8583],[75.4397,24.8523],[75.4365,24.8531],[75.4387,24.8642],[75.4358,24.869],[75.4516,24.8661],[75.4565,24.8716]],[[75.5278,24.8718],[75.5188,24.8752],[75.515,24.8864],[75.5288,24.8869],[75.5355,24.8763],[75.533,24.866],[75.5367,24.8605],[75.5294,24.8575],[75.5278,24.8718]],[[75.4928,24.8243],[75.4945,24.8318],[75.4927,24.8352],[75.4955,24.8417],[75.502,24.8501],[75.5011,24.8649],[75.5067,24.8604],[75.5124,24.8597],[75.5153,24.8561],[75.524,24.8531],[75.5168,24.8444],[75.5095,24.8475],[75.5066,24.8361],[75.513,24.8354],[75.5144,24.8273],[75.5013,24.823],[75.4928,24.8243]],[[75.5364,24.8576],[75.5413,24.8545],[75.5416,24.8472],[75.5504,24.844],[75.5526,24.8343],[75.5498,24.8307],[75.5475,24.8213],[75.5434,24.8267],[75.5444,24.8362],[75.5333,24.8497],[75.5364,24.8576]],[[75.4793,24.8226],[75.4798,24.8167],[75.4875,24.8165],[75.4882,24.8049],[75.4854,24.8003],[75.4726,24.7941],[75.47,24.7985],[75.4605,24.7968],[75.4557,24.7892],[75.4516,24.786],[75.4447,24.7854],[75.4364,24.7777],[75.4313,24.7825],[75.4227,24.7843],[75.4178,24.7795],[75.4123,24.78],[75.4101,24.7843],[75.4193,24.7932],[75.4258,24.7879],[75.437,24.7862],[75.4539,24.7962],[75.4589,24.8052],[75.4602,24.8131],[75.4685,24.8194],[75.4754,24.8285],[75.4796,24.8281],[75.4793,24.8226]]]},"properties":{"id":"bhensrodgarh-wls","name":"Bhensrodgarh Wildlife Sanctuary","category":"wls","area_km2":229.1}}]}