{"type":"FeatureCollection","features":[{"type":"Feature","geometry":{"type":"MultiPolygon","coordinates":[[[[95.3603,27.4336],[95.3606,27.4299],[95.3673,27.4289],[95.3694,27.425],[95.3617,27.4259],[95.3546,27.4189],[95.3532,27.4126],[95.3559,27.4083],[95.3686,27.4069],[95.3708,27.4183],[95.3649,27.42],[95.3738,27.4262],[95.3738,27.4312],[95.3772,27.4308],[95.3776,27.4388],[95.3743,27.4436],[95.3583,27.4406],[95.3603,27.4336]]],[[[95.3703,27.5293],[95.3651,27.5296],[95.3644,27.5239],[95.3811,27.5294],[95.3828,27.5348],[95.3748,27.5352],[95.3703,27.5293]]],[[[95.3211,27.5439],[95.3052,27.544],[95.3047,27.5348],[95.3214,27.5329],[95.3211,27.5439]]]]},"properties":{"id":"bherjan-borajan-podumoni-wls","name":"Bherjan-Borajan-Podumoni Wildlife Sanctuary","category":"wls","area_km2":7.2}}]}