{"type":"FeatureCollection","features":[{"type":"Feature","geometry":{"type":"Polygon","coordinates":[[[73.5974,19.0923],[73.5941,19.0983],[73.5953,19.1135],[73.6029,19.1202],[73.6064,19.1268],[73.613,19.1282],[73.6184,19.1328],[73.6204,19.141],[73.6099,19.1499],[73.5943,19.1658],[73.5966,19.1735],[73.6038,19.1786],[73.6098,19.1805],[73.6219,19.1899],[73.6192,19.2055],[73.6139,19.2197],[73.6074,19.2175],[73.6063,19.2003],[73.6038,19.1978],[73.5947,19.1999],[73.5896,19.1935],[73.5844,19.1917],[73.5738,19.1945],[73.5742,19.1865],[73.5668,19.1856],[73.565,19.178],[73.5588,19.1834],[73.5536,19.1816],[73.5401,19.1834],[73.5335,19.1777],[73.5312,19.1685],[73.5226,19.1665],[73.5164,19.169],[73.5133,19.1638],[73.5044,19.1601],[73.5069,19.1466],[73.5114,19.1393],[73.5211,19.1328],[73.5295,19.1213],[73.5251,19.1074],[73.5196,19.1002],[73.5162,19.0914],[73.5179,19.0805],[73.5164,19.0789],[73.5185,19.0568],[73.5238,19.0474],[73.53,19.0448],[73.531,19.0299],[73.5384,19.0243],[73.5303,19.0132],[73.5426,19.0117],[73.5443,19.01],[73.5401,19.0026],[73.5353,19.0027],[73.5258,18.9962],[73.5234,18.9964],[73.5072,19.0109],[73.4997,19.0133],[73.4949,19.0127],[73.4921,19.0051],[73.5001,18.9989],[73.5009,18.9879],[73.5054,18.9834],[73.5083,18.9741],[73.507,18.9714],[73.4934,18.9786],[73.4826,18.9882],[73.4753,18.9861],[73.4745,18.9815],[73.4778,18.9786],[73.477,18.9699],[73.4812,18.964],[73.4937,18.9551],[73.4992,18.9562],[73.5143,18.9501],[73.5245,18.9432],[73.5606,18.9463],[73.5657,18.9514],[73.5914,18.9667],[73.5992,18.9729],[73.6075,18.9828],[73.6102,18.9962],[73.6158,19.0041],[73.6199,19.0142],[73.6184,19.0204],[73.6079,19.0245],[73.6023,19.0293],[73.5959,19.0311],[73.5925,19.0353],[73.5941,19.0418],[73.6011,19.0424],[73.6096,19.0477],[73.6154,19.0466],[73.6236,19.054],[73.6235,19.0593],[73.6284,19.0729],[73.6257,19.0755],[73.6048,19.0842],[73.5974,19.0923]]]},"properties":{"id":"bhimashankar-wls","name":"Bhimashankar Wildlife Sanctuary","category":"wls","area_km2":130.8}}]}