{"type":"FeatureCollection","features":[{"type":"Feature","geometry":{"type":"Polygon","coordinates":[[[86.4156,25.0106],[86.4167,25.0048],[86.4132,24.9949],[86.4207,24.9868],[86.4198,24.9808],[86.4245,24.982],[86.4301,24.9757],[86.4347,24.9812],[86.4341,24.9954],[86.4382,24.9973],[86.4437,24.9938],[86.4477,24.984],[86.4583,24.9764],[86.465,24.9802],[86.4667,24.9889],[86.4769,24.9877],[86.4838,24.9737],[86.4794,24.9703],[86.4758,24.9719],[86.4568,24.9668],[86.4464,24.9582],[86.4663,24.9518],[86.4826,24.9515],[86.4995,24.9534],[86.5044,24.9583],[86.5025,24.9628],[86.4941,24.965],[86.4847,24.9618],[86.4847,24.9646],[86.4998,24.9738],[86.5081,24.9765],[86.5133,24.9751],[86.5136,24.9709],[86.5215,24.9692],[86.528,24.9721],[86.5359,24.9658],[86.5448,24.9667],[86.5352,24.9742],[86.5352,24.98],[86.5312,24.9843],[86.5423,24.9889],[86.5501,24.9954],[86.5387,24.9938],[86.5391,25.001],[86.5573,25.013],[86.5579,25.015],[86.5507,25.0197],[86.545,25.0176],[86.5421,25.012],[86.5368,25.0103],[86.534,25.004],[86.5204,24.9956],[86.5159,25.0122],[86.4936,25.0192],[86.4912,25.0225],[86.4959,25.0262],[86.4935,25.0301],[86.4877,25.0301],[86.4833,25.0254],[86.4801,25.0276],[86.4833,25.0351],[86.4875,25.0385],[86.4916,25.0543],[86.4793,25.0609],[86.4796,25.067],[86.4889,25.0902],[86.4929,25.0943],[86.4947,25.1025],[86.504,25.1081],[86.496,25.1101],[86.4984,25.1154],[86.5116,25.1325],[86.5217,25.1377],[86.5295,25.1459],[86.5397,25.165],[86.5428,25.1679],[86.5486,25.1676],[86.5506,25.1734],[86.5519,25.187],[86.5572,25.1938],[86.5563,25.2113],[86.5582,25.2207],[86.5621,25.2308],[86.5493,25.2348],[86.5457,25.2382],[86.5352,25.2633],[86.5279,25.2614],[86.5267,25.2673],[86.5304,25.2822],[86.5292,25.3026],[86.5245,25.3029],[86.5214,25.3167],[86.5214,25.3235],[86.5135,25.3255],[86.5138,25.3319],[86.5239,25.3455],[86.5143,25.3391],[86.5105,25.3325],[86.51,25.3135],[86.5017,25.3079],[86.4992,25.2989],[86.5009,25.2874],[86.5064,25.2846],[86.5076,25.2808],[86.5013,25.2745],[86.4993,25.2548],[86.4907,25.256],[86.4894,25.2522],[86.491,25.2396],[86.4945,25.2351],[86.4945,25.2291],[86.4879,25.2353],[86.4847,25.2339],[86.4725,25.2346],[86.468,25.2276],[86.4669,25.2214],[86.4689,25.2169],[86.4622,25.2228],[86.4575,25.2229],[86.4588,25.2125],[86.4632,25.2058],[86.4691,25.2012],[86.4627,25.1959],[86.463,25.1905],[86.4592,25.1869],[86.4452,25.1874],[86.4367,25.1918],[86.425,25.1913],[86.4122,25.1834],[86.3928,25.1889],[86.3862,25.1865],[86.3841,25.1957],[86.3751,25.1952],[86.3695,25.1923],[86.3744,25.189],[86.368,25.1877],[86.3561,25.1888],[86.341,25.1871],[86.3366,25.1824],[86.3182,25.1795],[86.3012,25.1745],[86.3015,25.1773],[86.2901,25.1788],[86.2744,25.1762],[86.2699,25.1733],[86.2718,25.1623],[86.2774,25.1579],[86.2819,25.1576],[86.2822,25.1529],[86.2754,25.1503],[86.2576,25.1503],[86.2578,25.1463],[86.2395,25.147],[86.2438,25.1433],[86.2417,25.1397],[86.2223,25.1394],[86.205,25.1368],[86.1885,25.1357],[86.1613,25.1366],[86.1683,25.1347],[86.1903,25.1328],[86.2092,25.133],[86.2178,25.135],[86.2191,25.1295],[86.2099,25.1276],[86.2078,25.1244],[86.201,25.1227],[86.2115,25.1125],[86.2047,25.1082],[86.2121,25.1041],[86.2112,25.0973],[86.216,25.0938],[86.214,25.0895],[86.2251,25.0928],[86.2309,25.0854],[86.2421,25.0861],[86.2435,25.084],[86.2301,25.0788],[86.2196,25.0677],[86.2154,25.0587],[86.22,25.0536],[86.2194,25.048],[86.2236,25.0407],[86.2285,25.0401],[86.2209,25.0351],[86.2186,25.0175],[86.2285,25.0073],[86.2333,25.0055],[86.2371,25.0088],[86.2486,25.008],[86.2565,25.0095],[86.2776,25.0205],[86.2881,25.0249],[86.2915,25.0281],[86.3012,25.0288],[86.3134,25.0245],[86.3175,25.0267],[86.3354,25.0209],[86.3525,25.0191],[86.3722,25.03],[86.3854,25.0307],[86.3901,25.033],[86.4035,25.0313],[86.4043,25.0355],[86.4208,25.0334],[86.4183,25.0206],[86.4196,25.0174],[86.4156,25.0106]]]},"properties":{"id":"bhimbandh-wls","name":"Bhimbandh Wildlife Sanctuary","category":"wls","area_km2":682}}]}