{"type":"FeatureCollection","features":[{"type":"Feature","geometry":{"type":"Polygon","coordinates":[[[74.2557,15.6253],[74.2643,15.6155],[74.26,15.6067],[74.2602,15.5927],[74.2487,15.5804],[74.2505,15.5774],[74.2453,15.5673],[74.2492,15.5679],[74.2575,15.5619],[74.2632,15.5639],[74.2652,15.5585],[74.2772,15.547],[74.2822,15.534],[74.2822,15.5274],[74.2782,15.5214],[74.2912,15.5241],[74.3239,15.5157],[74.3427,15.517],[74.3708,15.4847],[74.3853,15.499],[74.389,15.5042],[74.3871,15.5351],[74.3846,15.5456],[74.376,15.5468],[74.3738,15.5544],[74.3792,15.5606],[74.3677,15.5752],[74.3744,15.5835],[74.3807,15.5948],[74.3749,15.5934],[74.3697,15.5951],[74.3671,15.6042],[74.3834,15.6151],[74.3862,15.62],[74.3762,15.6247],[74.3685,15.6244],[74.3541,15.6274],[74.3493,15.6264],[74.3395,15.6306],[74.3189,15.6313],[74.3096,15.628],[74.2949,15.6206],[74.2863,15.6197],[74.2813,15.629],[74.273,15.6316],[74.2594,15.6299],[74.2557,15.6253]]]},"properties":{"id":"bhimgad-wls","name":"Bhimgad Wildlife Sanctuary","category":"wls","area_km2":190.4}}]}