{"type":"FeatureCollection","features":[{"type":"Feature","geometry":{"type":"Polygon","coordinates":[[[86.9433,20.7693],[86.942,20.773],[86.9498,20.7737],[86.9503,20.7764],[86.9569,20.7804],[86.9459,20.783],[86.9242,20.7861],[86.8948,20.7914],[86.8788,20.7925],[86.8624,20.788],[86.8341,20.7731],[86.8267,20.7644],[86.8222,20.7535],[86.8191,20.7288],[86.8155,20.7206],[86.8068,20.7108],[86.802,20.7007],[86.7977,20.6838],[86.7915,20.6736],[86.7727,20.6525],[86.7703,20.6454],[86.7699,20.6281],[86.7649,20.6192],[86.7551,20.6148],[86.7469,20.6152],[86.7396,20.6078],[86.7305,20.6036],[86.7236,20.5964],[86.7131,20.5947],[86.7105,20.5823],[86.7116,20.5728],[86.7098,20.5657],[86.7221,20.5493],[86.7305,20.5462],[86.7289,20.5347],[86.7399,20.5213],[86.7525,20.5165],[86.7594,20.5004],[86.7743,20.504],[86.7778,20.5081],[86.7826,20.5278],[86.7897,20.5401],[86.8048,20.551],[86.826,20.565],[86.8238,20.5736],[86.8298,20.578],[86.8306,20.5815],[86.8413,20.5868],[86.8414,20.5948],[86.8478,20.5982],[86.8489,20.6027],[86.8452,20.6058],[86.8511,20.61],[86.8525,20.6146],[86.8609,20.6167],[86.8611,20.6231],[86.8665,20.6285],[86.869,20.6411],[86.8776,20.6444],[86.8864,20.6505],[86.8894,20.6545],[86.8906,20.6635],[86.8867,20.6678],[86.8929,20.6719],[86.8809,20.6777],[86.9016,20.6972],[86.908,20.701],[86.9321,20.7109],[86.9398,20.7119],[86.9566,20.7092],[86.9678,20.7088],[86.9842,20.7032],[87.005,20.7003],[87.0083,20.7015],[87.0073,20.7061],[87.0157,20.7092],[87.0185,20.7137],[87.0175,20.7237],[87.0081,20.7217],[87.0062,20.7252],[87.0091,20.7399],[86.9959,20.7708],[86.9901,20.7742],[86.9736,20.7714],[86.9642,20.7673],[86.9443,20.7664],[86.9433,20.7693]]]},"properties":{"id":"bhitarkanika-wls","name":"Bhitarkanika Wildlife Sanctuary","category":"wls","area_km2":525}}]}