{"type":"FeatureCollection","features":[{"type":"Feature","geometry":{"type":"Polygon","coordinates":[[[87.0201,20.7559],[87.0269,20.7692],[87.0273,20.7772],[87.0242,20.7849],[87.0179,20.7926],[86.9977,20.8012],[86.9906,20.8085],[86.9883,20.8157],[86.9657,20.8159],[86.9621,20.7915],[86.9579,20.7857],[86.929,20.7952],[86.9146,20.7983],[86.9025,20.7959],[86.9024,20.7935],[86.8795,20.7971],[86.8688,20.7951],[86.8371,20.7792],[86.8213,20.7665],[86.8121,20.7486],[86.8047,20.713],[86.7939,20.7048],[86.7826,20.6723],[86.7664,20.6446],[86.7493,20.6257],[86.7445,20.6368],[86.747,20.6452],[86.7375,20.6469],[86.7329,20.6442],[86.7271,20.6299],[86.7241,20.6159],[86.7292,20.6046],[86.7218,20.599],[86.7115,20.5954],[86.7092,20.5862],[86.7099,20.5723],[86.708,20.5674],[86.7135,20.5587],[86.7124,20.555],[86.7268,20.5441],[86.7275,20.5314],[86.7325,20.5273],[86.7348,20.5203],[86.7498,20.5132],[86.7551,20.5001],[86.7743,20.504],[86.7778,20.5081],[86.7826,20.5278],[86.7897,20.5401],[86.8622,20.5907],[87.0037,20.6787],[87.0371,20.7016],[87.0704,20.7202],[87.0699,20.7246],[87.0641,20.7239],[87.0595,20.72],[87.053,20.7191],[87.0356,20.7087],[87.02,20.7044],[87.0201,20.7559]]]},"properties":{"id":"bhitarkanika-mangroves-ramsar","name":"Bhitarkanika Mangroves","category":"ramsar","area_km2":650}}]}