{"type":"FeatureCollection","features":[{"type":"Feature","geometry":{"type":"Polygon","coordinates":[[[87.0371,20.7016],[87.0522,20.7094],[87.0704,20.7202],[87.0699,20.7246],[87.0641,20.7239],[87.0595,20.72],[87.053,20.7191],[87.0356,20.7087],[87.005,20.7003],[86.9842,20.7032],[86.9678,20.7088],[86.9566,20.7092],[86.9398,20.7119],[86.9321,20.7109],[86.908,20.701],[86.9016,20.6972],[86.8809,20.6777],[86.8929,20.6719],[86.8867,20.6678],[86.8906,20.6635],[86.8894,20.6545],[86.8864,20.6505],[86.8776,20.6444],[86.869,20.6411],[86.8665,20.6285],[86.8611,20.6231],[86.8609,20.6167],[86.8525,20.6146],[86.8511,20.61],[86.8452,20.6058],[86.8489,20.6027],[86.8478,20.5982],[86.8414,20.5948],[86.8413,20.5868],[86.8306,20.5815],[86.8298,20.578],[86.8238,20.5736],[86.826,20.565],[86.8622,20.5907],[86.9307,20.6335],[87.0037,20.6787],[87.0165,20.688],[87.0258,20.6931],[87.0371,20.7016]]]},"properties":{"id":"bhitarkanika-np","name":"Bhitarkanika National Park","category":"np","area_km2":145}}]}