{"type":"FeatureCollection","features":[{"type":"Feature","geometry":{"type":"Polygon","coordinates":[[[77.378,23.2136],[77.3747,23.2183],[77.3724,23.2166],[77.3651,23.2185],[77.3549,23.2306],[77.3569,23.2373],[77.3709,23.2425],[77.3788,23.2415],[77.3867,23.2444],[77.3982,23.2535],[77.3871,23.2597],[77.3803,23.261],[77.3709,23.2596],[77.3722,23.2569],[77.3643,23.2574],[77.3676,23.2659],[77.3622,23.2716],[77.3566,23.2737],[77.3428,23.2713],[77.3466,23.2654],[77.3382,23.2628],[77.3323,23.2655],[77.332,23.2693],[77.323,23.2688],[77.323,23.2631],[77.3192,23.263],[77.3159,23.2676],[77.3054,23.2639],[77.3038,23.2611],[77.2979,23.2613],[77.2672,23.2503],[77.2692,23.2454],[77.2631,23.2424],[77.2584,23.2359],[77.2636,23.2318],[77.2748,23.2359],[77.2855,23.2355],[77.2888,23.2293],[77.2888,23.2383],[77.2938,23.2386],[77.2956,23.2424],[77.3007,23.2426],[77.3053,23.2382],[77.3137,23.2411],[77.3193,23.2397],[77.3271,23.244],[77.3276,23.242],[77.3182,23.2371],[77.3198,23.2334],[77.314,23.227],[77.3157,23.2251],[77.3284,23.2276],[77.3334,23.2234],[77.336,23.2329],[77.3423,23.2359],[77.3448,23.2286],[77.353,23.2228],[77.3548,23.2178],[77.3598,23.2189],[77.378,23.2136]]]},"properties":{"id":"bhoj-wetlands-ramsar","name":"Bhoj Wetlands","category":"ramsar","area_km2":32}}]}