{"type":"FeatureCollection","features":[{"type":"Feature","geometry":{"type":"Polygon","coordinates":[[[81.0479,22.2289],[81.0483,22.2377],[81.0458,22.2413],[81.0379,22.234],[81.027,22.2289],[81.0236,22.2292],[81.0194,22.221],[81.0218,22.2121],[81.0313,22.2015],[81.029,22.1925],[81.0307,22.1876],[81.0224,22.1894],[81.0169,22.1861],[81.0173,22.1795],[81.0268,22.1663],[81.0225,22.1585],[81.0238,22.1487],[81.0215,22.1328],[81.0137,22.1337],[80.9986,22.1317],[80.9937,22.1352],[80.9823,22.1281],[80.978,22.1226],[80.9796,22.1125],[80.9836,22.1142],[80.9916,22.1115],[81.0112,22.0954],[81.0063,22.0923],[81.0015,22.0835],[81.0046,22.0754],[81.009,22.0699],[81.0026,22.0583],[80.9949,22.0585],[80.9949,22.0497],[80.9901,22.0514],[80.9834,22.0487],[80.9805,22.0547],[80.97,22.0574],[80.9692,22.0666],[80.972,22.084],[80.9665,22.096],[80.9611,22.1023],[80.9569,22.1105],[80.9494,22.1172],[80.9255,22.1204],[80.922,22.12],[80.9146,22.1131],[80.9079,22.1093],[80.8995,22.0772],[80.8979,22.0671],[80.9042,22.0749],[80.9099,22.0756],[80.9096,22.065],[80.9126,22.0633],[80.9252,22.064],[80.9297,22.061],[80.9415,22.0421],[80.9409,22.0286],[80.9371,22.0141],[80.9324,22.0072],[80.9495,21.9982],[80.9529,21.9945],[80.9499,21.9903],[80.9434,21.988],[80.9445,21.9804],[80.9539,21.9802],[80.9544,21.9757],[80.9478,21.972],[80.9489,21.9668],[80.9548,21.9654],[80.9735,21.9654],[80.9826,21.9679],[80.9871,21.9735],[80.9999,21.985],[81.006,21.9864],[81.0147,21.9857],[81.0238,21.9801],[81.0421,21.973],[81.0584,21.9704],[81.0733,21.9698],[81.0803,21.9713],[81.0877,21.9783],[81.0902,21.9862],[81.1022,21.9905],[81.1094,21.9891],[81.1185,21.9808],[81.124,21.9799],[81.1307,21.9827],[81.1412,21.9947],[81.1453,21.9975],[81.1486,22.004],[81.1531,22.0375],[81.1573,22.1027],[81.1471,22.1057],[81.1423,22.1208],[81.1363,22.1274],[81.1259,22.1349],[81.1194,22.1373],[81.1136,22.1366],[81.0999,22.1282],[81.0925,22.1203],[81.0877,22.1181],[81.073,22.1191],[81.0727,22.1255],[81.0672,22.1275],[81.0569,22.1273],[81.0498,22.1317],[81.0438,22.1451],[81.0447,22.153],[81.0496,22.1743],[81.0488,22.1782],[81.0516,22.1863],[81.0475,22.2013],[81.0499,22.2063],[81.0551,22.2085],[81.0545,22.2147],[81.0481,22.2167],[81.0463,22.22],[81.0479,22.2289]]]},"properties":{"id":"bhoramdev-wls","name":"Bhoramdev Wildlife Sanctuary","category":"wls","area_km2":351.2}}]}