{"type":"FeatureCollection","features":[{"type":"Feature","geometry":{"type":"Polygon","coordinates":[[[77.1894,12.1018],[77.1892,12.1147],[77.1839,12.1287],[77.1754,12.143],[77.1684,12.1439],[77.1644,12.1366],[77.1533,12.1353],[77.1508,12.1289],[77.1498,12.116],[77.1438,12.1097],[77.1457,12.1067],[77.1553,12.1006],[77.1555,12.0966],[77.138,12.0977],[77.1383,12.0921],[77.1346,12.0875],[77.1365,12.0787],[77.1449,12.0748],[77.1542,12.0728],[77.1586,12.0701],[77.1574,12.0634],[77.1506,12.0679],[77.1442,12.0687],[77.1347,12.0728],[77.1279,12.0699],[77.1246,12.0731],[77.1215,12.0683],[77.1332,12.0679],[77.1483,12.0628],[77.1507,12.0529],[77.1475,12.0492],[77.132,12.0474],[77.1376,12.0425],[77.1354,12.0369],[77.1378,12.0315],[77.1316,12.0331],[77.1148,11.9997],[77.1134,11.9915],[77.1083,11.9944],[77.1055,11.9867],[77.1089,11.9812],[77.1148,11.9786],[77.1189,11.9646],[77.1186,11.9512],[77.1232,11.9437],[77.0966,11.9351],[77.0918,11.9314],[77.0902,11.9191],[77.0803,11.9104],[77.0756,11.8996],[77.0666,11.8958],[77.058,11.8968],[77.0572,11.8924],[77.0462,11.8929],[77.037,11.8895],[77.0385,11.8824],[77.0271,11.8849],[77.0312,11.8763],[77.0333,11.8679],[77.037,11.8659],[77.0346,11.8529],[77.0294,11.8483],[77.0199,11.845],[77.0099,11.8161],[77.0129,11.8146],[77.014,11.8062],[77.0169,11.8107],[77.0299,11.8047],[77.0342,11.7999],[77.0327,11.7959],[77.0387,11.7938],[77.0355,11.7831],[77.0289,11.7747],[77.0349,11.77],[77.0399,11.7806],[77.0445,11.7861],[77.0503,11.7896],[77.0575,11.7889],[77.0642,11.7917],[77.0548,11.7945],[77.05,11.8015],[77.0504,11.8177],[77.0546,11.8211],[77.0557,11.8292],[77.0596,11.8383],[77.0656,11.8306],[77.0554,11.8186],[77.0662,11.813],[77.0676,11.8073],[77.0728,11.8038],[77.0698,11.7976],[77.0701,11.7897],[77.078,11.7883],[77.0824,11.7835],[77.0897,11.7819],[77.0854,11.7636],[77.081,11.7538],[77.0776,11.7529],[77.0744,11.7581],[77.0682,11.7549],[77.0828,11.7398],[77.0803,11.7361],[77.1047,11.7329],[77.1148,11.7218],[77.1176,11.7213],[77.1173,11.731],[77.1141,11.7346],[77.1147,11.7389],[77.1116,11.7431],[77.1112,11.7504],[77.1086,11.754],[77.112,11.7597],[77.1032,11.7619],[77.1004,11.7723],[77.1043,11.7839],[77.1073,11.786],[77.1185,11.783],[77.1217,11.7786],[77.1253,11.7818],[77.1292,11.7807],[77.126,11.7744],[77.1379,11.7727],[77.1474,11.782],[77.1816,11.7863],[77.1891,11.7925],[77.2173,11.7954],[77.2305,11.7957],[77.2298,11.8016],[77.2374,11.8068],[77.2397,11.8207],[77.2454,11.8232],[77.2524,11.8365],[77.254,11.8442],[77.2482,11.8485],[77.2471,11.8544],[77.2411,11.8491],[77.2406,11.841],[77.2378,11.8358],[77.2338,11.835],[77.2284,11.8383],[77.2257,11.836],[77.2305,11.8343],[77.2307,11.8292],[77.2207,11.8262],[77.2218,11.8412],[77.2236,11.8473],[77.2276,11.8494],[77.2294,11.8587],[77.2283,11.8696],[77.2362,11.8795],[77.2387,11.8871],[77.237,11.8919],[77.2406,11.9006],[77.2534,11.8989],[77.2567,11.9003],[77.2621,11.908],[77.2564,11.9274],[77.2588,11.9344],[77.2506,11.946],[77.2497,11.9587],[77.2527,11.9679],[77.2472,11.9777],[77.2476,11.9909],[77.2429,12.0008],[77.2409,12.0254],[77.2339,12.0349],[77.2245,12.0312],[77.2232,12.04],[77.2276,12.0508],[77.2217,12.068],[77.2282,12.0718],[77.2281,12.0785],[77.221,12.0801],[77.2192,12.0844],[77.2086,12.0909],[77.2071,12.0976],[77.2047,12.098],[77.2047,12.0904],[77.2023,12.0805],[77.2045,12.0736],[77.2023,12.0688],[77.2036,12.0605],[77.2002,12.0452],[77.1961,12.0502],[77.1974,12.0631],[77.1966,12.0836],[77.1894,12.1018]],[[77.1561,12.0029],[77.1568,12.0055],[77.1632,12.0072],[77.1614,11.9995],[77.155,11.9867],[77.1473,11.9815],[77.1429,11.9867],[77.1371,11.9899],[77.1367,11.995],[77.1399,12.0012],[77.1544,12.0005],[77.1561,12.0029]],[[77.1885,11.9025],[77.1931,11.9041],[77.1944,11.8951],[77.1904,11.8938],[77.1885,11.9025]],[[77.1811,11.9016],[77.1833,11.899],[77.1836,11.8905],[77.1805,11.8787],[77.1861,11.8684],[77.1855,11.8453],[77.1838,11.8446],[77.1727,11.8604],[77.1728,11.8691],[77.1749,11.8806],[77.1777,11.8823],[77.1789,11.8995],[77.1811,11.9016]],[[77.1771,11.8447],[77.1778,11.8425],[77.1725,11.8264],[77.1682,11.8279],[77.1588,11.8401],[77.1605,11.8476],[77.1656,11.8479],[77.1663,11.8359],[77.172,11.8357],[77.175,11.8448],[77.1771,11.8447]]]},"properties":{"id":"biligiri-rangaswamy-temple-wls","name":"Biligiri Rangaswamy Temple Wildlife Sanctuary","category":"wls","area_km2":539.5}}]}