{"type":"FeatureCollection","features":[{"type":"Feature","geometry":{"type":"Polygon","coordinates":[[[79.795,29.6742],[79.8043,29.6859],[79.8048,29.6909],[79.8007,29.6925],[79.7923,29.6862],[79.7846,29.6832],[79.7749,29.6864],[79.7733,29.6934],[79.8008,29.7062],[79.8049,29.7093],[79.8021,29.7129],[79.7978,29.7113],[79.7947,29.7166],[79.7868,29.7211],[79.7769,29.7222],[79.7792,29.7257],[79.7743,29.7317],[79.7653,29.7363],[79.7624,29.7347],[79.7613,29.7402],[79.7563,29.7372],[79.7522,29.7393],[79.7495,29.7351],[79.7458,29.7381],[79.7416,29.7345],[79.7372,29.7386],[79.7323,29.7358],[79.735,29.7414],[79.7303,29.7399],[79.7219,29.7414],[79.7197,29.7389],[79.7226,29.7318],[79.7297,29.7283],[79.7313,29.7236],[79.7268,29.7125],[79.7294,29.7067],[79.7173,29.7012],[79.7157,29.6974],[79.7046,29.6976],[79.6969,29.6904],[79.6912,29.6885],[79.7117,29.6857],[79.7238,29.678],[79.7213,29.6646],[79.7242,29.6622],[79.7299,29.6653],[79.7376,29.6619],[79.7676,29.6706],[79.7782,29.6751],[79.795,29.6742]]]},"properties":{"id":"binsar-wls","name":"Binsar Wildlife Sanctuary","category":"wls","area_km2":47.1}}]}