{"type":"FeatureCollection","features":[{"type":"Feature","geometry":{"type":"Polygon","coordinates":[[[76.9732,30.7544],[76.9754,30.7536],[76.9905,30.7604],[76.9759,30.7638],[76.9824,30.7737],[76.9794,30.7808],[76.9772,30.775],[76.9709,30.7753],[76.967,30.7786],[76.9664,30.7849],[76.9692,30.7887],[76.953,30.7847],[76.9501,30.7798],[76.9423,30.7749],[76.9448,30.7721],[76.9542,30.7758],[76.9563,30.7666],[76.952,30.7589],[76.9571,30.7609],[76.9562,30.7555],[76.9606,30.7528],[76.9719,30.7579],[76.9732,30.7544]]]},"properties":{"id":"bir-shikargarh-wls","name":"Bir Shikargarh Wildlife Sanctuary","category":"wls","area_km2":7.7}}]}