{"type":"FeatureCollection","features":[{"type":"Feature","geometry":{"type":"Polygon","coordinates":[[[76.4772,30.1784],[76.47,30.1836],[76.4715,30.191],[76.4676,30.1948],[76.4715,30.1983],[76.4703,30.2033],[76.4743,30.2112],[76.4637,30.2058],[76.4644,30.2012],[76.4491,30.1969],[76.4435,30.1932],[76.4454,30.1852],[76.4513,30.1802],[76.4568,30.1857],[76.4647,30.1838],[76.4648,30.177],[76.4704,30.1695],[76.4653,30.1653],[76.4678,30.1632],[76.4772,30.1784]]]},"properties":{"id":"bir-bunerheri-wls","name":"Bir Bunerheri Wildlife Sanctuary","category":"wls","area_km2":6.6}}]}