{"type":"FeatureCollection","features":[{"type":"Feature","geometry":{"type":"MultiPolygon","coordinates":[[[[76.1614,30.432],[76.1471,30.4182],[76.1461,30.4287],[76.1356,30.4235],[76.1308,30.4244],[76.1315,30.4166],[76.1374,30.413],[76.1391,30.4075],[76.1502,30.4138],[76.1581,30.4157],[76.1593,30.4275],[76.1648,30.4304],[76.1614,30.432]]],[[[76.1561,30.4441],[76.1506,30.4517],[76.1422,30.4467],[76.1496,30.4411],[76.1421,30.4366],[76.1462,30.433],[76.1508,30.4417],[76.1561,30.4441]]]]},"properties":{"id":"bir-dosanjh-wls","name":"Bir Dosanjh Wildlife Sanctuary","category":"wls","area_km2":5.2}}]}