{"type":"FeatureCollection","features":[{"type":"Feature","geometry":{"type":"MultiPolygon","coordinates":[[[[91.3864,23.317],[91.3906,23.331],[91.3867,23.3329],[91.3701,23.3172],[91.3641,23.3177],[91.3615,23.3239],[91.3551,23.324],[91.3495,23.3209],[91.3463,23.3136],[91.349,23.3064],[91.3463,23.2982],[91.3514,23.2861],[91.3473,23.2672],[91.3499,23.2653],[91.3515,23.2564],[91.3485,23.2526],[91.3464,23.2392],[91.3536,23.2369],[91.356,23.2419],[91.3563,23.2282],[91.3728,23.2284],[91.3706,23.2312],[91.3723,23.2534],[91.3772,23.2576],[91.3788,23.252],[91.3817,23.2531],[91.3844,23.2623],[91.3784,23.265],[91.379,23.2713],[91.3864,23.2775],[91.3968,23.2735],[91.3912,23.2836],[91.3868,23.2823],[91.379,23.2898],[91.3776,23.2938],[91.3826,23.2949],[91.3788,23.3007],[91.3821,23.3037],[91.3816,23.3108],[91.3864,23.317]]],[[[91.4022,23.2822],[91.3969,23.283],[91.3995,23.2756],[91.4082,23.2719],[91.4072,23.2813],[91.4022,23.2822]]]]},"properties":{"id":"bison-np","name":"Bison National Park","category":"np","area_km2":31.6}}]}