{"type":"FeatureCollection","features":[{"type":"Feature","geometry":{"type":"Polygon","coordinates":[[[72.0403,22.0726],[72.0327,22.0787],[72.0243,22.0773],[72.0213,22.0668],[72.0154,22.0525],[72.0312,22.0215],[72.0372,22.0206],[72.054,22.0277],[72.0637,22.0257],[72.0762,22.0167],[72.0903,22.0112],[72.0979,22.0055],[72.1013,22.0166],[72.0934,22.033],[72.079,22.0405],[72.0734,22.0558],[72.0661,22.0617],[72.0495,22.0675],[72.0403,22.0726]]]},"properties":{"id":"blackbuck-np","name":"Blackbuck National Park","category":"np","area_km2":34.5}}]}