{"type":"FeatureCollection","features":[{"type":"Feature","geometry":{"type":"Polygon","coordinates":[[[74.0771,15.4497],[74.0851,15.4477],[74.0837,15.4436],[74.0862,15.4317],[74.0963,15.4248],[74.0918,15.4119],[74.098,15.4053],[74.1083,15.3976],[74.1148,15.3969],[74.1183,15.3999],[74.1229,15.3969],[74.1273,15.3979],[74.1284,15.4052],[74.1344,15.4122],[74.1384,15.4101],[74.1412,15.4147],[74.1298,15.4351],[74.1258,15.4395],[74.1263,15.4432],[74.1219,15.4491],[74.1192,15.457],[74.109,15.4497],[74.1075,15.4544],[74.1089,15.4653],[74.1076,15.4691],[74.1011,15.4697],[74.1002,15.4633],[74.0969,15.4682],[74.0916,15.4664],[74.0888,15.4609],[74.0793,15.4614],[74.0736,15.4567],[74.0771,15.4497]]]},"properties":{"id":"bondla-wls","name":"Bondla Wildlife Sanctuary","category":"wls","area_km2":8}}]}