{"type":"FeatureCollection","features":[{"type":"Feature","geometry":{"type":"Polygon","coordinates":[[[78.7187,20.9969],[78.7074,21.0036],[78.6902,21.0159],[78.6819,21.0199],[78.6788,21.018],[78.6769,21.0102],[78.6672,21.0113],[78.6624,21.0065],[78.6565,21.0089],[78.6529,21.0071],[78.6414,21.0088],[78.6413,21.0035],[78.6366,21],[78.6399,20.9962],[78.634,20.9828],[78.6325,20.9727],[78.6481,20.9667],[78.6694,20.9656],[78.672,20.9528],[78.6843,20.9554],[78.6917,20.9532],[78.7089,20.9632],[78.7158,20.9579],[78.7265,20.96],[78.7311,20.9562],[78.7491,20.9559],[78.7522,20.9667],[78.7593,20.9717],[78.7664,20.9717],[78.7862,20.9769],[78.784,20.9788],[78.7905,20.9873],[78.7794,20.9918],[78.7698,20.9934],[78.7704,21.0058],[78.7662,21.0056],[78.7629,21.0138],[78.7556,21.0169],[78.7485,21.0161],[78.7448,21.0089],[78.7324,21.0043],[78.7229,21.0034],[78.7187,20.9969]]]},"properties":{"id":"bor-tr","name":"Bor Tiger Reserve","category":"tr","area_km2":138.1}}]}