{"type":"FeatureCollection","features":[{"type":"Feature","geometry":{"type":"Polygon","coordinates":[[[78.3694,22.4274],[78.3581,22.4365],[78.3518,22.4392],[78.3488,22.4445],[78.3473,22.4536],[78.3171,22.4615],[78.2989,22.467],[78.2718,22.4699],[78.2586,22.4656],[78.2443,22.4675],[78.2396,22.4713],[78.2313,22.4741],[78.2215,22.4744],[78.2143,22.4705],[78.2075,22.4705],[78.1917,22.4746],[78.1793,22.4763],[78.1701,22.4738],[78.1513,22.4738],[78.1374,22.4774],[78.1249,22.4768],[78.1083,22.4815],[78.0949,22.4892],[78.0881,22.4911],[78.069,22.4927],[78.0589,22.4963],[78.0248,22.4982],[78.009,22.504],[78.004,22.5111],[77.9971,22.5139],[77.9903,22.5142],[77.9856,22.504],[77.9775,22.5048],[77.9772,22.5106],[77.9823,22.5216],[77.979,22.5257],[77.9734,22.5276],[77.9674,22.5246],[77.9645,22.5177],[77.9582,22.512],[77.96,22.4988],[77.9579,22.4949],[77.9472,22.4963],[77.9443,22.493],[77.9434,22.484],[77.9466,22.4787],[77.9594,22.4733],[77.9662,22.4631],[77.9775,22.4598],[77.9802,22.4513],[77.9752,22.4439],[77.9716,22.4337],[77.9648,22.4354],[77.9567,22.4472],[77.9508,22.4466],[77.9493,22.4409],[77.9392,22.4315],[77.9243,22.4347],[77.9172,22.4257],[77.9141,22.4124],[77.9164,22.4028],[77.9158,22.3906],[77.9194,22.3806],[77.919,22.3767],[77.9122,22.3651],[77.9119,22.362],[77.9183,22.3456],[77.9213,22.3429],[77.9316,22.3417],[77.9429,22.3377],[77.9467,22.3411],[77.9524,22.3393],[77.9549,22.3327],[77.9635,22.3324],[77.9718,22.3349],[78.0001,22.3329],[78.0108,22.338],[78.0219,22.3355],[78.0334,22.3302],[78.0397,22.3349],[78.049,22.3377],[78.0728,22.3493],[78.0825,22.3516],[78.0987,22.3622],[78.1243,22.3671],[78.1308,22.3747],[78.1508,22.3871],[78.1633,22.3885],[78.18,22.3987],[78.2025,22.3982],[78.2146,22.3968],[78.2648,22.3968],[78.2681,22.398],[78.2791,22.4142],[78.2844,22.4177],[78.2939,22.4179],[78.3061,22.4144],[78.3183,22.4235],[78.3274,22.4223],[78.3348,22.4195],[78.3553,22.4163],[78.37,22.4171],[78.3694,22.4274]]]},"properties":{"id":"bori-wls","name":"Bori Wildlife Sanctuary","category":"wls","area_km2":485.7}}]}