{"type":"FeatureCollection","features":[{"type":"Feature","geometry":{"type":"Polygon","coordinates":[[[75.7367,12.08],[75.7474,12.0785],[75.7522,12.0852],[75.7625,12.0842],[75.7675,12.0855],[75.773,12.0836],[75.7859,12.0849],[75.8026,12.0795],[75.8038,12.0765],[75.7984,12.063],[75.7986,12.0571],[75.794,12.0551],[75.7977,12.0515],[75.8007,12.0442],[75.801,12.037],[75.8107,12.0287],[75.8099,12.0228],[75.8145,12.0212],[75.8228,12.0129],[75.8203,12.0027],[75.8248,12.0027],[75.8255,11.9919],[75.8299,11.984],[75.8367,11.9811],[75.8468,11.9821],[75.8495,11.9781],[75.8477,11.9741],[75.8529,11.9702],[75.8541,11.9637],[75.8584,11.9589],[75.8665,11.9565],[75.8797,11.949],[75.8865,11.9505],[75.8968,11.9447],[75.9134,11.9462],[75.9292,11.9413],[75.9307,11.9391],[75.9404,11.9414],[75.9516,11.9407],[75.9563,11.9419],[75.9763,11.9338],[75.9834,11.9328],[75.9903,11.9348],[75.9938,11.9323],[76.0031,11.9314],[76.0074,11.9392],[76.0221,11.9441],[76.0334,11.9402],[76.0421,11.9459],[76.0445,11.9505],[76.0518,11.9515],[76.0558,11.956],[76.0463,11.9649],[76.0438,11.9623],[76.0403,11.9515],[76.0288,11.9496],[76.0258,11.9544],[76.0207,11.955],[76.0131,11.9498],[76.0001,11.9512],[75.9985,11.9581],[76.0006,11.9667],[75.9992,11.9693],[75.9887,11.9704],[75.9761,11.9752],[75.9796,11.9784],[75.9717,11.9876],[75.9663,11.99],[75.955,11.9853],[75.9526,11.9785],[75.9463,11.9753],[75.9418,11.9767],[75.9416,11.9828],[75.9348,11.9856],[75.9337,11.9993],[75.9284,12.0016],[75.927,12.012],[75.925,12.0111],[75.9236,12.0023],[75.9251,11.9927],[75.9208,11.9913],[75.9128,12.0019],[75.9062,11.9986],[75.9056,11.9928],[75.9084,11.9843],[75.8976,11.9838],[75.8842,11.9886],[75.8742,11.9905],[75.8751,12.0028],[75.8718,12.0092],[75.8658,12.0123],[75.8615,12.0117],[75.8562,12.0052],[75.8494,12.0075],[75.8499,12.0141],[75.86,12.0188],[75.8566,12.0266],[75.8579,12.0329],[75.8523,12.0354],[75.843,12.0341],[75.826,12.0479],[75.8241,12.0537],[75.8263,12.0595],[75.8295,12.0606],[75.844,12.0567],[75.8551,12.0596],[75.8655,12.053],[75.8787,12.0509],[75.8845,12.0518],[75.8908,12.0679],[75.8913,12.0765],[75.8962,12.0798],[75.8927,12.0831],[75.886,12.0802],[75.883,12.0755],[75.8796,12.0768],[75.8773,12.0851],[75.8626,12.0833],[75.8595,12.0765],[75.8543,12.0782],[75.8453,12.089],[75.8399,12.0915],[75.8408,12.1154],[75.8368,12.1203],[75.84,12.124],[75.8319,12.1358],[75.8252,12.1483],[75.8208,12.1498],[75.8038,12.1467],[75.7968,12.1435],[75.7947,12.1388],[75.8002,12.1333],[75.7946,12.127],[75.7865,12.1256],[75.786,12.1228],[75.7925,12.1176],[75.7906,12.1137],[75.7807,12.1077],[75.7805,12.1035],[75.775,12.1008],[75.7658,12.1038],[75.7558,12.0974],[75.7567,12.0908],[75.7367,12.08]]]},"properties":{"id":"brahmagiri-wls","name":"Brahmagiri Wildlife Sanctuary","category":"wls","area_km2":181.3}}]}