{"type":"FeatureCollection","features":[{"type":"Feature","geometry":{"type":"Polygon","coordinates":[[[76.747,13.5401],[76.7504,13.5432],[76.7475,13.5476],[76.7505,13.5676],[76.7533,13.5656],[76.7573,13.5814],[76.7545,13.586],[76.755,13.5991],[76.7532,13.606],[76.7491,13.6105],[76.745,13.6098],[76.74,13.5947],[76.7355,13.5896],[76.7282,13.5881],[76.7223,13.5904],[76.7233,13.5972],[76.7275,13.607],[76.7256,13.6166],[76.729,13.624],[76.7312,13.6348],[76.7288,13.6405],[76.7228,13.6383],[76.7195,13.6406],[76.7246,13.6469],[76.7189,13.6576],[76.7221,13.6626],[76.7281,13.6668],[76.7191,13.6686],[76.7183,13.6769],[76.727,13.6749],[76.731,13.6865],[76.7424,13.6898],[76.7336,13.6992],[76.7278,13.7021],[76.7279,13.7122],[76.7249,13.7167],[76.7249,13.7339],[76.7226,13.737],[76.7194,13.7515],[76.7191,13.7631],[76.7157,13.7693],[76.7111,13.7698],[76.7072,13.7744],[76.7025,13.7748],[76.6968,13.7692],[76.6941,13.7624],[76.6978,13.7605],[76.6876,13.7443],[76.6866,13.731],[76.6893,13.728],[76.6893,13.7214],[76.6851,13.7133],[76.6829,13.7039],[76.6771,13.6994],[76.6729,13.7016],[76.671,13.6982],[76.6748,13.6915],[76.6732,13.6746],[76.6751,13.6597],[76.6805,13.6521],[76.6814,13.645],[76.6784,13.6387],[76.6844,13.6218],[76.6875,13.6039],[76.6878,13.5956],[76.6925,13.5875],[76.7005,13.5625],[76.7011,13.5556],[76.6993,13.5445],[76.704,13.5361],[76.703,13.5243],[76.7045,13.5212],[76.7121,13.5172],[76.713,13.5125],[76.7237,13.5127],[76.7251,13.5043],[76.7307,13.5023],[76.7374,13.504],[76.7467,13.5135],[76.7496,13.5275],[76.747,13.5401]]]},"properties":{"id":"bukkapatna-wls","name":"Bukkapatna Wildlife Sanctuary","category":"wls","area_km2":136.1}}]}