{"type":"FeatureCollection","features":[{"type":"Feature","geometry":{"type":"Polygon","coordinates":[[[93.6211,25.1067],[93.6265,25.1128],[93.651,25.1236],[93.653,25.1302],[93.6577,25.1324],[93.6676,25.1454],[93.6676,25.154],[93.6596,25.1662],[93.6573,25.1815],[93.6548,25.1853],[93.6452,25.187],[93.6298,25.1956],[93.6121,25.2022],[93.6041,25.1928],[93.5981,25.1922],[93.5877,25.1861],[93.5837,25.1778],[93.5778,25.171],[93.563,25.1641],[93.548,25.1629],[93.544,25.1598],[93.5349,25.1578],[93.5221,25.1596],[93.5173,25.1574],[93.531,25.1558],[93.5342,25.1524],[93.5328,25.1397],[93.5353,25.1297],[93.5414,25.1193],[93.548,25.1139],[93.5494,25.1028],[93.56,25.1002],[93.5738,25.0934],[93.5794,25.0861],[93.59,25.0755],[93.6017,25.0804],[93.609,25.0903],[93.6153,25.0958],[93.6211,25.1067]],[[93.6187,25.1477],[93.608,25.1429],[93.6142,25.1366],[93.6224,25.134],[93.6263,25.1276],[93.6119,25.1286],[93.6092,25.1327],[93.6026,25.1348],[93.5972,25.1426],[93.5983,25.1462],[93.6093,25.1473],[93.6195,25.1528],[93.6187,25.1477]]]},"properties":{"id":"bunning-wls","name":"Bunning Wildlife Sanctuary","category":"wls","area_km2":115.8}}]}