{"type":"FeatureCollection","features":[{"type":"Feature","geometry":{"type":"Polygon","coordinates":[[[92.7305,26.5173],[92.7416,26.5168],[92.7499,26.5126],[92.7545,26.5159],[92.7544,26.5241],[92.7604,26.5338],[92.7554,26.5376],[92.759,26.5428],[92.7543,26.5461],[92.7366,26.5496],[92.7226,26.5483],[92.6964,26.5366],[92.6859,26.5357],[92.6715,26.54],[92.6637,26.5454],[92.6535,26.5458],[92.6454,26.5356],[92.6374,26.5317],[92.6362,26.5283],[92.6282,26.5244],[92.636,26.5237],[92.6436,26.527],[92.6533,26.5286],[92.6519,26.5309],[92.6635,26.5349],[92.6649,26.5285],[92.6543,26.5258],[92.6507,26.5184],[92.6572,26.5215],[92.6658,26.5219],[92.6759,26.5128],[92.6826,26.5102],[92.6885,26.5113],[92.6939,26.5187],[92.7057,26.531],[92.7155,26.5364],[92.726,26.5361],[92.7275,26.53],[92.7253,26.5228],[92.7305,26.5173]]]},"properties":{"id":"burachapori-wls","name":"Burachapori Wildlife Sanctuary","category":"wls","area_km2":44.1}}]}