{"type":"FeatureCollection","features":[{"type":"Feature","geometry":{"type":"MultiPolygon","coordinates":[[[[89.8676,26.5798],[89.8741,26.5854],[89.8664,26.5891],[89.8665,26.596],[89.87,26.6022],[89.8696,26.6139],[89.8523,26.5995],[89.8498,26.5934],[89.8371,26.5752],[89.8471,26.5667],[89.8492,26.5617],[89.8443,26.5587],[89.8242,26.5496],[89.8214,26.5421],[89.827,26.5311],[89.8221,26.5191],[89.8277,26.5041],[89.8287,26.4969],[89.8408,26.4955],[89.8532,26.5064],[89.8536,26.5122],[89.8508,26.5173],[89.852,26.5227],[89.8595,26.5326],[89.8571,26.542],[89.8624,26.5548],[89.8576,26.5759],[89.8676,26.5798]]],[[[89.7399,26.6765],[89.7443,26.6772],[89.7425,26.6813],[89.7289,26.6813],[89.7286,26.6713],[89.7215,26.6688],[89.7172,26.6624],[89.6983,26.6632],[89.6926,26.6584],[89.6967,26.6532],[89.6975,26.645],[89.7037,26.6421],[89.7125,26.6422],[89.7243,26.6583],[89.7434,26.6582],[89.734,26.6718],[89.7347,26.6765],[89.7399,26.6765]]],[[[89.4132,26.7711],[89.4102,26.772],[89.4126,26.7906],[89.4179,26.8046],[89.4242,26.8153],[89.4361,26.8254],[89.4504,26.8308],[89.4395,26.8403],[89.4277,26.8327],[89.398,26.8172],[89.3874,26.8108],[89.3838,26.8057],[89.3857,26.7985],[89.3817,26.7785],[89.3887,26.7583],[89.3912,26.7459],[89.3883,26.7354],[89.3889,26.7298],[89.3965,26.7215],[89.3982,26.7143],[89.3921,26.7103],[89.3916,26.706],[89.3963,26.6962],[89.3954,26.69],[89.3999,26.6773],[89.4055,26.6739],[89.4172,26.6754],[89.4136,26.6886],[89.4102,26.6934],[89.414,26.6959],[89.4134,26.7093],[89.4148,26.7204],[89.4125,26.7342],[89.4181,26.7476],[89.4265,26.7477],[89.4305,26.7504],[89.4403,26.771],[89.4457,26.7731],[89.4549,26.7723],[89.4825,26.7607],[89.4838,26.7551],[89.5244,26.7309],[89.5511,26.7159],[89.5635,26.7097],[89.587,26.7058],[89.6398,26.6958],[89.6597,26.6891],[89.6661,26.6841],[89.6735,26.6875],[89.6802,26.6874],[89.689,26.681],[89.6961,26.6945],[89.7111,26.7031],[89.7238,26.7028],[89.7268,26.6954],[89.734,26.6946],[89.7422,26.6989],[89.7497,26.6979],[89.7504,26.6916],[89.7492,26.6773],[89.7537,26.6697],[89.7523,26.658],[89.76,26.6491],[89.7726,26.6258],[89.7706,26.615],[89.7734,26.6085],[89.7717,26.6052],[89.7512,26.6047],[89.7467,26.6036],[89.7325,26.5893],[89.727,26.586],[89.7238,26.608],[89.7183,26.6095],[89.7145,26.5978],[89.7162,26.5895],[89.7129,26.5791],[89.7179,26.5726],[89.7157,26.5604],[89.7187,26.5535],[89.7165,26.5482],[89.7195,26.5425],[89.7177,26.5393],[89.7206,26.5326],[89.7315,26.5299],[89.7257,26.5249],[89.7248,26.5148],[89.7208,26.5122],[89.7123,26.5127],[89.7089,26.5103],[89.7087,26.5024],[89.7148,26.5013],[89.7461,26.5012],[89.7493,26.5027],[89.7486,26.5167],[89.7593,26.5273],[89.7647,26.5408],[89.7689,26.544],[89.7703,26.5546],[89.7749,26.5613],[89.7775,26.5727],[89.7904,26.5734],[89.7902,26.584],[89.7918,26.5925],[89.7921,26.6068],[89.7977,26.6117],[89.796,26.6197],[89.8012,26.6289],[89.8012,26.635],[89.7922,26.6522],[89.792,26.6585],[89.7965,26.6755],[89.8047,26.6805],[89.8161,26.6805],[89.8477,26.6776],[89.8529,26.6746],[89.8572,26.6638],[89.8614,26.66],[89.8616,26.6713],[89.8634,26.6812],[89.8519,26.6971],[89.8629,26.7008],[89.8606,26.7019],[89.8256,26.7086],[89.8066,26.7106],[89.7714,26.701],[89.7667,26.7041],[89.7616,26.7141],[89.7548,26.7175],[89.7587,26.7288],[89.7528,26.7353],[89.7447,26.7288],[89.7392,26.7293],[89.7235,26.7226],[89.7179,26.7298],[89.7077,26.7312],[89.7003,26.7373],[89.6899,26.7331],[89.6751,26.74],[89.6702,26.7394],[89.6694,26.7318],[89.6597,26.7195],[89.6489,26.7177],[89.648,26.7205],[89.6351,26.725],[89.6311,26.7188],[89.6238,26.7184],[89.6231,26.7235],[89.6171,26.7281],[89.6224,26.7389],[89.6334,26.7456],[89.6435,26.7485],[89.6457,26.7528],[89.6439,26.7603],[89.6524,26.7681],[89.6507,26.776],[89.644,26.777],[89.6422,26.7804],[89.6318,26.7831],[89.6209,26.7775],[89.614,26.786],[89.6,26.7873],[89.5939,26.7921],[89.5659,26.7994],[89.5602,26.8129],[89.5517,26.8118],[89.5483,26.8093],[89.5342,26.8147],[89.5191,26.8124],[89.5132,26.8142],[89.5082,26.8122],[89.5016,26.806],[89.4946,26.8032],[89.4812,26.8017],[89.4726,26.8026],[89.4599,26.7972],[89.4524,26.7999],[89.4369,26.7983],[89.423,26.7909],[89.4155,26.7731],[89.4132,26.7711]]]]},"properties":{"id":"buxa-wls","name":"Buxa Wildlife Sanctuary","category":"wls","area_km2":251.9}}]}