{"type":"FeatureCollection","features":[{"type":"Feature","geometry":{"type":"Polygon","coordinates":[[[89.6661,26.6841],[89.6597,26.6891],[89.6398,26.6958],[89.587,26.7058],[89.5635,26.7097],[89.5511,26.7159],[89.5244,26.7309],[89.4838,26.7551],[89.4852,26.7398],[89.4861,26.7122],[89.4935,26.7086],[89.4992,26.7083],[89.5046,26.7004],[89.5059,26.686],[89.5025,26.6833],[89.5039,26.6547],[89.5072,26.6384],[89.5028,26.6338],[89.4664,26.6378],[89.454,26.6485],[89.4506,26.6591],[89.4452,26.6593],[89.4372,26.651],[89.4367,26.6388],[89.4343,26.6299],[89.4385,26.6145],[89.4453,26.6044],[89.449,26.5953],[89.4459,26.5686],[89.4402,26.5571],[89.443,26.5478],[89.448,26.5462],[89.4634,26.5462],[89.4832,26.5531],[89.5072,26.5524],[89.5214,26.5561],[89.5287,26.5554],[89.5357,26.5485],[89.5475,26.5435],[89.5674,26.5474],[89.5754,26.5512],[89.5962,26.5516],[89.6102,26.5572],[89.6146,26.5604],[89.6183,26.5679],[89.6288,26.5656],[89.6318,26.573],[89.6381,26.5816],[89.6507,26.5884],[89.6602,26.5918],[89.6628,26.5966],[89.6602,26.6055],[89.6635,26.6101],[89.6735,26.6138],[89.6743,26.6162],[89.6683,26.6319],[89.6686,26.6402],[89.6735,26.6488],[89.6769,26.6607],[89.6746,26.6691],[89.669,26.6747],[89.6661,26.6841]]]},"properties":{"id":"buxa-np","name":"Buxa National Park","category":"np","area_km2":117.1}}]}