{"type":"FeatureCollection","features":[{"type":"Feature","geometry":{"type":"Polygon","coordinates":[[[93.8905,7.1171],[93.891,7.1224],[93.8856,7.1272],[93.8852,7.1375],[93.8867,7.1393],[93.8876,7.1563],[93.8845,7.1601],[93.8858,7.167],[93.8817,7.1701],[93.88,7.1766],[93.8825,7.1797],[93.8837,7.1891],[93.8804,7.1943],[93.8826,7.2037],[93.8775,7.2045],[93.8783,7.2079],[93.8676,7.2174],[93.8596,7.2171],[93.8559,7.2147],[93.8468,7.218],[93.8427,7.2278],[93.8484,7.2335],[93.8495,7.2443],[93.8454,7.2407],[93.838,7.2425],[93.8378,7.2394],[93.8288,7.2368],[93.8212,7.2374],[93.8131,7.2319],[93.8067,7.2328],[93.8057,7.2277],[93.8099,7.2288],[93.812,7.2212],[93.8081,7.2155],[93.8135,7.2133],[93.8054,7.2121],[93.8047,7.2031],[93.7994,7.205],[93.7923,7.2132],[93.7869,7.2106],[93.7854,7.2156],[93.777,7.2117],[93.7771,7.2086],[93.7708,7.2067],[93.7649,7.2087],[93.7672,7.2131],[93.76,7.2143],[93.7516,7.2069],[93.7551,7.206],[93.7566,7.1999],[93.7547,7.1971],[93.7454,7.2002],[93.7386,7.1907],[93.733,7.1867],[93.7253,7.1842],[93.7195,7.1867],[93.7142,7.1918],[93.7067,7.1917],[93.7025,7.1884],[93.6927,7.1921],[93.6865,7.1894],[93.6842,7.1838],[93.6745,7.1763],[93.6761,7.1703],[93.6759,7.1593],[93.6788,7.1551],[93.6788,7.1484],[93.6754,7.1392],[93.6675,7.1391],[93.6638,7.1296],[93.6562,7.1267],[93.6564,7.117],[93.6589,7.1123],[93.6633,7.1119],[93.667,7.1171],[93.6748,7.1136],[93.6746,7.111],[93.6663,7.1033],[93.6613,7.1047],[93.6578,7.0988],[93.6577,7.0939],[93.6616,7.0851],[93.6673,7.0863],[93.6698,7.0796],[93.664,7.0739],[93.6628,7.0673],[93.6687,7.066],[93.6679,7.0548],[93.6647,7.043],[93.6728,7.0371],[93.6697,7.0279],[93.6738,7.0249],[93.6702,7.0193],[93.6707,7.0126],[93.6633,7.0078],[93.6656,7.0037],[93.6747,7.0043],[93.6778,7.0161],[93.6837,7.0182],[93.6907,7.0172],[93.6985,7.013],[93.7033,7.0084],[93.7067,6.9976],[93.7036,6.9939],[93.7067,6.9909],[93.7187,6.9937],[93.7241,6.9911],[93.7338,6.9784],[93.739,6.9745],[93.7448,6.994],[93.7412,6.9925],[93.7418,6.9979],[93.7448,6.9968],[93.7457,7.0028],[93.7509,7.0023],[93.7548,7.0075],[93.7612,7.0107],[93.7633,7.008],[93.7697,7.012],[93.7731,7.0171],[93.7823,7.0146],[93.7855,7.0227],[93.7869,7.0211],[93.7951,7.0239],[93.7955,7.0178],[93.8021,7.018],[93.8051,7.0292],[93.8117,7.0338],[93.8107,7.0517],[93.8129,7.0538],[93.8143,7.0674],[93.8165,7.0735],[93.8249,7.085],[93.834,7.0908],[93.8352,7.0986],[93.8472,7.1175],[93.8489,7.1183],[93.8713,7.1194],[93.8905,7.1171]]]},"properties":{"id":"campbell-bay-np","name":"Campbell Bay National Park","category":"np","area_km2":426.2}}]}