{"type":"FeatureCollection","features":[{"type":"Feature","geometry":{"type":"Polygon","coordinates":[[[77.8959,12.5405],[77.8939,12.5441],[77.8889,12.538],[77.881,12.5366],[77.881,12.5286],[77.8834,12.5192],[77.8807,12.5067],[77.8811,12.5023],[77.8768,12.4997],[77.8739,12.5036],[77.8695,12.4977],[77.867,12.4885],[77.8696,12.4861],[77.8801,12.4857],[77.8911,12.4833],[77.8933,12.4899],[77.8997,12.4931],[77.9055,12.4929],[77.9065,12.4869],[77.8981,12.4741],[77.8794,12.4686],[77.8759,12.4646],[77.8586,12.4662],[77.8558,12.4684],[77.8548,12.4598],[77.8595,12.4548],[77.8597,12.4473],[77.8651,12.4456],[77.8661,12.4365],[77.865,12.427],[77.857,12.416],[77.8501,12.4028],[77.8482,12.4058],[77.8383,12.4052],[77.8184,12.417],[77.7994,12.4179],[77.7946,12.4037],[77.7852,12.3895],[77.7677,12.3832],[77.763,12.3851],[77.7635,12.3987],[77.7584,12.405],[77.7611,12.4078],[77.7527,12.4127],[77.7476,12.4261],[77.7446,12.4248],[77.743,12.4182],[77.7308,12.4112],[77.7265,12.4166],[77.7276,12.4299],[77.7231,12.4432],[77.715,12.4414],[77.7086,12.4443],[77.7025,12.4394],[77.6949,12.437],[77.6909,12.4428],[77.6872,12.4403],[77.6827,12.4418],[77.6793,12.4473],[77.6703,12.4494],[77.6692,12.4548],[77.6608,12.4621],[77.6622,12.4738],[77.6544,12.4841],[77.6539,12.4968],[77.6479,12.4979],[77.6387,12.5103],[77.6378,12.5238],[77.6276,12.5346],[77.6222,12.5342],[77.6182,12.537],[77.6058,12.5332],[77.6036,12.5295],[77.6036,12.515],[77.6124,12.5148],[77.6162,12.5092],[77.615,12.5042],[77.6023,12.4972],[77.5918,12.4852],[77.5887,12.4857],[77.5836,12.4789],[77.5957,12.4748],[77.6073,12.4751],[77.6164,12.4828],[77.626,12.4963],[77.6294,12.4945],[77.6347,12.4868],[77.6323,12.4717],[77.6271,12.4585],[77.6289,12.4453],[77.6269,12.4411],[77.626,12.4308],[77.629,12.4251],[77.6292,12.4154],[77.6275,12.4095],[77.6321,12.4037],[77.6381,12.4007],[77.6477,12.4001],[77.6462,12.3954],[77.6519,12.3844],[77.6451,12.384],[77.6381,12.3709],[77.6408,12.3615],[77.6453,12.3601],[77.652,12.3453],[77.6509,12.3411],[77.6534,12.3321],[77.6574,12.3303],[77.659,12.3192],[77.6546,12.3192],[77.6458,12.3262],[77.6394,12.3366],[77.6335,12.3504],[77.6221,12.3643],[77.6182,12.3648],[77.6129,12.3611],[77.6075,12.3611],[77.6003,12.3577],[77.5988,12.3505],[77.5915,12.3401],[77.5785,12.3356],[77.5765,12.3294],[77.5657,12.306],[77.5579,12.3057],[77.5526,12.2979],[77.5513,12.2913],[77.5328,12.2915],[77.5273,12.279],[77.514,12.2754],[77.5084,12.276],[77.5012,12.282],[77.4932,12.2789],[77.4875,12.2805],[77.485,12.2751],[77.479,12.2713],[77.477,12.2645],[77.4781,12.2592],[77.4734,12.2556],[77.471,12.2435],[77.4784,12.2401],[77.4825,12.2302],[77.4722,12.2099],[77.4753,12.2056],[77.4857,12.2041],[77.4926,12.1973],[77.5185,12.1945],[77.5296,12.1992],[77.5351,12.1984],[77.5462,12.2047],[77.5657,12.1963],[77.5747,12.2009],[77.5825,12.1981],[77.5993,12.2003],[77.6065,12.206],[77.6125,12.2059],[77.6209,12.1999],[77.6304,12.202],[77.6353,12.1974],[77.6399,12.1964],[77.655,12.1994],[77.6652,12.1982],[77.6699,12.1953],[77.6972,12.1855],[77.7113,12.1824],[77.7219,12.1829],[77.7312,12.1801],[77.7353,12.1696],[77.7427,12.1629],[77.747,12.1549],[77.7464,12.1474],[77.7508,12.137],[77.766,12.1351],[77.7693,12.1392],[77.7747,12.1352],[77.7756,12.1242],[77.7865,12.12],[77.7939,12.1229],[77.8093,12.1241],[77.8176,12.122],[77.8305,12.1211],[77.8358,12.1252],[77.841,12.1243],[77.8419,12.1193],[77.85,12.1245],[77.862,12.1289],[77.8629,12.1332],[77.8814,12.1555],[77.8913,12.1568],[77.9037,12.1615],[77.9176,12.188],[77.9196,12.1947],[77.9277,12.1946],[77.9406,12.2037],[77.9443,12.2013],[77.9789,12.2024],[77.9868,12.1995],[77.9886,12.2012],[78.0012,12.2243],[77.9872,12.2357],[77.9829,12.2569],[77.9679,12.2661],[77.958,12.2819],[77.9619,12.2994],[77.9595,12.303],[77.9626,12.3059],[77.9576,12.3064],[77.9425,12.2991],[77.9377,12.3016],[77.9292,12.3142],[77.9241,12.3125],[77.9215,12.3201],[77.9274,12.3196],[77.9275,12.3237],[77.9328,12.3267],[77.9407,12.3234],[77.9426,12.3267],[77.9497,12.3307],[77.9502,12.3375],[77.948,12.3414],[77.9486,12.3482],[77.956,12.3543],[77.9547,12.3607],[77.9515,12.3631],[77.9502,12.3715],[77.9562,12.3684],[77.9615,12.37],[77.9615,12.3759],[77.9577,12.3771],[77.9592,12.3852],[77.9678,12.3927],[77.9703,12.4015],[77.968,12.4018],[77.9719,12.4113],[77.9653,12.422],[77.9637,12.4292],[77.947,12.444],[77.9388,12.4577],[77.9368,12.4662],[77.929,12.4776],[77.9361,12.4793],[77.943,12.4785],[77.9458,12.4852],[77.9536,12.4862],[77.9538,12.4916],[77.9461,12.4996],[77.9499,12.5081],[77.9569,12.5079],[77.9621,12.5035],[77.9682,12.5064],[77.9725,12.5151],[77.9657,12.5182],[77.9603,12.5313],[77.9541,12.5362],[77.9428,12.5382],[77.9381,12.5337],[77.9403,12.5275],[77.9375,12.5252],[77.9337,12.5316],[77.9233,12.5329],[77.9164,12.5317],[77.9069,12.5341],[77.9056,12.5379],[77.8959,12.5405]],[[77.9114,12.4523],[77.9087,12.4549],[77.913,12.4627],[77.9172,12.459],[77.9166,12.4504],[77.9114,12.4523]],[[77.8989,12.4459],[77.8962,12.4407],[77.894,12.4288],[77.8849,12.4301],[77.8816,12.4379],[77.8818,12.4496],[77.8902,12.4505],[77.8989,12.4459]],[[77.94,12.4306],[77.9437,12.4268],[77.9507,12.4281],[77.9568,12.4171],[77.9517,12.4134],[77.9435,12.4113],[77.9401,12.4085],[77.9344,12.4096],[77.9314,12.416],[77.9356,12.4187],[77.94,12.4306]],[[77.8813,12.3918],[77.886,12.3912],[77.8941,12.3846],[77.9029,12.3823],[77.9149,12.3698],[77.9143,12.3647],[77.8968,12.3489],[77.8835,12.3512],[77.8828,12.356],[77.876,12.3575],[77.8788,12.365],[77.8754,12.3666],[77.8755,12.3758],[77.8719,12.3786],[77.8811,12.3887],[77.8813,12.3918]],[[77.7549,12.3472],[77.7558,12.3397],[77.748,12.3358],[77.7423,12.336],[77.7357,12.3392],[77.7217,12.3354],[77.7117,12.3425],[77.6912,12.3387],[77.6784,12.3412],[77.676,12.3461],[77.6695,12.3483],[77.6682,12.36],[77.6764,12.3639],[77.6751,12.3696],[77.6693,12.3789],[77.6662,12.379],[77.6631,12.3973],[77.6694,12.3966],[77.6686,12.4108],[77.6585,12.4144],[77.652,12.4215],[77.6387,12.4221],[77.6359,12.4332],[77.6386,12.4384],[77.6435,12.4398],[77.6437,12.4442],[77.6367,12.4457],[77.639,12.4525],[77.6382,12.4617],[77.64,12.4708],[77.6475,12.4709],[77.6538,12.46],[77.6489,12.4502],[77.6622,12.4324],[77.6714,12.4267],[77.682,12.4165],[77.6837,12.4081],[77.6902,12.4027],[77.6949,12.3958],[77.6941,12.393],[77.7011,12.3801],[77.7049,12.3687],[77.7084,12.3678],[77.7149,12.3742],[77.7128,12.3844],[77.7087,12.3874],[77.7023,12.3847],[77.6996,12.397],[77.7044,12.3961],[77.715,12.4034],[77.717,12.3987],[77.7263,12.3926],[77.7295,12.3797],[77.7355,12.3781],[77.7298,12.371],[77.7465,12.3647],[77.7481,12.3579],[77.7549,12.3472]],[[77.8218,12.3756],[77.8151,12.3828],[77.8118,12.3833],[77.8152,12.3896],[77.8257,12.3874],[77.8218,12.3756]],[[77.8399,12.3583],[77.8417,12.3702],[77.8449,12.3688],[77.8441,12.3556],[77.8421,12.35],[77.8354,12.3538],[77.8399,12.3583]],[[77.7895,12.3229],[77.796,12.3231],[77.8034,12.3186],[77.8188,12.3229],[77.8292,12.3207],[77.8291,12.3154],[77.8248,12.3129],[77.8186,12.297],[77.815,12.2921],[77.8082,12.2993],[77.7957,12.3023],[77.7996,12.3126],[77.7947,12.3195],[77.7901,12.3183],[77.7895,12.3229]],[[77.9026,12.3081],[77.9082,12.3138],[77.91,12.3105],[77.9078,12.3024],[77.9027,12.298],[77.9,12.3033],[77.9026,12.3081]],[[77.8672,12.3],[77.863,12.2941],[77.8637,12.2876],[77.8615,12.2848],[77.8497,12.2872],[77.8497,12.2945],[77.8566,12.303],[77.8632,12.3067],[77.8672,12.3]],[[77.7807,12.279],[77.7821,12.2678],[77.7782,12.2569],[77.7722,12.2554],[77.772,12.2726],[77.7663,12.273],[77.7612,12.2662],[77.7551,12.2709],[77.7566,12.2656],[77.7622,12.2625],[77.7594,12.2598],[77.7617,12.2547],[77.7601,12.2499],[77.7683,12.2492],[77.7663,12.2442],[77.7602,12.2369],[77.7553,12.2337],[77.7525,12.2257],[77.7428,12.2127],[77.7421,12.2158],[77.7353,12.2219],[77.7335,12.2323],[77.7254,12.2435],[77.7198,12.2476],[77.7239,12.258],[77.7331,12.2575],[77.7367,12.2672],[77.7365,12.2746],[77.7446,12.2797],[77.7632,12.2802],[77.7809,12.285],[77.7807,12.279]],[[77.9371,12.2702],[77.9332,12.2757],[77.9362,12.2803],[77.9479,12.2724],[77.9415,12.2626],[77.9359,12.2621],[77.9371,12.2702]],[[77.8287,12.2786],[77.8251,12.2661],[77.819,12.2702],[77.8226,12.2817],[77.8287,12.2786]],[[77.5276,12.2342],[77.5224,12.2289],[77.5174,12.2303],[77.5174,12.2379],[77.5195,12.2429],[77.525,12.2425],[77.5301,12.2452],[77.5291,12.2592],[77.5305,12.265],[77.5367,12.2701],[77.5372,12.2811],[77.5355,12.2865],[77.5482,12.2815],[77.5589,12.2726],[77.5593,12.2635],[77.5522,12.2701],[77.546,12.2665],[77.5423,12.2598],[77.5452,12.247],[77.541,12.2378],[77.5351,12.2396],[77.5276,12.2342]],[[77.5563,12.2842],[77.5579,12.2901],[77.5613,12.291],[77.5602,12.2818],[77.5577,12.2768],[77.5563,12.2842]],[[77.5989,12.2793],[77.5925,12.2971],[77.603,12.312],[77.6085,12.3238],[77.626,12.3215],[77.6308,12.3058],[77.6303,12.2926],[77.6376,12.2856],[77.6406,12.2701],[77.6312,12.25],[77.6044,12.2596],[77.6015,12.2642],[77.5989,12.2793]],[[77.5871,12.3129],[77.5826,12.3194],[77.5887,12.3248],[77.589,12.3308],[77.5956,12.3309],[77.5948,12.3215],[77.5908,12.3137],[77.5871,12.3129]],[[77.6455,12.2943],[77.6424,12.2971],[77.6379,12.3086],[77.6428,12.3109],[77.6445,12.3057],[77.6466,12.3094],[77.6507,12.3059],[77.6515,12.2967],[77.6478,12.2875],[77.6455,12.2943]],[[77.6509,12.2767],[77.6477,12.2867],[77.6538,12.2836],[77.6575,12.2775],[77.6559,12.2688],[77.6524,12.2682],[77.6509,12.2767]]]},"properties":{"id":"cauvery-north-wls","name":"Cauvery North Wildlife Sanctuary","category":"wls","area_km2":504.3}}]}