{"type":"FeatureCollection","features":[{"type":"Feature","geometry":{"type":"Polygon","coordinates":[[[77.2783,12.3943],[77.2722,12.3944],[77.2509,12.4071],[77.2383,12.4011],[77.2408,12.3877],[77.252,12.3833],[77.2518,12.3764],[77.2485,12.3717],[77.2383,12.3797],[77.234,12.3813],[77.2404,12.3678],[77.2468,12.3626],[77.2513,12.3449],[77.2448,12.339],[77.2396,12.3434],[77.2323,12.3621],[77.2238,12.3696],[77.2236,12.3621],[77.2302,12.3525],[77.2299,12.3379],[77.2272,12.3339],[77.2202,12.3322],[77.2086,12.3426],[77.2051,12.3422],[77.1993,12.3362],[77.1903,12.3401],[77.1878,12.3437],[77.1803,12.3478],[77.1677,12.3567],[77.1669,12.3488],[77.1707,12.3336],[77.1658,12.3219],[77.1709,12.3134],[77.1767,12.3078],[77.1702,12.3077],[77.1728,12.302],[77.182,12.2939],[77.1916,12.2918],[77.1944,12.2894],[77.1929,12.279],[77.1959,12.2742],[77.205,12.2704],[77.2149,12.2727],[77.2264,12.2706],[77.2295,12.272],[77.2412,12.2932],[77.2444,12.2968],[77.248,12.2933],[77.2486,12.2683],[77.2462,12.2601],[77.2398,12.2579],[77.23,12.2587],[77.2234,12.2637],[77.2204,12.2591],[77.2266,12.2508],[77.2247,12.246],[77.2183,12.2426],[77.2174,12.233],[77.2081,12.2196],[77.2027,12.2168],[77.1977,12.2252],[77.1979,12.2406],[77.1954,12.2468],[77.1893,12.2489],[77.1838,12.2457],[77.1759,12.2337],[77.1712,12.2247],[77.1714,12.2162],[77.176,12.2107],[77.1888,12.2053],[77.1898,12.1995],[77.2049,12.189],[77.2209,12.1968],[77.2417,12.2181],[77.2508,12.2311],[77.2558,12.2409],[77.2613,12.2483],[77.2735,12.2562],[77.2785,12.2696],[77.2871,12.2761],[77.2911,12.2557],[77.3127,12.2237],[77.315,12.2159],[77.3139,12.2127],[77.3043,12.2026],[77.2967,12.1968],[77.2769,12.1943],[77.2663,12.1916],[77.2501,12.1816],[77.2392,12.1781],[77.2375,12.1717],[77.2377,12.1625],[77.2414,12.1603],[77.2577,12.1723],[77.2666,12.1729],[77.2728,12.1706],[77.2731,12.1667],[77.2662,12.1528],[77.2674,12.147],[77.2738,12.1418],[77.2825,12.1391],[77.2891,12.1434],[77.2871,12.1526],[77.2919,12.1611],[77.2904,12.1638],[77.2937,12.1703],[77.2983,12.1715],[77.2988,12.165],[77.3061,12.1598],[77.3173,12.1663],[77.3207,12.1742],[77.3273,12.1735],[77.346,12.1822],[77.364,12.1895],[77.3714,12.19],[77.379,12.1927],[77.3808,12.196],[77.3854,12.2187],[77.3905,12.2289],[77.3937,12.2305],[77.4131,12.2266],[77.4251,12.1956],[77.4208,12.1814],[77.4074,12.1662],[77.4015,12.1562],[77.3982,12.1461],[77.3939,12.1267],[77.391,12.1194],[77.3827,12.1054],[77.3803,12.0969],[77.3867,12.0935],[77.384,12.0792],[77.3792,12.0749],[77.3687,12.0713],[77.3656,12.0668],[77.37,12.057],[77.3824,12.0576],[77.3875,12.0624],[77.3936,12.065],[77.3982,12.0763],[77.4072,12.0817],[77.4117,12.0815],[77.4224,12.0885],[77.4423,12.0853],[77.4479,12.0862],[77.4518,12.0912],[77.4631,12.1126],[77.4716,12.1238],[77.4715,12.1275],[77.4632,12.1358],[77.469,12.1549],[77.474,12.1608],[77.4854,12.1607],[77.4853,12.1537],[77.4818,12.1425],[77.4893,12.1406],[77.4953,12.1353],[77.5061,12.1206],[77.5141,12.1129],[77.5221,12.1115],[77.5498,12.1236],[77.5667,12.1197],[77.5896,12.1195],[77.5919,12.1265],[77.5992,12.1374],[77.6052,12.1382],[77.6121,12.1271],[77.6182,12.1243],[77.6235,12.1272],[77.6432,12.115],[77.66,12.0977],[77.638,12.0542],[77.6289,12.0348],[77.6248,12.0178],[77.6291,12.0154],[77.6282,11.984],[77.63,11.977],[77.6378,11.9615],[77.6426,11.9564],[77.6537,11.9546],[77.6573,11.9499],[77.6689,11.9491],[77.6755,11.9519],[77.6739,11.9626],[77.6779,11.974],[77.6963,12.0158],[77.7083,12.0352],[77.7139,12.0414],[77.7266,12.0611],[77.7412,12.0692],[77.7556,12.0797],[77.7642,12.1009],[77.7677,12.1066],[77.7725,12.1083],[77.7766,12.1137],[77.7755,12.1184],[77.7681,12.1247],[77.7571,12.1304],[77.7471,12.1431],[77.747,12.1549],[77.7427,12.1629],[77.7353,12.1696],[77.7312,12.1801],[77.7219,12.1829],[77.7113,12.1824],[77.6972,12.1855],[77.6699,12.1953],[77.6652,12.1982],[77.655,12.1994],[77.6399,12.1964],[77.6353,12.1974],[77.6304,12.202],[77.6209,12.1999],[77.6125,12.2059],[77.6065,12.206],[77.5993,12.2003],[77.5825,12.1981],[77.5747,12.2009],[77.5657,12.1963],[77.5462,12.2047],[77.5351,12.1984],[77.5296,12.1992],[77.5185,12.1945],[77.4926,12.1973],[77.4857,12.2041],[77.4753,12.2056],[77.4722,12.2099],[77.4825,12.2302],[77.4784,12.2401],[77.471,12.2435],[77.4734,12.2556],[77.4781,12.2592],[77.477,12.2645],[77.479,12.2713],[77.4851,12.2753],[77.4875,12.2805],[77.4932,12.2789],[77.5004,12.2827],[77.5084,12.276],[77.514,12.2754],[77.5273,12.279],[77.5328,12.2915],[77.5513,12.2913],[77.5526,12.2979],[77.5579,12.3057],[77.5657,12.306],[77.5765,12.3294],[77.5785,12.3356],[77.5915,12.3401],[77.5988,12.3505],[77.6003,12.3577],[77.6106,12.3622],[77.6073,12.3628],[77.5957,12.3602],[77.5855,12.3523],[77.5836,12.3468],[77.5779,12.3391],[77.5749,12.3412],[77.5687,12.3327],[77.5606,12.3317],[77.5622,12.325],[77.5584,12.3143],[77.5495,12.3125],[77.5461,12.3148],[77.5481,12.3303],[77.5424,12.3384],[77.5449,12.3407],[77.5438,12.3474],[77.5279,12.347],[77.5211,12.3584],[77.507,12.3682],[77.4935,12.3855],[77.504,12.3884],[77.5078,12.3944],[77.5161,12.4011],[77.5151,12.404],[77.506,12.404],[77.5048,12.3974],[77.5018,12.4009],[77.4964,12.3973],[77.4966,12.4027],[77.489,12.4043],[77.4887,12.3968],[77.4818,12.4014],[77.4832,12.3902],[77.4889,12.3787],[77.5031,12.361],[77.5054,12.3475],[77.5033,12.3371],[77.4961,12.332],[77.49,12.3316],[77.481,12.3257],[77.4706,12.3241],[77.4543,12.332],[77.4528,12.3366],[77.4555,12.3439],[77.4529,12.3522],[77.4397,12.3691],[77.4349,12.3684],[77.4385,12.3607],[77.4469,12.353],[77.4486,12.3425],[77.4474,12.3369],[77.4354,12.3338],[77.432,12.3309],[77.4259,12.3394],[77.4038,12.3468],[77.4008,12.3492],[77.3837,12.3757],[77.3778,12.3815],[77.3737,12.3883],[77.3662,12.3927],[77.3671,12.3982],[77.3746,12.3977],[77.3723,12.4063],[77.3652,12.4059],[77.3639,12.4082],[77.3579,12.4064],[77.3501,12.4088],[77.3418,12.4072],[77.3335,12.4025],[77.3327,12.3962],[77.3258,12.3919],[77.3168,12.3916],[77.2945,12.3959],[77.2857,12.3894],[77.2783,12.3943]],[[77.2706,12.3782],[77.2679,12.3837],[77.2643,12.3848],[77.2617,12.3904],[77.2646,12.3926],[77.2739,12.3887],[77.2772,12.3899],[77.2793,12.3854],[77.277,12.3807],[77.2706,12.3782]],[[77.29,12.3657],[77.2876,12.3708],[77.2931,12.3716],[77.2947,12.3668],[77.29,12.3657]],[[77.2899,12.3532],[77.2878,12.3539],[77.2896,12.3625],[77.2957,12.3557],[77.2899,12.3532]],[[77.4044,12.3366],[77.4058,12.3384],[77.4169,12.3377],[77.4176,12.325],[77.4276,12.3126],[77.4249,12.3012],[77.4142,12.3056],[77.4129,12.3011],[77.4067,12.2999],[77.399,12.3011],[77.3945,12.2952],[77.394,12.3004],[77.3977,12.3124],[77.4018,12.3153],[77.4005,12.3197],[77.4035,12.3284],[77.3948,12.3291],[77.4007,12.3313],[77.4044,12.3366]],[[77.5197,12.3078],[77.5178,12.3116],[77.5211,12.3183],[77.5219,12.3263],[77.5286,12.3288],[77.5332,12.3279],[77.5375,12.3184],[77.5357,12.3111],[77.5275,12.3081],[77.5197,12.3078]],[[77.4374,12.3012],[77.4405,12.3036],[77.4465,12.3],[77.4468,12.2946],[77.438,12.291],[77.4382,12.2864],[77.4278,12.2893],[77.4374,12.3012]],[[77.4776,12.2874],[77.4725,12.2923],[77.4818,12.2913],[77.484,12.2866],[77.4776,12.2874]],[[77.383,12.3261],[77.3847,12.322],[77.38,12.3217],[77.383,12.3261]],[[77.187,12.3408],[77.1853,12.3366],[77.1747,12.3377],[77.1765,12.3411],[77.1819,12.3384],[77.187,12.3408]],[[77.5285,12.1639],[77.5294,12.1734],[77.5355,12.1848],[77.5405,12.1911],[77.5473,12.1926],[77.5512,12.1883],[77.5523,12.1811],[77.5505,12.1728],[77.5527,12.1671],[77.5462,12.1589],[77.5429,12.1515],[77.5285,12.1639]],[[77.7354,12.1419],[77.7256,12.1449],[77.7291,12.1493],[77.7446,12.146],[77.7452,12.1389],[77.7354,12.1419]],[[77.6926,12.0405],[77.6891,12.0463],[77.6893,12.0569],[77.6945,12.0605],[77.6999,12.0611],[77.7041,12.0586],[77.7065,12.052],[77.7131,12.0508],[77.7178,12.06],[77.7248,12.0606],[77.7196,12.0541],[77.7128,12.042],[77.7066,12.0345],[77.699,12.0214],[77.6953,12.0209],[77.6993,12.0269],[77.7026,12.0377],[77.7003,12.0406],[77.6926,12.0405]]]},"properties":{"id":"cauvery-wls","name":"Cauvery Wildlife Sanctuary","category":"wls","area_km2":1027.5}}]}