{"type":"FeatureCollection","features":[{"type":"Feature","geometry":{"type":"Polygon","coordinates":[[[77.197,30.9334],[77.2141,30.9331],[77.2195,30.9356],[77.2271,30.9441],[77.2197,30.9466],[77.2117,30.9447],[77.203,30.9389],[77.1986,30.9399],[77.2046,30.945],[77.2058,30.9531],[77.2092,30.9581],[77.2221,30.9571],[77.2251,30.9596],[77.2383,30.9603],[77.245,30.9656],[77.2427,30.97],[77.2347,30.968],[77.2278,30.9621],[77.2202,30.962],[77.2125,30.9696],[77.2123,30.9725],[77.2022,30.9746],[77.2138,30.9863],[77.2058,30.9938],[77.1985,30.9944],[77.1966,30.9904],[77.189,30.9915],[77.1988,30.9817],[77.1922,30.9792],[77.1922,30.973],[77.1835,30.9718],[77.1917,30.9669],[77.1883,30.9611],[77.1794,30.9588],[77.1675,30.9627],[77.1638,30.9591],[77.1668,30.9553],[77.162,30.9507],[77.1743,30.947],[77.1887,30.9467],[77.189,30.9438],[77.1797,30.9393],[77.1879,30.9363],[77.1972,30.9384],[77.197,30.9334]]]},"properties":{"id":"chail-wls","name":"Chail Wildlife Sanctuary","category":"wls","area_km2":16}}]}