{"type":"FeatureCollection","features":[{"type":"Feature","geometry":{"type":"Polygon","coordinates":[[[90.2826,26.322],[90.2868,26.3123],[90.2943,26.3054],[90.307,26.2999],[90.3178,26.2977],[90.32,26.2944],[90.3348,26.292],[90.3462,26.2868],[90.3507,26.2955],[90.3586,26.2938],[90.3708,26.2955],[90.3725,26.307],[90.3698,26.3114],[90.3632,26.3148],[90.3585,26.3244],[90.3592,26.3359],[90.3549,26.3406],[90.3541,26.3507],[90.351,26.3539],[90.349,26.3648],[90.3332,26.3759],[90.3339,26.3817],[90.3222,26.3758],[90.3168,26.3679],[90.3271,26.3642],[90.3213,26.3555],[90.3111,26.3468],[90.3077,26.3456],[90.2948,26.3356],[90.288,26.3356],[90.2826,26.322]]]},"properties":{"id":"chakrashila-wls","name":"Chakrashila Wildlife Sanctuary","category":"wls","area_km2":45.6}}]}