{"type":"FeatureCollection","features":[{"type":"Feature","geometry":{"type":"Polygon","coordinates":[[[77.6356,32.4864],[77.6388,32.4734],[77.6431,32.4689],[77.6441,32.461],[77.6406,32.4576],[77.6392,32.4507],[77.6347,32.4472],[77.6302,32.4379],[77.6238,32.4319],[77.6278,32.4155],[77.6249,32.4036],[77.6268,32.4023],[77.6416,32.4105],[77.6474,32.4152],[77.6524,32.4231],[77.6659,32.4272],[77.6844,32.4456],[77.6911,32.4468],[77.6971,32.4531],[77.698,32.4584],[77.6795,32.4834],[77.6769,32.4903],[77.6645,32.4923],[77.6402,32.5004],[77.6346,32.5008],[77.6306,32.4973],[77.6356,32.4864]]]},"properties":{"id":"chandartal-wls","name":"Chandartal Wildlife Sanctuary","category":"wls","area_km2":38.6}}]}