{"type":"FeatureCollection","features":[{"type":"Feature","geometry":{"type":"Polygon","coordinates":[[[85.7711,20.4026],[85.7619,20.408],[85.7521,20.4062],[85.7426,20.4089],[85.7427,20.4168],[85.7388,20.4179],[85.7324,20.4152],[85.7223,20.4196],[85.7189,20.4191],[85.7149,20.4119],[85.7067,20.41],[85.6995,20.3989],[85.691,20.4006],[85.6904,20.4096],[85.6812,20.4119],[85.6654,20.413],[85.6494,20.4116],[85.6462,20.4088],[85.641,20.396],[85.6389,20.3871],[85.628,20.3849],[85.6227,20.3742],[85.6218,20.3666],[85.6054,20.3476],[85.6025,20.3405],[85.6078,20.339],[85.6184,20.3456],[85.6245,20.3445],[85.6233,20.3367],[85.6135,20.3366],[85.6045,20.3339],[85.6025,20.3284],[85.594,20.3244],[85.5869,20.3126],[85.5931,20.308],[85.5928,20.2974],[85.5826,20.2957],[85.5756,20.2905],[85.5725,20.285],[85.5774,20.2822],[85.578,20.2768],[85.5752,20.2715],[85.5803,20.2737],[85.5862,20.2721],[85.5902,20.2761],[85.6089,20.2712],[85.6139,20.2743],[85.6147,20.2671],[85.6123,20.2578],[85.6246,20.2638],[85.6209,20.254],[85.6268,20.255],[85.6265,20.2506],[85.6347,20.2632],[85.6327,20.2664],[85.6392,20.2749],[85.6425,20.2743],[85.6442,20.2638],[85.6511,20.2582],[85.6583,20.2614],[85.6677,20.2625],[85.6692,20.2591],[85.676,20.2618],[85.6812,20.2668],[85.6781,20.2753],[85.6736,20.2762],[85.6644,20.2844],[85.6662,20.287],[85.6759,20.2838],[85.6776,20.2857],[85.678,20.2989],[85.6933,20.3159],[85.6989,20.3152],[85.704,20.3222],[85.7093,20.3252],[85.7126,20.3301],[85.7224,20.3313],[85.7316,20.3278],[85.7383,20.333],[85.7352,20.3344],[85.7391,20.3379],[85.7287,20.335],[85.7293,20.3429],[85.7236,20.3517],[85.726,20.3537],[85.7303,20.3494],[85.7329,20.3558],[85.7373,20.3521],[85.7366,20.3462],[85.74,20.3464],[85.7508,20.3572],[85.7515,20.3664],[85.7432,20.3894],[85.7462,20.393],[85.7565,20.3906],[85.761,20.3938],[85.764,20.3921],[85.769,20.395],[85.7767,20.3952],[85.7711,20.4026]]]},"properties":{"id":"chandaka-dampara-wls","name":"Chandaka Dampara Wildlife Sanctuary","category":"wls","area_km2":175.8}}]}