{"type":"FeatureCollection","features":[{"type":"Feature","geometry":{"type":"Polygon","coordinates":[[[73.6965,17.3116],[73.6876,17.3195],[73.6848,17.3189],[73.6809,17.3011],[73.6784,17.2942],[73.6847,17.2878],[73.689,17.2777],[73.6894,17.2717],[73.6966,17.2508],[73.6911,17.2387],[73.6952,17.2294],[73.6945,17.226],[73.7027,17.222],[73.709,17.2155],[73.7134,17.207],[73.7158,17.1982],[73.7104,17.1928],[73.7085,17.1854],[73.694,17.1736],[73.7084,17.1683],[73.7094,17.163],[73.7053,17.1592],[73.6877,17.1531],[73.6878,17.1484],[73.6937,17.1362],[73.7068,17.1324],[73.7139,17.1357],[73.7178,17.131],[73.7219,17.121],[73.7312,17.1188],[73.7381,17.1148],[73.7387,17.107],[73.7317,17.0943],[73.7304,17.0824],[73.7363,17.0767],[73.7434,17.0768],[73.7498,17.0715],[73.7585,17.0674],[73.7692,17.066],[73.772,17.0741],[73.7849,17.0822],[73.7887,17.0894],[73.8001,17.0869],[73.8125,17.0808],[73.812,17.0894],[73.8156,17.0928],[73.8273,17.0974],[73.8294,17.1049],[73.8366,17.1125],[73.8476,17.1124],[73.8604,17.1153],[73.866,17.1192],[73.871,17.1275],[73.8759,17.1279],[73.8826,17.1373],[73.8846,17.1545],[73.882,17.1597],[73.8812,17.1678],[73.8751,17.1771],[73.874,17.185],[73.8606,17.1968],[73.8488,17.2052],[73.8437,17.2167],[73.8348,17.2278],[73.8269,17.2297],[73.8175,17.2365],[73.8068,17.2353],[73.8014,17.2427],[73.7969,17.2458],[73.7889,17.2465],[73.7696,17.2535],[73.7595,17.2602],[73.7588,17.266],[73.7531,17.2699],[73.7503,17.2769],[73.7471,17.2903],[73.7405,17.3],[73.7314,17.3065],[73.7289,17.3104],[73.7187,17.3176],[73.711,17.3162],[73.7053,17.3127],[73.6965,17.3116]]]},"properties":{"id":"chandoli-np","name":"Chandoli National Park","category":"np","area_km2":317.7}}]}