{"type":"FeatureCollection","features":[{"type":"Feature","geometry":{"type":"Polygon","coordinates":[[[77.6381,32.4808],[77.6388,32.4734],[77.6431,32.4689],[77.6441,32.461],[77.6406,32.4576],[77.6392,32.4507],[77.6347,32.4472],[77.6308,32.4385],[77.6238,32.4319],[77.6278,32.4155],[77.6249,32.4036],[77.6268,32.4023],[77.6474,32.4152],[77.6524,32.4231],[77.6659,32.4272],[77.6784,32.4416],[77.6844,32.4456],[77.6911,32.4468],[77.6971,32.4531],[77.6964,32.4627],[77.6909,32.4677],[77.6795,32.4834],[77.6757,32.4909],[77.6645,32.4923],[77.6402,32.5004],[77.6346,32.5008],[77.6306,32.4973],[77.6381,32.4808]]]},"properties":{"id":"chandertal-wetland-ramsar","name":"Chandertal Wetland","category":"ramsar","area_km2":0.5}}]}