{"type":"FeatureCollection","features":[{"type":"Feature","geometry":{"type":"Polygon","coordinates":[[[83.0751,24.9678],[83.064,24.9653],[83.0539,24.9609],[83.047,24.9508],[83.0477,24.9426],[83.0522,24.9345],[83.0626,24.9207],[83.0736,24.9078],[83.0814,24.9034],[83.0825,24.9],[83.0898,24.8946],[83.0966,24.8858],[83.1076,24.8769],[83.1186,24.8764],[83.1267,24.8799],[83.1298,24.8856],[83.1341,24.8867],[83.1318,24.8966],[83.1388,24.8974],[83.1397,24.901],[83.1458,24.9054],[83.1562,24.9058],[83.16,24.9135],[83.1643,24.9149],[83.1692,24.9301],[83.1729,24.9324],[83.1687,24.941],[83.1687,24.9463],[83.1732,24.9508],[83.1708,24.9579],[83.1728,24.9616],[83.1682,24.9772],[83.166,24.9788],[83.1678,24.9856],[83.1547,24.9883],[83.1421,24.9834],[83.1395,24.9806],[83.1426,24.9688],[83.1329,24.9668],[83.1278,24.9685],[83.1234,24.9655],[83.1202,24.9685],[83.1234,24.98],[83.1175,24.9861],[83.1172,24.98],[83.1124,24.9747],[83.1057,24.9724],[83.0817,24.9676],[83.0751,24.9678]]]},"properties":{"id":"chandraprabha-wls","name":"Chandraprabha Wildlife Sanctuary","category":"wls","area_km2":78}}]}