{"type":"FeatureCollection","features":[{"type":"Feature","geometry":{"type":"Polygon","coordinates":[[[78.4135,34.5965],[78.4093,34.5959],[78.3655,34.5351],[78.3339,34.4936],[78.3162,34.424],[78.3179,34.4073],[78.315,34.3991],[78.3071,34.3919],[78.2941,34.3844],[78.287,34.3719],[78.2891,34.3539],[78.2925,34.339],[78.2906,34.3243],[78.2788,34.3036],[78.2757,34.2845],[78.2779,34.2652],[78.275,34.2479],[78.2663,34.2104],[78.2585,34.1823],[78.2532,34.1711],[78.2409,34.1611],[78.2223,34.1561],[78.2146,34.1428],[78.2063,34.1404],[78.154,34.1289],[77.9926,34.0709],[77.9432,34.0168],[77.9604,33.9132],[77.9569,33.871],[77.9157,33.8008],[77.8725,33.7255],[77.9398,33.6169],[78.0085,33.5475],[78.1409,33.4635],[78.2206,33.4034],[78.2769,33.3506],[78.2879,33.253],[78.2683,33.0923],[78.2714,33.0694],[78.2714,33.0377],[78.2613,33.0151],[78.2556,33.0051],[78.262,32.981],[78.2661,32.948],[78.2796,32.8976],[78.2767,32.8705],[78.2908,32.8278],[78.297,32.8046],[78.3045,32.7866],[78.3124,32.7436],[78.3152,32.7388],[78.3565,32.7575],[78.3609,32.7542],[78.3746,32.7542],[78.387,32.7568],[78.384,32.7497],[78.3873,32.7399],[78.3823,32.7291],[78.3836,32.719],[78.3869,32.7115],[78.3912,32.7095],[78.3841,32.6958],[78.3802,32.6818],[78.3796,32.6682],[78.3821,32.6572],[78.3797,32.6535],[78.3844,32.6472],[78.3873,32.6343],[78.3923,32.6258],[78.4035,32.6202],[78.3888,32.6143],[78.3875,32.6094],[78.382,32.6084],[78.3772,32.6013],[78.358,32.5899],[78.3484,32.5883],[78.342,32.579],[78.3293,32.5759],[78.3129,32.5737],[78.313,32.5598],[78.3111,32.5507],[78.3139,32.5494],[78.3083,32.5434],[78.3055,32.5372],[78.3072,32.5251],[78.3032,32.518],[78.3046,32.5129],[78.2908,32.4991],[78.2909,32.49],[78.2858,32.4819],[78.2897,32.4761],[78.2831,32.4686],[78.2873,32.4638],[78.2962,32.4624],[78.3003,32.4542],[78.3075,32.4506],[78.3097,32.4465],[78.3282,32.4437],[78.3328,32.4508],[78.3273,32.4537],[78.324,32.4599],[78.3267,32.4651],[78.3419,32.4629],[78.3472,32.4644],[78.3514,32.47],[78.3477,32.4772],[78.362,32.4824],[78.3653,32.4871],[78.3657,32.4946],[78.3633,32.4996],[78.3736,32.5043],[78.3846,32.5127],[78.392,32.5142],[78.3995,32.5244],[78.4078,32.5266],[78.4162,32.5439],[78.4277,32.5634],[78.4513,32.5776],[78.4756,32.5792],[78.5034,32.587],[78.5153,32.6041],[78.5243,32.6081],[78.5428,32.6089],[78.5655,32.6148],[78.5877,32.6046],[78.6053,32.5911],[78.6146,32.5981],[78.6293,32.6209],[78.6484,32.6439],[78.6568,32.6491],[78.6803,32.6556],[78.7087,32.6561],[78.722,32.6664],[78.7406,32.6912],[78.7507,32.6928],[78.7532,32.6841],[78.7497,32.667],[78.7433,32.655],[78.7622,32.6288],[78.7755,32.621],[78.7824,32.5958],[78.7592,32.5678],[78.7701,32.5291],[78.7748,32.5054],[78.8046,32.4558],[78.8067,32.4442],[78.8224,32.4339],[78.8394,32.4336],[78.8599,32.4102],[78.9028,32.3849],[78.9467,32.3613],[78.9588,32.344],[78.9712,32.3357],[78.9833,32.3484],[79.0035,32.3749],[79.0454,32.3874],[79.0937,32.3771],[79.0992,32.382],[79.1039,32.3966],[79.1134,32.4108],[79.1298,32.4172],[79.1352,32.4323],[79.1214,32.4581],[79.125,32.465],[79.1319,32.4698],[79.1389,32.4686],[79.1535,32.4715],[79.1821,32.4738],[79.1933,32.4842],[79.2302,32.5133],[79.2409,32.5195],[79.2598,32.5227],[79.2813,32.5477],[79.2936,32.5719],[79.3053,32.5858],[79.3119,32.5876],[79.325,32.5846],[79.3395,32.5701],[79.3624,32.5662],[79.373,32.5605],[79.379,32.5353],[79.3845,32.5228],[79.3966,32.5175],[79.4154,32.5181],[79.4132,32.5234],[79.418,32.527],[79.4178,32.5335],[79.4136,32.5381],[79.415,32.5442],[79.4095,32.5538],[79.4117,32.5611],[79.4028,32.562],[79.3994,32.5657],[79.4004,32.5741],[79.3976,32.5795],[79.4003,32.5865],[79.4005,32.5973],[79.3989,32.6039],[79.4042,32.6201],[79.4149,32.6302],[79.4165,32.6345],[79.4138,32.6397],[79.4193,32.6506],[79.4225,32.6536],[79.4247,32.6622],[79.4303,32.6689],[79.4333,32.6795],[79.4402,32.6879],[79.447,32.6905],[79.4562,32.6988],[79.4607,32.7099],[79.4413,32.7236],[79.4398,32.7278],[79.431,32.7323],[79.4147,32.737],[79.4161,32.7425],[79.4238,32.7434],[79.4168,32.7543],[79.4148,32.7629],[79.4105,32.7702],[79.4113,32.7752],[79.407,32.7855],[79.3909,32.7919],[79.3873,32.8006],[79.3765,32.8111],[79.3719,32.8189],[79.3677,32.8315],[79.361,32.8406],[79.3554,32.8423],[79.3506,32.85],[79.3419,32.8522],[79.3226,32.8699],[79.3218,32.8813],[79.3145,32.8861],[79.3056,32.8849],[79.3028,32.8922],[79.3138,32.9002],[79.3104,32.9063],[79.3022,32.9116],[79.3022,32.9208],[79.3067,32.9232],[79.3063,32.9279],[79.2946,32.9308],[79.2856,32.9361],[79.2851,32.9501],[79.2823,32.9541],[79.2762,32.9558],[79.2693,32.9628],[79.258,32.9668],[79.2436,32.962],[79.2436,32.9666],[79.2373,32.9748],[79.233,32.9748],[79.2237,32.9695],[79.22,32.9622],[79.2146,32.9617],[79.2102,32.966],[79.2031,32.9669],[79.2023,32.9792],[79.187,32.9874],[79.1813,32.9831],[79.1746,32.9866],[79.1764,32.9933],[79.1694,32.9989],[79.1681,33.0105],[79.1604,33.0151],[79.1432,33.1057],[79.1495,33.1163],[79.1498,33.1213],[79.1571,33.1284],[79.1592,33.1355],[79.1561,33.145],[79.1531,33.1607],[79.1626,33.1673],[79.1639,33.1735],[79.1563,33.1768],[79.152,33.1819],[79.1445,33.1864],[79.1435,33.1898],[79.1339,33.1946],[79.1297,33.2002],[79.1238,33.2022],[79.1074,33.1998],[79.1032,33.207],[79.0994,33.2076],[79.0837,33.2205],[79.0728,33.2232],[79.0668,33.232],[79.0675,33.2379],[79.0746,33.2403],[79.0799,33.2449],[79.0708,33.2519],[79.0591,33.2559],[79.0524,33.2618],[79.0451,33.2608],[79.0352,33.2727],[79.0335,33.2779],[79.0393,33.2863],[79.0385,33.2911],[79.0323,33.2938],[79.0378,33.3054],[79.0291,33.3078],[79.0251,33.3139],[79.0269,33.3204],[79.0203,33.3248],[79.01,33.3236],[79.0036,33.3273],[78.9956,33.3247],[78.9818,33.3267],[78.977,33.3342],[78.9625,33.3395],[78.9597,33.3476],[78.9536,33.3556],[78.9563,33.3577],[78.9506,33.364],[78.9541,33.3715],[78.9452,33.3796],[78.9401,33.38],[78.9366,33.3871],[78.9269,33.39],[78.9233,33.3945],[78.9096,33.3998],[78.9075,33.4057],[78.9022,33.4105],[78.8915,33.4142],[78.8691,33.4149],[78.8666,33.4179],[78.8582,33.4159],[78.8448,33.4199],[78.8414,33.4253],[78.8344,33.429],[78.8343,33.437],[78.8394,33.4395],[78.8304,33.4429],[78.8232,33.4562],[78.8164,33.4595],[78.8163,33.464],[78.8102,33.4754],[78.8142,33.483],[78.8037,33.4893],[78.7951,33.4985],[78.7831,33.5071],[78.7739,33.5174],[78.7701,33.5262],[78.7615,33.5287],[78.7571,33.536],[78.7556,33.5427],[78.74,33.5538],[78.733,33.5693],[78.7417,33.5779],[78.74,33.5912],[78.741,33.6008],[78.7488,33.606],[78.753,33.6116],[78.7527,33.6175],[78.7581,33.6234],[78.751,33.6278],[78.7268,33.6225],[78.7177,33.6227],[78.6967,33.6386],[78.6963,33.6454],[78.7084,33.6537],[78.7122,33.6629],[78.7246,33.665],[78.7436,33.6778],[78.7632,33.7195],[78.7658,33.7276],[78.7752,33.7379],[78.7761,33.7468],[78.7713,33.7487],[78.7633,33.7592],[78.7625,33.767],[78.7643,33.7741],[78.7542,33.7843],[78.7613,33.8125],[78.7613,33.8231],[78.7654,33.8359],[78.7641,33.8428],[78.7603,33.8458],[78.7605,33.8548],[78.7543,33.8785],[78.7513,33.8848],[78.7615,33.8895],[78.7608,33.9032],[78.7641,33.9049],[78.7623,33.9145],[78.7494,33.9147],[78.7461,33.9193],[78.7303,33.9209],[78.728,33.9238],[78.733,33.9323],[78.7359,33.9439],[78.7339,33.9553],[78.7379,33.9625],[78.7386,33.9698],[78.7418,33.977],[78.7419,33.9842],[78.7394,33.9905],[78.7423,34],[78.7365,34.0057],[78.7287,34.0085],[78.7267,34.0162],[78.7203,34.015],[78.7064,34.0177],[78.7019,34.0229],[78.7015,34.0279],[78.686,34.0234],[78.6772,34.0243],[78.669,34.032],[78.6561,34.0323],[78.6536,34.041],[78.6563,34.0441],[78.6528,34.0553],[78.67,34.0607],[78.6645,34.0721],[78.6574,34.0744],[78.6634,34.0871],[78.6697,34.0919],[78.6753,34.0901],[78.6811,34.0797],[78.6955,34.0839],[78.6923,34.0886],[78.6951,34.0919],[78.7078,34.0947],[78.715,34.0903],[78.7213,34.0913],[78.7282,34.0893],[78.7423,34.0924],[78.7469,34.0913],[78.7513,34.0986],[78.7599,34.0994],[78.7605,34.1069],[78.7703,34.1093],[78.7772,34.117],[78.7852,34.1202],[78.7864,34.1285],[78.7947,34.1378],[78.7975,34.1356],[78.8133,34.1325],[78.8261,34.1247],[78.8352,34.1286],[78.8352,34.1351],[78.8416,34.1423],[78.8537,34.1415],[78.8587,34.1453],[78.8568,34.1512],[78.8621,34.1656],[78.8717,34.1656],[78.876,34.1632],[78.8836,34.152],[78.8905,34.1479],[78.8979,34.1484],[78.9058,34.1409],[78.9092,34.1442],[78.9089,34.1498],[78.9144,34.1525],[78.9257,34.1544],[78.9257,34.1643],[78.9284,34.1669],[78.9238,34.1717],[78.9269,34.1791],[78.933,34.1869],[78.933,34.1926],[78.9364,34.1971],[78.9357,34.2039],[78.9383,34.2077],[78.9438,34.225],[78.9528,34.2277],[78.9616,34.2367],[78.9592,34.2441],[78.9635,34.2489],[78.9649,34.2668],[78.9695,34.2744],[78.9696,34.2804],[78.9732,34.2817],[78.9776,34.291],[78.9853,34.2987],[78.9805,34.3052],[78.9798,34.3151],[78.9856,34.314],[79.0035,34.3169],[79.0076,34.3146],[79.0287,34.3167],[79.0386,34.3206],[79.0454,34.3252],[79.0398,34.3336],[79.0302,34.3362],[79.0085,34.3455],[78.9979,34.3539],[78.9868,34.3548],[78.972,34.3637],[78.9636,34.3716],[78.9646,34.3858],[78.9472,34.3893],[78.9428,34.3848],[78.9297,34.3802],[78.9161,34.3884],[78.9075,34.3805],[78.9021,34.3809],[78.8852,34.3895],[78.8788,34.391],[78.8778,34.3954],[78.8694,34.4028],[78.8614,34.4049],[78.8511,34.4153],[78.8457,34.418],[78.8377,34.4167],[78.8246,34.4179],[78.8162,34.4224],[78.8114,34.4299],[78.8079,34.4298],[78.8059,34.4356],[78.7962,34.4368],[78.783,34.4427],[78.7771,34.4382],[78.764,34.4398],[78.7571,34.4481],[78.7474,34.4502],[78.7385,34.4565],[78.7387,34.4593],[78.7517,34.462],[78.757,34.4659],[78.7549,34.4741],[78.7572,34.4789],[78.7622,34.4803],[78.7494,34.4887],[78.739,34.4931],[78.7281,34.4957],[78.7153,34.5031],[78.7152,34.5158],[78.7106,34.5196],[78.7097,34.5259],[78.6844,34.5274],[78.6835,34.5302],[78.662,34.5338],[78.6584,34.5374],[78.648,34.5405],[78.6455,34.5386],[78.6341,34.5441],[78.6251,34.5379],[78.6143,34.5398],[78.6031,34.5344],[78.6038,34.5323],[78.5915,34.5282],[78.594,34.5185],[78.5876,34.5098],[78.5884,34.5071],[78.5799,34.5044],[78.5701,34.5101],[78.5636,34.5096],[78.5559,34.5213],[78.5611,34.527],[78.5566,34.5326],[78.5605,34.54],[78.5598,34.553],[78.5517,34.5623],[78.5519,34.5715],[78.5405,34.5723],[78.5317,34.5775],[78.518,34.5732],[78.5126,34.5739],[78.5027,34.5788],[78.4982,34.5841],[78.4919,34.5796],[78.4835,34.5801],[78.4778,34.5744],[78.475,34.5682],[78.4603,34.5692],[78.4527,34.5614],[78.4515,34.5522],[78.446,34.5434],[78.4355,34.5419],[78.4264,34.5607],[78.4313,34.5707],[78.4292,34.5906],[78.4209,34.5951],[78.4135,34.5965]]]},"properties":{"id":"changthang-wls","name":"Changthang Wildlife Sanctuary","category":"wls","area_km2":4000}}]}