{"type":"FeatureCollection","features":[{"type":"Feature","geometry":{"type":"Polygon","coordinates":[[[79.8215,19.7067],[79.8132,19.7022],[79.8171,19.6915],[79.8176,19.6773],[79.8038,19.6605],[79.8038,19.6585],[79.8146,19.6525],[79.8213,19.6436],[79.8209,19.6381],[79.8066,19.6235],[79.7965,19.6106],[79.7996,19.6038],[79.8104,19.5896],[79.8162,19.5897],[79.8286,19.5805],[79.8309,19.5759],[79.8267,19.5731],[79.8268,19.5691],[79.8325,19.5582],[79.844,19.5461],[79.8532,19.5458],[79.8672,19.539],[79.876,19.5417],[79.8796,19.5491],[79.8818,19.5693],[79.8824,19.5931],[79.8834,19.6053],[79.8879,19.6127],[79.8975,19.6184],[79.8996,19.6228],[79.8957,19.6284],[79.9037,19.6457],[79.8998,19.6623],[79.9028,19.6707],[79.8957,19.6852],[79.8889,19.6837],[79.8797,19.6856],[79.8758,19.6829],[79.877,19.6891],[79.8691,19.6947],[79.8684,19.7039],[79.8654,19.7097],[79.851,19.7116],[79.8345,19.7202],[79.8307,19.7146],[79.8215,19.7067]]]},"properties":{"id":"chaprala-wls","name":"Chaprala Wildlife Sanctuary","category":"wls","area_km2":134.8}}]}