{"type":"FeatureCollection","features":[{"type":"Feature","geometry":{"type":"Polygon","coordinates":[[[69.4804,23.6069],[69.4662,23.6023],[69.4457,23.5993],[69.4388,23.5997],[69.4319,23.6039],[69.4204,23.6031],[69.4122,23.6119],[69.4044,23.612],[69.3968,23.6171],[69.3898,23.6165],[69.3766,23.6101],[69.364,23.6054],[69.3563,23.6047],[69.3459,23.6149],[69.3422,23.6227],[69.339,23.6198],[69.3136,23.6158],[69.3043,23.6108],[69.2955,23.6121],[69.2853,23.6116],[69.2815,23.6154],[69.2676,23.6169],[69.2582,23.6216],[69.2493,23.6139],[69.2402,23.6093],[69.2156,23.6047],[69.2207,23.6138],[69.2139,23.6287],[69.2082,23.6258],[69.1987,23.6278],[69.2062,23.6311],[69.1894,23.6338],[69.2016,23.6088],[69.2105,23.5918],[69.2318,23.6001],[69.2605,23.5982],[69.2739,23.5947],[69.3003,23.576],[69.3143,23.5639],[69.3228,23.5535],[69.3331,23.5367],[69.3374,23.5277],[69.346,23.5237],[69.3521,23.5237],[69.3654,23.5312],[69.3712,23.5278],[69.3875,23.5279],[69.3955,23.5342],[69.3993,23.5428],[69.4108,23.5444],[69.4142,23.5472],[69.4271,23.5478],[69.4458,23.5253],[69.4491,23.5382],[69.4571,23.539],[69.4696,23.5339],[69.4708,23.5288],[69.4774,23.5219],[69.4911,23.5185],[69.5022,23.5121],[69.5032,23.5377],[69.515,23.5449],[69.5239,23.553],[69.5262,23.5513],[69.5287,23.5573],[69.5456,23.5694],[69.553,23.5704],[69.5545,23.6264],[69.5416,23.6238],[69.5308,23.6177],[69.5267,23.6125],[69.5006,23.6108],[69.5011,23.6059],[69.4804,23.6069]]]},"properties":{"id":"chhari-dhand-wetland-conservation-reserve-ramsar","name":"Chhari Dhand Wetland Conservation Reserve","category":"ramsar","area_km2":234.8}}]}