{"type":"FeatureCollection","features":[{"type":"Feature","geometry":{"type":"Polygon","coordinates":[[[85.6477,19.7412],[85.629,19.7347],[85.6275,19.7321],[85.6032,19.7255],[85.5937,19.7201],[85.5708,19.713],[85.5625,19.7075],[85.5365,19.6978],[85.5246,19.6893],[85.5069,19.6824],[85.5029,19.6921],[85.5119,19.7001],[85.5066,19.7075],[85.5093,19.7119],[85.5479,19.7293],[85.5797,19.747],[85.5848,19.7518],[85.5818,19.7547],[85.5883,19.7603],[85.5881,19.7637],[85.5654,19.7782],[85.5631,19.7866],[85.5708,19.7897],[85.5644,19.7927],[85.5654,19.7974],[85.5603,19.7978],[85.5588,19.8056],[85.5611,19.8099],[85.5691,19.815],[85.5734,19.8155],[85.5699,19.8248],[85.5778,19.8362],[85.5762,19.8431],[85.5807,19.8517],[85.5814,19.8579],[85.5779,19.8612],[85.5724,19.8591],[85.5657,19.8537],[85.5618,19.8643],[85.5667,19.8649],[85.5781,19.8763],[85.5656,19.8846],[85.5577,19.8859],[85.5521,19.8918],[85.5448,19.8955],[85.5277,19.8959],[85.5091,19.8998],[85.5035,19.8953],[85.485,19.9033],[85.4721,19.9006],[85.4659,19.9032],[85.4498,19.9021],[85.4474,19.916],[85.4418,19.9143],[85.438,19.9162],[85.4304,19.9126],[85.4206,19.9059],[85.4227,19.8971],[85.4173,19.8913],[85.4152,19.8839],[85.4086,19.8824],[85.4047,19.8718],[85.4006,19.8723],[85.3952,19.8685],[85.393,19.8614],[85.3868,19.8591],[85.3823,19.8497],[85.3786,19.8479],[85.3775,19.8429],[85.372,19.8385],[85.3597,19.8393],[85.3526,19.8329],[85.347,19.8324],[85.3407,19.8284],[85.3393,19.8222],[85.343,19.8141],[85.3282,19.8075],[85.3237,19.7972],[85.3045,19.7983],[85.2922,19.7946],[85.2879,19.7949],[85.2859,19.7913],[85.2793,19.7884],[85.2823,19.7849],[85.2748,19.7822],[85.2747,19.7864],[85.2663,19.7862],[85.2596,19.7786],[85.2585,19.767],[85.2527,19.7697],[85.2453,19.7688],[85.2425,19.7618],[85.2474,19.7569],[85.2404,19.7535],[85.2425,19.7481],[85.2325,19.7478],[85.2308,19.7507],[85.2222,19.751],[85.2117,19.7433],[85.21,19.7362],[85.2051,19.7275],[85.1974,19.7225],[85.1962,19.7177],[85.1909,19.7117],[85.1918,19.7031],[85.1956,19.6969],[85.2055,19.6921],[85.2041,19.6816],[85.1828,19.6785],[85.1794,19.6735],[85.1687,19.6687],[85.1609,19.661],[85.1673,19.6603],[85.1658,19.6518],[85.1669,19.6459],[85.1771,19.6402],[85.1806,19.6348],[85.1744,19.6345],[85.1751,19.6297],[85.1671,19.625],[85.157,19.6237],[85.1432,19.6186],[85.1397,19.6123],[85.1342,19.611],[85.1356,19.6065],[85.1312,19.6049],[85.1387,19.5964],[85.1356,19.5935],[85.1285,19.5971],[85.1241,19.5954],[85.1277,19.5892],[85.1389,19.5806],[85.1385,19.5729],[85.1479,19.5726],[85.1607,19.5661],[85.1575,19.5591],[85.1504,19.5663],[85.1389,19.5683],[85.1255,19.5658],[85.1208,19.5576],[85.1218,19.5495],[85.1135,19.5438],[85.109,19.5438],[85.102,19.5386],[85.1018,19.5311],[85.097,19.5289],[85.0949,19.5206],[85.0979,19.5117],[85.1013,19.5106],[85.0968,19.5064],[85.1017,19.5024],[85.1101,19.5022],[85.0938,19.4701],[85.0854,19.4586],[85.0837,19.4537],[85.0861,19.4473],[85.0931,19.4381],[85.1018,19.4323],[85.1075,19.4303],[85.1161,19.4229],[85.1653,19.4616],[85.2217,19.5],[85.2675,19.5336],[85.3028,19.5576],[85.3467,19.5846],[85.4154,19.6208],[85.4995,19.6571],[85.6083,19.7117],[85.6461,19.7296],[85.6678,19.7369],[85.6761,19.7422],[85.6738,19.7445],[85.6477,19.7412]]]},"properties":{"id":"chilka-lake-ramsar","name":"Chilka Lake","category":"ramsar","area_km2":1165}}]}