{"type":"FeatureCollection","features":[{"type":"Feature","geometry":{"type":"Polygon","coordinates":[[[85.2949,19.6866],[85.301,19.683],[85.3111,19.6799],[85.3158,19.669],[85.3251,19.6604],[85.3328,19.6573],[85.3431,19.6621],[85.3431,19.6682],[85.3526,19.678],[85.3495,19.6849],[85.3347,19.6863],[85.326,19.6911],[85.3242,19.6988],[85.3107,19.706],[85.3021,19.7043],[85.2932,19.6967],[85.2921,19.6928],[85.2949,19.6866]]]},"properties":{"id":"chilika-nalaban-wls","name":"Chilika (Nalaban) Wildlife Sanctuary","category":"wls","area_km2":15.5}}]}