{"type":"FeatureCollection","features":[{"type":"Feature","geometry":{"type":"Polygon","coordinates":[[[76.4183,10.4605],[76.4206,10.4541],[76.426,10.4476],[76.4376,10.444],[76.4428,10.4464],[76.4529,10.4433],[76.4606,10.4465],[76.4632,10.4449],[76.4582,10.4314],[76.4514,10.431],[76.4325,10.4354],[76.4232,10.4351],[76.4206,10.4309],[76.4269,10.4286],[76.4393,10.4277],[76.4645,10.4151],[76.4748,10.4108],[76.4933,10.4068],[76.5225,10.4032],[76.5276,10.4042],[76.5359,10.4113],[76.5386,10.4194],[76.5486,10.4255],[76.5417,10.4411],[76.5347,10.4593],[76.5274,10.4654],[76.5108,10.4731],[76.4941,10.4763],[76.4859,10.4762],[76.474,10.4807],[76.4599,10.4802],[76.4545,10.4787],[76.4472,10.4736],[76.4291,10.4701],[76.4162,10.4701],[76.4183,10.4605]]]},"properties":{"id":"chimmony-wls","name":"Chimmony Wildlife Sanctuary","category":"wls","area_km2":85}}]}