{"type":"FeatureCollection","features":[{"type":"Feature","geometry":{"type":"Polygon","coordinates":[[[77.1952,10.3546],[77.1759,10.3585],[77.1612,10.3486],[77.1511,10.3381],[77.1283,10.3262],[77.1201,10.318],[77.1093,10.3154],[77.1032,10.3154],[77.1083,10.3082],[77.1203,10.3123],[77.1224,10.3069],[77.1335,10.2946],[77.1377,10.2938],[77.1439,10.3015],[77.1508,10.3034],[77.1608,10.2979],[77.1683,10.3009],[77.169,10.2915],[77.1729,10.2847],[77.1804,10.2788],[77.1874,10.2826],[77.1906,10.2767],[77.1926,10.2674],[77.2035,10.2689],[77.209,10.2671],[77.2102,10.2564],[77.2068,10.2432],[77.2138,10.2398],[77.2208,10.2394],[77.231,10.242],[77.259,10.2303],[77.2572,10.2594],[77.2635,10.2638],[77.2508,10.2814],[77.2478,10.2823],[77.239,10.2956],[77.2348,10.3089],[77.2307,10.3098],[77.2277,10.3154],[77.228,10.3286],[77.2356,10.3399],[77.2352,10.3528],[77.2226,10.3539],[77.204,10.3542],[77.2017,10.358],[77.1952,10.3546]]]},"properties":{"id":"chinnar-wls","name":"Chinnar Wildlife Sanctuary","category":"wls","area_km2":90.4}}]}