{"type":"FeatureCollection","features":[{"type":"Feature","geometry":{"type":"MultiPolygon","coordinates":[[[[88.592,21.7976],[88.6112,21.7985],[88.6083,21.8059],[88.6033,21.8089],[88.6022,21.8146],[88.6133,21.822],[88.6125,21.8257],[88.602,21.8317],[88.5989,21.841],[88.5872,21.8475],[88.5802,21.8347],[88.5768,21.8179],[88.5782,21.8135],[88.5863,21.8015],[88.592,21.7976]]],[[[88.6144,21.8053],[88.6151,21.798],[88.6211,21.7966],[88.6314,21.791],[88.6437,21.7879],[88.6459,21.8156],[88.6489,21.8246],[88.6504,21.8369],[88.6505,21.8497],[88.6521,21.8577],[88.6494,21.8647],[88.6375,21.8673],[88.6299,21.8675],[88.6279,21.8777],[88.6213,21.8915],[88.6158,21.8941],[88.6031,21.8745],[88.5929,21.8542],[88.5948,21.8475],[88.6032,21.8435],[88.6061,21.8329],[88.6172,21.8259],[88.6171,21.821],[88.6086,21.8143],[88.6084,21.8113],[88.6144,21.8053]]],[[[88.6362,21.9211],[88.6312,21.9101],[88.6206,21.8997],[88.6262,21.8845],[88.6315,21.8783],[88.632,21.8699],[88.6391,21.8704],[88.6541,21.8686],[88.6567,21.8844],[88.666,21.902],[88.6701,21.9142],[88.6508,21.9173],[88.6385,21.9222],[88.6362,21.9211]]]]},"properties":{"id":"chintamani-kar-bird-wls","name":"Chintamani Kar Bird Wildlife Sanctuary","category":"wls","area_km2":0.1}}]}