{"type":"FeatureCollection","features":[{"type":"Feature","geometry":{"type":"Polygon","coordinates":[[[77.6051,17.5336],[77.6029,17.5358],[77.5931,17.5355],[77.5917,17.5386],[77.5832,17.531],[77.5809,17.524],[77.5721,17.525],[77.5687,17.5212],[77.5605,17.5192],[77.5619,17.527],[77.549,17.527],[77.5377,17.5129],[77.5254,17.5215],[77.5202,17.5233],[77.5164,17.5282],[77.5071,17.5344],[77.5079,17.5408],[77.5006,17.5456],[77.5004,17.5562],[77.4974,17.5577],[77.4941,17.5684],[77.4781,17.5668],[77.4618,17.5808],[77.4556,17.5823],[77.4464,17.5814],[77.4405,17.5762],[77.4407,17.571],[77.4573,17.572],[77.4593,17.5674],[77.4579,17.5589],[77.4595,17.5545],[77.4544,17.5575],[77.4511,17.55],[77.4414,17.558],[77.4411,17.5555],[77.4344,17.5564],[77.4329,17.5611],[77.4251,17.5631],[77.4266,17.5715],[77.4242,17.5732],[77.4191,17.5623],[77.4282,17.5593],[77.4326,17.5557],[77.4427,17.5539],[77.4459,17.5505],[77.4378,17.5534],[77.4335,17.5511],[77.4418,17.5382],[77.4459,17.5403],[77.4505,17.535],[77.4584,17.5388],[77.463,17.5316],[77.4719,17.5304],[77.4716,17.5272],[77.4774,17.5157],[77.4804,17.5163],[77.481,17.5103],[77.4768,17.5068],[77.4772,17.5013],[77.4813,17.5015],[77.485,17.4941],[77.4902,17.4931],[77.4921,17.4872],[77.4877,17.4831],[77.4882,17.4796],[77.482,17.4774],[77.4812,17.4734],[77.4741,17.4658],[77.4754,17.4617],[77.4705,17.462],[77.4655,17.4556],[77.473,17.4551],[77.4792,17.4507],[77.4741,17.4449],[77.4764,17.4407],[77.4867,17.4526],[77.4886,17.4517],[77.4863,17.4404],[77.4895,17.4312],[77.4942,17.4257],[77.4995,17.4251],[77.4997,17.4177],[77.5044,17.409],[77.5006,17.4023],[77.503,17.4001],[77.5094,17.4037],[77.5343,17.3994],[77.5377,17.4066],[77.5301,17.4082],[77.5142,17.4143],[77.513,17.4309],[77.5326,17.4424],[77.537,17.4437],[77.5327,17.4515],[77.5297,17.462],[77.5363,17.4731],[77.5349,17.489],[77.5388,17.4903],[77.5513,17.4894],[77.5614,17.4867],[77.581,17.4863],[77.5861,17.4889],[77.5974,17.4915],[77.5985,17.4975],[77.602,17.4993],[77.6105,17.493],[77.6095,17.4879],[77.6129,17.4861],[77.6168,17.491],[77.6261,17.4903],[77.6231,17.4994],[77.6227,17.5096],[77.6183,17.5257],[77.6051,17.5336]]]},"properties":{"id":"chincholi-wls","name":"Chincholi Wildlife Sanctuary","category":"wls","area_km2":134.9}}]}