{"type":"FeatureCollection","features":[{"type":"Feature","geometry":{"type":"Polygon","coordinates":[[[76.4672,10.7187],[76.4723,10.7257],[76.4775,10.7237],[76.4802,10.7281],[76.4844,10.7288],[76.494,10.7234],[76.494,10.7205],[76.4871,10.7147],[76.4844,10.7077],[76.4915,10.7095],[76.4931,10.7149],[76.4991,10.7184],[76.5,10.7253],[76.488,10.7312],[76.4745,10.7323],[76.4674,10.7303],[76.4638,10.7265],[76.4589,10.726],[76.4602,10.7196],[76.4672,10.7187]]]},"properties":{"id":"chulannur-peafowl-wls","name":"Chulannur Peafowl Wildlife Sanctuary","category":"wls","area_km2":3.4}}]}