{"type":"FeatureCollection","features":[{"type":"Feature","geometry":{"type":"Polygon","coordinates":[[[77.4562,30.9108],[77.4504,30.9132],[77.4456,30.9085],[77.4411,30.8961],[77.4374,30.8926],[77.4376,30.8826],[77.4351,30.8755],[77.4206,30.8702],[77.418,30.8627],[77.4179,30.8552],[77.4128,30.8417],[77.4005,30.8354],[77.3985,30.8282],[77.4101,30.8308],[77.4142,30.8271],[77.4125,30.8208],[77.4249,30.829],[77.4296,30.8268],[77.4348,30.818],[77.4482,30.8116],[77.4636,30.811],[77.4898,30.8261],[77.4909,30.8425],[77.4848,30.849],[77.4783,30.8651],[77.4825,30.8718],[77.496,30.8729],[77.5055,30.8715],[77.5104,30.8784],[77.5056,30.8873],[77.5102,30.8957],[77.5109,30.9013],[77.4996,30.9034],[77.4892,30.9085],[77.4817,30.9081],[77.4719,30.916],[77.4674,30.9158],[77.4632,30.9094],[77.4562,30.9108]]]},"properties":{"id":"churdhar-wls","name":"Churdhar Wildlife Sanctuary","category":"wls","area_km2":55.5}}]}