{"type":"FeatureCollection","features":[{"type":"Feature","geometry":{"type":"MultiPolygon","coordinates":[[[[92.7069,11.2871],[92.7061,11.2896],[92.6955,11.2848],[92.6932,11.2809],[92.6941,11.2699],[92.6972,11.2613],[92.6927,11.2562],[92.6882,11.2424],[92.6929,11.2436],[92.6944,11.252],[92.6991,11.2583],[92.7059,11.2638],[92.7051,11.2707],[92.7069,11.2871]]],[[[92.7243,11.3312],[92.7204,11.3321],[92.7181,11.3234],[92.7144,11.3209],[92.7154,11.3155],[92.7095,11.3081],[92.7001,11.3112],[92.7093,11.3018],[92.7113,11.3084],[92.7153,11.309],[92.7174,11.3163],[92.7238,11.3176],[92.7225,11.3255],[92.7243,11.3312]]]]},"properties":{"id":"cinque-island-wls","name":"Cinque Island Wildlife Sanctuary","category":"wls","area_km2":9.5}}]}