{"type":"FeatureCollection","features":[{"type":"Feature","geometry":{"type":"MultiPolygon","coordinates":[[[[77.8362,32.163],[77.8243,32.166],[77.8072,32.1746],[77.8008,32.1738],[77.7944,32.1686],[77.8022,32.1581],[77.7996,32.1525],[77.792,32.1467],[77.7782,32.1398],[77.7709,32.1288],[77.7744,32.1221],[77.7758,32.1124],[77.7713,32.101],[77.7485,32.0933],[77.7396,32.0781],[77.7411,32.0612],[77.7446,32.0527],[77.7536,32.0404],[77.774,32.0308],[77.7846,32.0287],[77.7911,32.0218],[77.7899,32.0164],[77.7785,32.0111],[77.7749,32.0077],[77.7792,32.0017],[77.7918,31.993],[77.7934,31.9871],[77.7901,31.9817],[77.782,31.9779],[77.7785,31.9714],[77.7749,31.9577],[77.7761,31.9511],[77.7868,31.9491],[77.7892,31.9296],[77.7968,31.9146],[77.8011,31.9094],[77.8165,31.9001],[77.8453,31.8924],[77.8577,31.8879],[77.8652,31.8819],[77.8574,31.8759],[77.8626,31.869],[77.8643,31.8626],[77.8581,31.8595],[77.845,31.8626],[77.8365,31.8555],[77.841,31.8482],[77.8429,31.8379],[77.8472,31.8321],[77.8438,31.8234],[77.8469,31.8129],[77.8467,31.8042],[77.85,31.7988],[77.8621,31.7936],[77.8699,31.7772],[77.8778,31.773],[77.8954,31.7596],[77.8988,31.7533],[77.9163,31.753],[77.9209,31.7501],[77.9287,31.7513],[77.933,31.7565],[77.9363,31.7715],[77.9396,31.7794],[77.9451,31.7858],[77.9518,31.7871],[77.9577,31.7842],[77.9667,31.7727],[77.9765,31.765],[77.9945,31.7662],[77.9985,31.7864],[77.9976,31.796],[77.9948,31.8048],[77.9951,31.8171],[77.9918,31.828],[77.9848,31.8409],[77.9844,31.8485],[77.9884,31.8547],[77.9964,31.8625],[78.0088,31.8774],[78.0154,31.8819],[78.0226,31.8956],[78.0237,31.9014],[78.0133,31.9069],[78.0045,31.9071],[77.9943,31.9043],[77.9848,31.9036],[77.9781,31.9057],[77.9734,31.9108],[77.9719,31.9206],[77.974,31.934],[77.9645,31.9416],[77.96,31.9479],[77.9588,31.963],[77.9532,31.9784],[77.9567,31.9942],[77.9538,31.9995],[77.9532,32.0071],[77.9469,32.0207],[77.9469,32.0315],[77.9594,32.0383],[77.9844,32.0429],[78.0031,32.043],[78.0145,32.0462],[78.0164,32.0502],[78.0159,32.0597],[78.0057,32.0694],[78.0035,32.0742],[77.9936,32.0816],[77.9692,32.11],[77.9619,32.1137],[77.9517,32.1143],[77.9363,32.1088],[77.9246,32.1074],[77.9066,32.1036],[77.8997,32.1046],[77.8949,32.1124],[77.8868,32.1143],[77.8811,32.1241],[77.8652,32.1227],[77.8597,32.1245],[77.8586,32.129],[77.8624,32.1388],[77.8469,32.1487],[77.8422,32.1547],[77.8416,32.1632],[77.8362,32.163]]],[[[78.364,32.7534],[78.3565,32.7575],[78.3305,32.7453],[78.309,32.7362],[78.3053,32.7333],[78.3112,32.728],[78.3151,32.7161],[78.3122,32.7091],[78.3014,32.7031],[78.2892,32.6993],[78.2756,32.6993],[78.253,32.691],[78.2455,32.6714],[78.2399,32.6711],[78.2293,32.6655],[78.218,32.6615],[78.2114,32.6637],[78.2003,32.6602],[78.1959,32.6668],[78.1869,32.6736],[78.1689,32.6754],[78.1608,32.673],[78.1524,32.6667],[78.143,32.6455],[78.1378,32.6387],[78.1324,32.6388],[78.1233,32.6461],[78.1156,32.6564],[78.1097,32.6586],[78.0953,32.6492],[78.0991,32.6353],[78.0986,32.63],[78.0914,32.6281],[78.0816,32.6207],[78.0752,32.621],[78.0603,32.6253],[78.0501,32.6321],[78.0487,32.6248],[78.0506,32.6121],[78.0577,32.6017],[78.0578,32.5956],[78.0519,32.5884],[78.0436,32.5851],[78.0336,32.5834],[78.0032,32.5846],[77.9987,32.583],[77.9928,32.5884],[77.9876,32.5986],[77.9772,32.5937],[77.9672,32.586],[77.9549,32.5882],[77.9276,32.5952],[77.9121,32.5952],[77.8824,32.6002],[77.8682,32.6052],[77.8539,32.6072],[77.8322,32.602],[77.817,32.5956],[77.8027,32.5948],[77.7875,32.5988],[77.7742,32.6044],[77.7609,32.6132],[77.741,32.6212],[77.7315,32.6212],[77.7291,32.6142],[77.7327,32.6042],[77.7517,32.5682],[77.7683,32.5512],[77.7683,32.5191],[77.7671,32.5071],[77.7588,32.498],[77.7228,32.4826],[77.7162,32.4738],[77.7133,32.4658],[77.7152,32.4577],[77.7276,32.4529],[77.7533,32.4497],[77.7713,32.4497],[77.796,32.4433],[77.8132,32.4417],[77.8255,32.4441],[77.8493,32.4537],[77.8635,32.4553],[77.8797,32.4521],[77.8911,32.4481],[77.9158,32.4369],[77.9301,32.4249],[77.9387,32.4088],[77.9406,32.4016],[77.9301,32.3783],[77.9301,32.3687],[77.9387,32.3534],[77.9482,32.343],[77.9567,32.3301],[77.9786,32.3108],[77.9966,32.2964],[78.0157,32.2827],[78.0242,32.269],[78.0356,32.2554],[78.0442,32.2505],[78.0651,32.2224],[78.0689,32.2144],[78.0794,32.1991],[78.0965,32.1814],[78.1307,32.1516],[78.1516,32.1282],[78.163,32.1226],[78.1754,32.1146],[78.1801,32.117],[78.1896,32.1331],[78.2011,32.1419],[78.2201,32.1484],[78.2362,32.1524],[78.2648,32.1661],[78.2752,32.1749],[78.2923,32.1975],[78.2933,32.2079],[78.2923,32.2184],[78.2961,32.2256],[78.3037,32.2345],[78.318,32.2594],[78.3246,32.2666],[78.3446,32.2739],[78.356,32.2795],[78.3589,32.2843],[78.3703,32.2923],[78.376,32.3076],[78.3902,32.3221],[78.4064,32.3285],[78.414,32.3333],[78.4178,32.3422],[78.4178,32.3598],[78.4131,32.3887],[78.4178,32.4056],[78.4273,32.4144],[78.433,32.4168],[78.4444,32.4273],[78.4444,32.4377],[78.4416,32.4457],[78.434,32.4497],[78.4226,32.4585],[78.3902,32.465],[78.3777,32.4697],[78.3757,32.4933],[78.376,32.5055],[78.3633,32.4996],[78.3657,32.4946],[78.3653,32.4871],[78.362,32.4824],[78.3477,32.4772],[78.3514,32.47],[78.3472,32.4644],[78.3419,32.4629],[78.3267,32.4651],[78.324,32.4599],[78.3273,32.4537],[78.3328,32.4508],[78.3282,32.4437],[78.3097,32.4465],[78.3075,32.4506],[78.3003,32.4542],[78.2962,32.4624],[78.2873,32.4638],[78.2831,32.4686],[78.2897,32.4761],[78.2858,32.4819],[78.2909,32.49],[78.2908,32.4991],[78.3046,32.5129],[78.3032,32.518],[78.3072,32.5251],[78.3055,32.5372],[78.3083,32.5434],[78.3139,32.5494],[78.3111,32.5507],[78.313,32.5598],[78.3129,32.5737],[78.3293,32.5759],[78.342,32.579],[78.3484,32.5883],[78.358,32.5899],[78.3772,32.6013],[78.382,32.6084],[78.3875,32.6094],[78.3888,32.6143],[78.4035,32.6202],[78.3923,32.6258],[78.3873,32.6343],[78.3844,32.6472],[78.3797,32.6535],[78.3821,32.6572],[78.3796,32.6682],[78.3802,32.6818],[78.3841,32.6958],[78.3912,32.7095],[78.3869,32.7115],[78.3836,32.719],[78.3823,32.7291],[78.3873,32.7399],[78.384,32.7497],[78.387,32.7568],[78.3746,32.7542],[78.364,32.7534]]]]},"properties":{"id":"cold-desert-br","name":"Cold Desert Biosphere Reserve","category":"br","area_km2":7770}}]}