{"type":"FeatureCollection","features":[{"type":"Feature","geometry":{"type":"Polygon","coordinates":[[[78.8525,29.6717],[78.842,29.6685],[78.8386,29.6569],[78.8273,29.6566],[78.823,29.6536],[78.8147,29.6558],[78.8049,29.6529],[78.7981,29.6535],[78.7945,29.6586],[78.7839,29.6616],[78.7834,29.6645],[78.7765,29.6638],[78.7741,29.6705],[78.7662,29.6734],[78.7607,29.6793],[78.7568,29.6795],[78.7509,29.6843],[78.7529,29.6766],[78.756,29.6742],[78.7512,29.6567],[78.74,29.6534],[78.7381,29.6469],[78.7327,29.6475],[78.733,29.6422],[78.7368,29.6436],[78.7363,29.6374],[78.7405,29.634],[78.7414,29.6261],[78.7466,29.626],[78.7501,29.6221],[78.7578,29.6191],[78.7539,29.6124],[78.7608,29.6093],[78.7656,29.6037],[78.7616,29.5936],[78.7638,29.5916],[78.7705,29.5942],[78.7762,29.5893],[78.7725,29.5835],[78.7694,29.5708],[78.7643,29.5594],[78.7551,29.5471],[78.7408,29.5375],[78.7421,29.5316],[78.7492,29.5246],[78.7555,29.5226],[78.7557,29.5115],[78.7618,29.5012],[78.759,29.4906],[78.7791,29.4762],[78.7997,29.4646],[78.8106,29.4658],[78.8206,29.4605],[78.8384,29.4577],[78.8581,29.4516],[78.8562,29.4457],[78.8503,29.4369],[78.8372,29.4288],[78.837,29.4256],[78.8579,29.4203],[78.8857,29.3966],[78.9003,29.4099],[78.9193,29.4157],[78.9184,29.4035],[78.9126,29.4012],[78.9115,29.3885],[78.9186,29.3855],[78.9307,29.385],[78.9461,29.3948],[78.9678,29.3996],[78.9741,29.3993],[78.9743,29.389],[78.9767,29.3874],[78.9959,29.3884],[79.0011,29.3917],[79.0132,29.3917],[79.0148,29.3827],[79.0127,29.3741],[79.0146,29.3652],[79.0104,29.3541],[79.0167,29.3539],[79.0412,29.3632],[79.0467,29.3663],[79.0579,29.3791],[79.0594,29.3852],[79.0492,29.3955],[79.0454,29.4053],[79.049,29.4076],[79.0787,29.3996],[79.0904,29.3995],[79.1034,29.3946],[79.1121,29.3938],[79.1268,29.3993],[79.1255,29.4136],[79.1307,29.4419],[79.1383,29.4463],[79.1502,29.4696],[79.1481,29.4798],[79.1371,29.4914],[79.1302,29.4957],[79.1115,29.5108],[79.1038,29.5226],[79.0989,29.5271],[79.0972,29.536],[79.1027,29.545],[79.108,29.5483],[79.1132,29.5561],[79.1116,29.5595],[79.0968,29.5657],[79.0932,29.5693],[79.0985,29.5824],[79.1006,29.5835],[79.1217,29.5863],[79.1253,29.5829],[79.1305,29.5855],[79.1253,29.5989],[79.1102,29.6006],[79.1043,29.605],[79.0973,29.6058],[79.0963,29.6161],[79.0928,29.6213],[79.0925,29.6283],[79.0855,29.6281],[79.078,29.6214],[79.0712,29.6262],[79.0642,29.6256],[79.0613,29.6211],[79.0665,29.6122],[79.0606,29.6035],[79.0458,29.6015],[79.0308,29.6118],[79.0274,29.6209],[79.0177,29.6223],[79.0161,29.6321],[79.007,29.6325],[78.9972,29.6304],[78.9944,29.6359],[78.9838,29.6334],[78.9673,29.6413],[78.9617,29.642],[78.9563,29.6473],[78.9508,29.6475],[78.9382,29.6531],[78.9356,29.6564],[78.919,29.6583],[78.9105,29.6631],[78.9067,29.6676],[78.8935,29.6714],[78.8902,29.6696],[78.8994,29.6557],[78.8892,29.6572],[78.865,29.6651],[78.8525,29.6717]]]},"properties":{"id":"corbett-np","name":"Corbett National Park","category":"np","area_km2":520.8}}]}