{"type":"FeatureCollection","features":[{"type":"Feature","geometry":{"type":"Polygon","coordinates":[[[82.2441,16.9048],[82.2471,16.8999],[82.2474,16.8911],[82.2447,16.8849],[82.2472,16.8763],[82.2473,16.8684],[82.2417,16.8675],[82.2408,16.8612],[82.2459,16.8521],[82.2453,16.8479],[82.2393,16.8382],[82.2349,16.8268],[82.2355,16.822],[82.2459,16.8126],[82.2521,16.8029],[82.2631,16.7907],[82.2658,16.7816],[82.2753,16.7614],[82.2893,16.7489],[82.2921,16.7446],[82.2969,16.7531],[82.3015,16.7552],[82.3055,16.7525],[82.3089,16.7455],[82.3106,16.735],[82.3026,16.7183],[82.293,16.7097],[82.2785,16.704],[82.2938,16.7026],[82.3095,16.7085],[82.3153,16.713],[82.3229,16.7247],[82.3273,16.7289],[82.3267,16.7142],[82.3312,16.7128],[82.3393,16.7161],[82.3418,16.7284],[82.3429,16.7406],[82.3414,16.7588],[82.3439,16.773],[82.3509,16.8037],[82.3496,16.815],[82.3531,16.8269],[82.3565,16.8457],[82.357,16.8578],[82.3619,16.8825],[82.3645,16.9026],[82.365,16.9217],[82.3639,16.9514],[82.3605,16.9646],[82.3505,16.981],[82.3377,16.9925],[82.3322,16.9937],[82.3247,16.9898],[82.3254,16.9845],[82.3329,16.9749],[82.3358,16.966],[82.3411,16.9595],[82.3545,16.9515],[82.3599,16.9282],[82.3607,16.905],[82.3538,16.8557],[82.3494,16.8505],[82.3361,16.8566],[82.3276,16.8552],[82.3192,16.8515],[82.3172,16.8456],[82.3142,16.8459],[82.3112,16.8548],[82.3007,16.8669],[82.2801,16.8778],[82.2718,16.8775],[82.2682,16.883],[82.2592,16.8883],[82.2557,16.9025],[82.2509,16.9086],[82.2441,16.908],[82.2441,16.9048]]]},"properties":{"id":"coringa-wls","name":"Coringa Wildlife Sanctuary","category":"wls","area_km2":235.7}}]}