{"type":"FeatureCollection","features":[{"type":"Feature","geometry":{"type":"Polygon","coordinates":[[[74.2311,15.0182],[74.2297,15.0201],[74.2318,15.0305],[74.2298,15.034],[74.2176,15.0443],[74.2115,15.0427],[74.217,15.032],[74.2145,15.0291],[74.2169,15.0235],[74.2143,15.017],[74.2101,15.0171],[74.2092,15.0069],[74.1981,14.9952],[74.1923,14.9917],[74.1838,14.994],[74.1771,14.9901],[74.1774,14.9801],[74.1743,14.9832],[74.169,14.9825],[74.1688,14.9787],[74.1615,14.9808],[74.1587,14.976],[74.1526,14.9776],[74.1481,14.9824],[74.1485,14.9859],[74.1403,14.9884],[74.1344,14.984],[74.1212,14.9811],[74.1179,14.9734],[74.1166,14.9537],[74.1301,14.9446],[74.1352,14.946],[74.1427,14.944],[74.1479,14.9397],[74.1554,14.9423],[74.1581,14.9531],[74.1636,14.9585],[74.1794,14.9571],[74.1783,14.9537],[74.1821,14.9492],[74.1912,14.9451],[74.1947,14.94],[74.1917,14.9331],[74.2015,14.9258],[74.2091,14.9381],[74.2126,14.9403],[74.2136,14.9478],[74.2175,14.946],[74.2317,14.9534],[74.2328,14.9642],[74.2374,14.9672],[74.2526,14.9592],[74.2552,14.9705],[74.259,14.9701],[74.261,14.9765],[74.2643,14.9786],[74.2582,14.9877],[74.2518,14.9936],[74.2536,14.9982],[74.2679,15.002],[74.2664,15.0069],[74.2775,15.0186],[74.2717,15.0233],[74.2636,15.0211],[74.2518,15.024],[74.2351,15.0163],[74.2311,15.0182]]]},"properties":{"id":"cotigaon-wls","name":"Cotigaon Wildlife Sanctuary","category":"wls","area_km2":85.7}}]}