{"type":"FeatureCollection","features":[{"type":"Feature","geometry":{"type":"Polygon","coordinates":[[[95.4736,27.9417],[95.4739,27.9609],[95.4726,27.9954],[95.4661,28.0019],[95.4593,28.0148],[95.4581,28.051],[95.4422,28.067],[95.4273,28.0725],[95.408,28.0753],[95.3844,28.0721],[95.3844,28.0565],[95.3862,28.0221],[95.3805,28.0128],[95.3809,28.0041],[95.3862,27.9953],[95.3865,27.989],[95.383,27.9525],[95.3883,27.9453],[95.3881,27.9219],[95.378,27.8398],[95.3796,27.8392],[95.4852,27.8714],[95.4725,27.9096],[95.4768,27.9222],[95.4736,27.9417]]]},"properties":{"id":"d-ering-memorial-lali-wls","name":"D' Ering Memorial (Lali) Wildlife Sanctuary","category":"wls","area_km2":190}}]}