{"type":"FeatureCollection","features":[{"type":"Feature","geometry":{"type":"Polygon","coordinates":[[[75.1413,34.1281],[75.1308,34.1434],[75.112,34.1527],[75.0922,34.1533],[75.0856,34.1557],[75.0747,34.1653],[75.0716,34.172],[75.0643,34.1787],[75.0569,34.1827],[75.0515,34.1807],[75.0476,34.1832],[75.041,34.1794],[75.0265,34.1764],[75.0195,34.1725],[75.0064,34.1599],[74.9925,34.156],[74.9647,34.1527],[74.9628,34.1518],[74.9475,34.1568],[74.9346,34.1557],[74.9241,34.1505],[74.9125,34.1583],[74.9046,34.1571],[74.9027,34.1398],[74.9077,34.13],[74.9102,34.1189],[74.9148,34.1112],[74.9215,34.1104],[74.932,34.0953],[74.9344,34.0939],[74.9552,34.0941],[74.9605,34.0918],[74.97,34.0925],[74.9768,34.0951],[74.9808,34.0994],[74.9873,34.0977],[75.0011,34.097],[75.0037,34.0932],[75.0125,34.0896],[75.0172,34.0853],[75.0342,34.0848],[75.0383,34.0938],[75.0448,34.0948],[75.0523,34.1003],[75.0646,34.1054],[75.0866,34.1008],[75.0924,34.1012],[75.0994,34.0963],[75.1108,34.0966],[75.1257,34.1033],[75.1408,34.106],[75.1419,34.1175],[75.1451,34.1207],[75.1413,34.1281]]]},"properties":{"id":"dachigam-np","name":"Dachigam National Park","category":"np","area_km2":141}}]}