{"type":"FeatureCollection","features":[{"type":"Feature","geometry":{"type":"Polygon","coordinates":[[[73.0992,20.2398],[73.1057,20.2453],[73.1073,20.2506],[73.1141,20.2589],[73.1253,20.2616],[73.1281,20.2664],[73.1238,20.2731],[73.1194,20.2725],[73.1177,20.2766],[73.1086,20.2783],[73.1045,20.2826],[73.1122,20.2848],[73.1149,20.2892],[73.107,20.2914],[73.1111,20.2967],[73.1092,20.3047],[73.0996,20.3013],[73.0998,20.3136],[73.0957,20.3161],[73.0898,20.3155],[73.0894,20.3212],[73.0654,20.3267],[73.0697,20.3198],[73.0833,20.3113],[73.0852,20.3032],[73.0896,20.3017],[73.0942,20.3042],[73.098,20.2958],[73.0915,20.2894],[73.0929,20.2844],[73.087,20.2816],[73.0883,20.2757],[73.0954,20.2673],[73.1032,20.267],[73.1051,20.2626],[73.0962,20.2587],[73.0845,20.2588],[73.0815,20.2517],[73.0765,20.246],[73.068,20.2459],[73.0654,20.2366],[73.067,20.2291],[73.0706,20.2321],[73.0826,20.2309],[73.0895,20.2268],[73.0979,20.2293],[73.0975,20.2387],[73.0992,20.2398]]]},"properties":{"id":"dadra-nagar-haveli-wls","name":"Dadra & Nagar Haveli Wildlife Sanctuary","category":"wls","area_km2":92.2}}]}