{"type":"FeatureCollection","features":[{"type":"Feature","geometry":{"type":"MultiPolygon","coordinates":[[[[86.1395,22.8761],[86.1322,22.8782],[86.1385,22.8676],[86.1571,22.864],[86.18,22.8575],[86.1912,22.8567],[86.2033,22.854],[86.2262,22.8458],[86.2387,22.8424],[86.2594,22.8333],[86.2828,22.8263],[86.2826,22.8299],[86.3031,22.819],[86.303,22.8447],[86.2916,22.8443],[86.2901,22.8415],[86.2778,22.8415],[86.2763,22.8401],[86.2599,22.8464],[86.2388,22.852],[86.2168,22.8607],[86.1998,22.8629],[86.1882,22.8667],[86.1724,22.8676],[86.1674,22.8714],[86.1561,22.8713],[86.1483,22.8755],[86.1395,22.8761]]],[[[86.2484,22.9406],[86.2423,22.9594],[86.2337,22.9624],[86.2293,22.9558],[86.2237,22.9548],[86.2162,22.9478],[86.2205,22.9352],[86.2088,22.9316],[86.1965,22.9303],[86.1941,22.9283],[86.1846,22.9332],[86.1797,22.9321],[86.1758,22.9262],[86.1799,22.9206],[86.1694,22.92],[86.1707,22.9247],[86.1688,22.9332],[86.1574,22.9365],[86.1438,22.9342],[86.1384,22.9352],[86.1287,22.945],[86.1179,22.9468],[86.1137,22.9499],[86.0956,22.9507],[86.0859,22.9527],[86.0746,22.9525],[86.0565,22.9487],[86.0521,22.9458],[86.0545,22.9433],[86.0639,22.9434],[86.0661,22.9455],[86.0859,22.9464],[86.0891,22.9441],[86.0982,22.9427],[86.0981,22.939],[86.0897,22.9391],[86.0911,22.9415],[86.066,22.9406],[86.0582,22.939],[86.0603,22.9343],[86.0686,22.9313],[86.083,22.9309],[86.0897,22.929],[86.0954,22.9302],[86.1009,22.9247],[86.108,22.9279],[86.114,22.9257],[86.1253,22.9259],[86.1279,22.9229],[86.1519,22.9167],[86.1599,22.918],[86.1572,22.9138],[86.1612,22.911],[86.1517,22.9105],[86.1393,22.9126],[86.1273,22.913],[86.1181,22.91],[86.1331,22.9022],[86.1441,22.8885],[86.1619,22.8843],[86.183,22.883],[86.188,22.8794],[86.193,22.8791],[86.2047,22.8713],[86.2229,22.8695],[86.2499,22.8718],[86.2638,22.8797],[86.2572,22.8823],[86.2534,22.8796],[86.2513,22.888],[86.2617,22.8945],[86.275,22.8883],[86.2733,22.8843],[86.2765,22.8783],[86.2886,22.8798],[86.2921,22.8819],[86.2891,22.8866],[86.2767,22.8954],[86.2693,22.9055],[86.2737,22.9089],[86.281,22.8968],[86.2871,22.8947],[86.302,22.8941],[86.3125,22.8919],[86.3146,22.8968],[86.3206,22.8964],[86.3215,22.908],[86.3189,22.9107],[86.3112,22.9052],[86.3127,22.899],[86.3086,22.9023],[86.3011,22.9007],[86.2954,22.9038],[86.3028,22.9039],[86.3115,22.9117],[86.3177,22.9142],[86.3083,22.9203],[86.2981,22.9215],[86.2972,22.9173],[86.2885,22.9199],[86.2844,22.927],[86.2747,22.9304],[86.2739,22.935],[86.2654,22.9353],[86.265,22.931],[86.2701,22.9221],[86.2679,22.918],[86.2626,22.9238],[86.2559,22.9275],[86.2579,22.9365],[86.2554,22.9405],[86.2484,22.9406]],[[86.1946,22.9237],[86.1974,22.927],[86.2072,22.921],[86.2029,22.9191],[86.2041,22.914],[86.1917,22.9188],[86.1946,22.9237]],[[86.2407,22.9098],[86.2453,22.9047],[86.2379,22.9061],[86.2407,22.9098]]]]},"properties":{"id":"dalma-wls","name":"Dalma Wildlife Sanctuary","category":"wls","area_km2":193.2}}]}