{"type":"FeatureCollection","features":[{"type":"Feature","geometry":{"type":"Polygon","coordinates":[[[92.3315,23.7088],[92.329,23.6999],[92.3242,23.6967],[92.3184,23.685],[92.3106,23.6804],[92.3022,23.6781],[92.2892,23.6803],[92.2847,23.6677],[92.276,23.6515],[92.273,23.6417],[92.2818,23.6386],[92.2766,23.6317],[92.2789,23.6248],[92.2808,23.6305],[92.2885,23.6289],[92.296,23.6211],[92.2873,23.6167],[92.2882,23.6074],[92.2873,23.596],[92.289,23.5981],[92.2965,23.588],[92.298,23.5922],[92.3021,23.5919],[92.304,23.5829],[92.3082,23.5777],[92.3051,23.5734],[92.309,23.5714],[92.3071,23.5635],[92.3135,23.5559],[92.3087,23.5496],[92.3107,23.5471],[92.3063,23.535],[92.314,23.5333],[92.3175,23.5244],[92.3131,23.5201],[92.3198,23.5124],[92.3192,23.5002],[92.3219,23.4918],[92.3161,23.4868],[92.3218,23.4829],[92.3225,23.4782],[92.3171,23.4717],[92.3321,23.4645],[92.3307,23.4594],[92.3259,23.4596],[92.3296,23.4542],[92.3293,23.4499],[92.3353,23.4286],[92.3424,23.4356],[92.3467,23.4326],[92.3483,23.419],[92.3477,23.4131],[92.3574,23.4107],[92.3558,23.401],[92.353,23.4054],[92.3545,23.3891],[92.36,23.3943],[92.3653,23.4066],[92.3773,23.4164],[92.3795,23.4208],[92.395,23.4348],[92.4012,23.4357],[92.405,23.432],[92.4124,23.4327],[92.4166,23.4372],[92.4187,23.453],[92.4209,23.4572],[92.4192,23.4667],[92.4195,23.4748],[92.417,23.4855],[92.4193,23.4944],[92.4175,23.4967],[92.4206,23.5207],[92.4179,23.5257],[92.4169,23.5339],[92.4222,23.5402],[92.4259,23.5481],[92.4267,23.5564],[92.4365,23.58],[92.4405,23.5813],[92.4579,23.5814],[92.4619,23.5937],[92.4604,23.6005],[92.4624,23.6085],[92.4606,23.6195],[92.4634,23.6302],[92.4799,23.6447],[92.4782,23.6588],[92.4824,23.666],[92.4801,23.6799],[92.4738,23.6901],[92.467,23.6926],[92.4528,23.6952],[92.4603,23.685],[92.4511,23.6888],[92.4522,23.6917],[92.4479,23.7013],[92.4347,23.704],[92.4272,23.7086],[92.4123,23.7143],[92.4079,23.709],[92.3982,23.7119],[92.3933,23.7091],[92.3823,23.7157],[92.3673,23.7142],[92.3662,23.725],[92.3606,23.7249],[92.3561,23.7284],[92.3515,23.7374],[92.345,23.7395],[92.337,23.7372],[92.334,23.7324],[92.3336,23.7248],[92.3309,23.7184],[92.3315,23.7088]]]},"properties":{"id":"dampa-tr","name":"Dampa Tiger Reserve","category":"tr","area_km2":545}}]}