{"type":"FeatureCollection","features":[{"type":"Feature","geometry":{"type":"Polygon","coordinates":[[[74.5153,15.0243],[74.5274,15.024],[74.5309,15.0293],[74.5375,15.0321],[74.5404,15.0248],[74.5398,15.0202],[74.5431,15.0174],[74.5522,14.9951],[74.5571,14.9921],[74.5549,14.987],[74.56,14.9854],[74.5609,14.9794],[74.5662,14.9779],[74.5683,14.9737],[74.5771,14.9735],[74.5799,14.9779],[74.5874,14.9798],[74.5991,14.9853],[74.6029,14.9908],[74.6066,15.0016],[74.6162,15.0142],[74.6226,15.0196],[74.6236,15.0279],[74.63,15.0302],[74.6309,15.0254],[74.6354,15.0257],[74.6418,15.0313],[74.6503,15.0321],[74.6565,15.0359],[74.6534,15.0404],[74.6545,15.0504],[74.6622,15.0573],[74.6814,15.0685],[74.6864,15.0778],[74.6942,15.0844],[74.703,15.1049],[74.7129,15.086],[74.7189,15.0806],[74.7258,15.0846],[74.73,15.0834],[74.7324,15.089],[74.7317,15.0945],[74.7278,15.0968],[74.7301,15.1124],[74.7273,15.1243],[74.7221,15.1306],[74.716,15.1458],[74.7184,15.1499],[74.7143,15.153],[74.7131,15.1582],[74.7084,15.1601],[74.7036,15.1583],[74.687,15.1585],[74.6749,15.1668],[74.6671,15.1663],[74.6591,15.1679],[74.6417,15.1652],[74.6296,15.1664],[74.6095,15.1551],[74.6011,15.1525],[74.5914,15.1545],[74.5787,15.1605],[74.57,15.1707],[74.5689,15.1765],[74.5612,15.1837],[74.5581,15.184],[74.5575,15.1782],[74.5598,15.167],[74.5511,15.1586],[74.5378,15.154],[74.528,15.1541],[74.5231,15.1498],[74.5171,15.1514],[74.4989,15.149],[74.4953,15.1371],[74.5047,15.133],[74.5103,15.124],[74.5034,15.1122],[74.5036,15.1023],[74.5057,15.0928],[74.5124,15.0837],[74.5136,15.0792],[74.5019,15.0738],[74.5022,15.0669],[74.5064,15.0464],[74.5105,15.0312],[74.5153,15.0243]]]},"properties":{"id":"dandeli-wls","name":"Dandeli Wildlife Sanctuary","category":"wls","area_km2":886.4}}]}