{"type":"FeatureCollection","features":[{"type":"Feature","geometry":{"type":"Polygon","coordinates":[[[77.8389,31.3429],[77.8422,31.3464],[77.8361,31.3518],[77.8248,31.3525],[77.8186,31.3645],[77.8186,31.3687],[77.8456,31.3626],[77.8631,31.3679],[77.8743,31.3724],[77.9179,31.3756],[77.9467,31.3855],[77.9557,31.3968],[77.9616,31.4015],[77.9621,31.4103],[77.9579,31.4179],[77.9507,31.4228],[77.915,31.432],[77.9097,31.4397],[77.9026,31.4429],[77.8975,31.4481],[77.8973,31.4539],[77.8934,31.4587],[77.884,31.4651],[77.8796,31.4716],[77.8811,31.4836],[77.8783,31.4921],[77.8638,31.5063],[77.856,31.5084],[77.8431,31.5076],[77.8364,31.5047],[77.8306,31.499],[77.8203,31.4925],[77.8233,31.4897],[77.8255,31.4727],[77.843,31.4788],[77.8488,31.4749],[77.8389,31.4628],[77.8079,31.4645],[77.803,31.463],[77.8062,31.459],[77.8148,31.4539],[77.8161,31.4492],[77.8129,31.4471],[77.8068,31.4514],[77.7933,31.4468],[77.7817,31.4481],[77.7597,31.4474],[77.7564,31.4451],[77.7546,31.4343],[77.7436,31.425],[77.7478,31.4241],[77.7592,31.428],[77.7731,31.4296],[77.7735,31.4218],[77.7655,31.4088],[77.7688,31.4046],[77.7758,31.4108],[77.7946,31.4166],[77.8102,31.4226],[77.8344,31.425],[77.8446,31.4226],[77.8454,31.4143],[77.8358,31.4031],[77.8274,31.4019],[77.8085,31.4028],[77.7978,31.3991],[77.7876,31.3996],[77.7823,31.3976],[77.7691,31.3983],[77.7623,31.3952],[77.7642,31.3877],[77.7838,31.3816],[77.7999,31.3731],[77.803,31.3665],[77.8024,31.3605],[77.7933,31.3559],[77.7796,31.3621],[77.772,31.3609],[77.7676,31.3557],[77.7642,31.345],[77.7596,31.3392],[77.7582,31.3294],[77.7638,31.3273],[77.7739,31.327],[77.8195,31.3358],[77.8389,31.3429]]]},"properties":{"id":"daranghati-wls","name":"Daranghati Wildlife Sanctuary","category":"wls","area_km2":171.5}}]}