{"type":"FeatureCollection","features":[{"type":"Feature","geometry":{"type":"Polygon","coordinates":[[[76.8863,31.1925],[76.9052,31.2001],[76.9114,31.2047],[76.917,31.1989],[76.9188,31.1937],[76.9256,31.202],[76.9172,31.2081],[76.9131,31.2051],[76.9097,31.215],[76.9053,31.2152],[76.9076,31.2052],[76.9001,31.2017],[76.8944,31.2029],[76.8914,31.2001],[76.8852,31.2043],[76.8805,31.2002],[76.8656,31.1991],[76.8533,31.1931],[76.8533,31.1896],[76.8673,31.1858],[76.8749,31.185],[76.8863,31.1925]]]},"properties":{"id":"darlaghat-wls","name":"Darlaghat Wildlife Sanctuary","category":"wls","area_km2":6}}]}