{"type":"FeatureCollection","features":[{"type":"Feature","geometry":{"type":"MultiPolygon","coordinates":[[[[76.5758,15.2913],[76.5715,15.2919],[76.5661,15.2849],[76.5559,15.2873],[76.5523,15.2853],[76.5464,15.2776],[76.5454,15.271],[76.5404,15.2705],[76.5363,15.2759],[76.5317,15.2717],[76.5318,15.2676],[76.5227,15.2569],[76.5202,15.249],[76.5295,15.2465],[76.5464,15.2443],[76.5498,15.2455],[76.5546,15.2414],[76.5597,15.2446],[76.5633,15.2426],[76.5729,15.2482],[76.5741,15.2541],[76.5813,15.2539],[76.5794,15.2492],[76.5715,15.2432],[76.5715,15.2398],[76.5784,15.2365],[76.5848,15.2383],[76.5847,15.2348],[76.591,15.2314],[76.598,15.2326],[76.5951,15.2407],[76.5959,15.2453],[76.6011,15.2479],[76.611,15.2487],[76.6169,15.2453],[76.6182,15.238],[76.6252,15.2375],[76.6245,15.2336],[76.6289,15.231],[76.6383,15.2349],[76.6444,15.2418],[76.6395,15.2534],[76.6323,15.2519],[76.6339,15.2574],[76.6428,15.2556],[76.6471,15.2509],[76.6524,15.2492],[76.6636,15.2528],[76.6649,15.256],[76.6612,15.2694],[76.654,15.2746],[76.6498,15.2736],[76.6441,15.2783],[76.6378,15.2743],[76.6273,15.2835],[76.6195,15.2825],[76.617,15.2856],[76.6069,15.2823],[76.6044,15.2771],[76.6042,15.2701],[76.5978,15.2647],[76.5919,15.2643],[76.5932,15.2701],[76.5981,15.2732],[76.5986,15.279],[76.6043,15.2841],[76.586,15.2874],[76.5836,15.2902],[76.5758,15.2913]]],[[[76.539,15.3657],[76.5389,15.372],[76.5338,15.3679],[76.5352,15.3605],[76.5481,15.3535],[76.5485,15.3511],[76.5387,15.355],[76.5367,15.3488],[76.5308,15.3482],[76.5265,15.3371],[76.534,15.339],[76.5445,15.3475],[76.5465,15.346],[76.5404,15.3424],[76.5252,15.3297],[76.5332,15.3264],[76.5276,15.3256],[76.5203,15.3302],[76.511,15.3273],[76.508,15.3175],[76.5137,15.3076],[76.5387,15.3035],[76.5383,15.3008],[76.5479,15.2993],[76.5525,15.3059],[76.5633,15.3085],[76.5695,15.303],[76.581,15.3012],[76.5933,15.3007],[76.5932,15.3025],[76.6069,15.3016],[76.6064,15.309],[76.6145,15.3028],[76.6198,15.3032],[76.6171,15.3158],[76.5977,15.3105],[76.5884,15.3163],[76.5937,15.3218],[76.5937,15.3256],[76.5823,15.3348],[76.5861,15.3425],[76.5897,15.344],[76.5865,15.3492],[76.5805,15.3428],[76.5727,15.3472],[76.5629,15.3469],[76.5675,15.3498],[76.5646,15.3588],[76.5698,15.361],[76.5677,15.3656],[76.5607,15.3685],[76.5558,15.3667],[76.545,15.3703],[76.545,15.3639],[76.539,15.3657]]]]},"properties":{"id":"daroji-bear-wls","name":"Daroji Bear Wildlife Sanctuary","category":"wls","area_km2":82.7}}]}