{"type":"FeatureCollection","features":[{"type":"Feature","geometry":{"type":"Polygon","coordinates":[[[75.6286,24.9665],[75.6286,24.9623],[75.622,24.9545],[75.6059,24.9541],[75.602,24.9459],[75.6078,24.9402],[75.6175,24.9363],[75.623,24.9321],[75.6313,24.9314],[75.6351,24.9249],[75.6452,24.9241],[75.6614,24.9186],[75.6667,24.919],[75.6828,24.9266],[75.6869,24.9261],[75.6973,24.9153],[75.7248,24.8997],[75.7441,24.8825],[75.761,24.8734],[75.7816,24.8717],[75.7962,24.867],[75.8095,24.8657],[75.8143,24.8585],[75.83,24.8552],[75.8393,24.8519],[75.8528,24.8534],[75.8676,24.859],[75.8777,24.857],[75.9158,24.8354],[75.931,24.8305],[75.9349,24.8261],[75.9443,24.8238],[75.9533,24.8139],[75.9705,24.8018],[75.9738,24.7964],[75.9766,24.7866],[75.983,24.7825],[75.9842,24.8057],[75.9831,24.8129],[75.9878,24.8169],[75.9989,24.8134],[76.0026,24.8206],[76.0109,24.8231],[76.0004,24.8253],[75.9899,24.8252],[75.9777,24.8291],[75.9629,24.8403],[75.9562,24.8502],[75.9465,24.8578],[75.9209,24.8653],[75.9126,24.8663],[75.9056,24.8698],[75.8834,24.889],[75.8801,24.8974],[75.8825,24.9039],[75.8732,24.9017],[75.8711,24.9039],[75.8765,24.9115],[75.8745,24.9138],[75.8657,24.912],[75.8631,24.9137],[75.8759,24.9246],[75.8703,24.928],[75.873,24.9362],[75.8553,24.9413],[75.8388,24.942],[75.8176,24.9394],[75.8054,24.9391],[75.805,24.9347],[75.8092,24.928],[75.8095,24.923],[75.8048,24.914],[75.7995,24.9092],[75.7887,24.91],[75.78,24.9086],[75.7524,24.9232],[75.7229,24.9368],[75.7271,24.9415],[75.7347,24.9408],[75.7469,24.9341],[75.7545,24.936],[75.7596,24.9423],[75.7592,24.9468],[75.7533,24.953],[75.7524,24.958],[75.756,24.9604],[75.7691,24.9632],[75.7763,24.9563],[75.7801,24.9584],[75.7826,24.9658],[75.797,24.9885],[75.8168,25.0032],[75.821,25.0078],[75.8307,25.0108],[75.8299,25.0134],[75.8204,25.0166],[75.8012,24.9949],[75.7902,24.9985],[75.7697,24.9909],[75.7516,24.998],[75.7503,25.0073],[75.7634,25.0275],[75.7623,25.0347],[75.752,25.0368],[75.7469,25.0432],[75.729,25.0423],[75.7102,25.034],[75.6987,25.0249],[75.6963,25.014],[75.6921,25.0123],[75.6788,25.0015],[75.6595,24.9908],[75.6538,24.9847],[75.6463,24.973],[75.637,24.9672],[75.6286,24.9665]]]},"properties":{"id":"darrah-wls","name":"Darrah Wildlife Sanctuary","category":"wls","area_km2":80.8}}]}