{"type":"FeatureCollection","features":[{"type":"Feature","geometry":{"type":"Polygon","coordinates":[[[83.7163,21.6284],[83.7131,21.6315],[83.707,21.6473],[83.6999,21.6507],[83.7049,21.6512],[83.6984,21.6552],[83.6927,21.6613],[83.7,21.6597],[83.6951,21.666],[83.688,21.6652],[83.682,21.6739],[83.6762,21.6784],[83.6774,21.6827],[83.6721,21.6861],[83.681,21.6877],[83.6756,21.6908],[83.6676,21.6867],[83.6647,21.6909],[83.6678,21.6993],[83.6608,21.6946],[83.6512,21.6951],[83.6475,21.6984],[83.6391,21.6978],[83.6225,21.7058],[83.618,21.7045],[83.6192,21.6999],[83.6146,21.703],[83.6148,21.6973],[83.6306,21.6802],[83.6383,21.6646],[83.6359,21.6409],[83.6388,21.6293],[83.6308,21.6165],[83.6241,21.6118],[83.6216,21.6058],[83.6085,21.6119],[83.5985,21.6108],[83.5878,21.6055],[83.5717,21.5906],[83.5666,21.5899],[83.5596,21.5939],[83.5438,21.5937],[83.5112,21.5793],[83.4969,21.5738],[83.4959,21.5685],[83.5087,21.5647],[83.5098,21.5579],[83.5083,21.5512],[83.5033,21.5424],[83.4981,21.5379],[83.4991,21.535],[83.5114,21.5338],[83.5151,21.5374],[83.5272,21.5377],[83.5307,21.5337],[83.537,21.5359],[83.5314,21.5279],[83.5324,21.5231],[83.5374,21.5285],[83.5364,21.521],[83.5394,21.5188],[83.5422,21.5255],[83.5515,21.5239],[83.5524,21.5212],[83.5603,21.5187],[83.5599,21.5133],[83.5557,21.5099],[83.5595,21.5074],[83.5632,21.4979],[83.5687,21.4972],[83.5699,21.5024],[83.5783,21.5087],[83.5888,21.5106],[83.5908,21.5051],[83.5893,21.5009],[83.5928,21.4985],[83.5941,21.5069],[83.5997,21.5148],[83.5958,21.5184],[83.6069,21.528],[83.6131,21.5233],[83.6062,21.515],[83.6073,21.5072],[83.6112,21.507],[83.6138,21.5026],[83.6117,21.4924],[83.6185,21.4946],[83.6231,21.4874],[83.6266,21.477],[83.6336,21.4772],[83.6394,21.4735],[83.6403,21.4692],[83.6447,21.4676],[83.6587,21.4755],[83.6652,21.4702],[83.6695,21.4726],[83.6607,21.484],[83.662,21.4886],[83.6706,21.4783],[83.6795,21.4758],[83.68,21.4806],[83.6741,21.4888],[83.6715,21.4993],[83.6786,21.501],[83.6765,21.4961],[83.6771,21.4873],[83.6831,21.4846],[83.6798,21.4932],[83.6836,21.4983],[83.6887,21.4981],[83.7032,21.4857],[83.7001,21.497],[83.7017,21.5006],[83.7084,21.4969],[83.7199,21.4944],[83.7196,21.4868],[83.7282,21.4885],[83.7297,21.4865],[83.7593,21.4838],[83.7697,21.4863],[83.7724,21.4898],[83.7723,21.5005],[83.7751,21.5211],[83.7769,21.5271],[83.7743,21.5318],[83.7587,21.5341],[83.7552,21.5438],[83.7549,21.5544],[83.759,21.5527],[83.7622,21.5569],[83.7696,21.5509],[83.7676,21.5557],[83.7626,21.5585],[83.7571,21.5556],[83.749,21.5594],[83.7501,21.5661],[83.7472,21.5731],[83.7524,21.5765],[83.7535,21.581],[83.7488,21.5825],[83.7473,21.5872],[83.7419,21.5862],[83.7327,21.599],[83.7305,21.6045],[83.7222,21.5977],[83.7132,21.6035],[83.7129,21.609],[83.7039,21.6094],[83.696,21.6008],[83.6935,21.5938],[83.6908,21.5938],[83.6833,21.586],[83.6805,21.5873],[83.6859,21.5937],[83.6881,21.601],[83.6861,21.6046],[83.6908,21.6082],[83.694,21.6189],[83.6873,21.6223],[83.6889,21.631],[83.6936,21.6255],[83.6967,21.6303],[83.7091,21.6245],[83.7097,21.6289],[83.7163,21.6284]]]},"properties":{"id":"debrigarh-wls","name":"Debrigarh Wildlife Sanctuary","category":"wls","area_km2":346.9}}]}