{"type":"FeatureCollection","features":[{"type":"Feature","geometry":{"type":"Polygon","coordinates":[[[91.622,26.1098],[91.6141,26.1052],[91.6163,26.102],[91.6239,26.1075],[91.6409,26.1101],[91.6472,26.1122],[91.6588,26.1129],[91.669,26.1117],[91.6751,26.1173],[91.6743,26.1227],[91.6665,26.133],[91.667,26.1407],[91.6598,26.1408],[91.6506,26.1347],[91.6458,26.1376],[91.6399,26.1353],[91.636,26.1293],[91.6349,26.1365],[91.627,26.1367],[91.6239,26.1243],[91.6249,26.1158],[91.6204,26.1159],[91.622,26.1098]]]},"properties":{"id":"deepar-beel-wls","name":"Deepar Beel Wildlife Sanctuary","category":"wls","area_km2":4.1}}]}