{"type":"FeatureCollection","features":[{"type":"Feature","geometry":{"type":"Polygon","coordinates":[[[91.7149,26.129],[91.7222,26.1366],[91.7136,26.1386],[91.7255,26.1419],[91.7255,26.1481],[91.7295,26.1517],[91.7346,26.1629],[91.7337,26.1656],[91.7149,26.162],[91.7001,26.148],[91.698,26.1428],[91.6869,26.1445],[91.6745,26.1369],[91.6779,26.1501],[91.6728,26.146],[91.666,26.1459],[91.6667,26.1493],[91.6762,26.1553],[91.671,26.1626],[91.6716,26.1702],[91.6622,26.1684],[91.6609,26.1581],[91.6538,26.1609],[91.6502,26.1527],[91.643,26.1423],[91.6254,26.1351],[91.6263,26.1322],[91.62,26.1216],[91.6207,26.1163],[91.6161,26.1153],[91.6213,26.1095],[91.6141,26.1052],[91.6162,26.0999],[91.6204,26.0995],[91.6278,26.1033],[91.6299,26.1072],[91.6418,26.1056],[91.643,26.1088],[91.6588,26.1129],[91.658,26.1055],[91.6683,26.1085],[91.6995,26.1038],[91.7067,26.1066],[91.7081,26.1126],[91.7015,26.1177],[91.6995,26.116],[91.6921,26.1187],[91.6741,26.1296],[91.6676,26.1355],[91.6724,26.1365],[91.6767,26.1308],[91.691,26.128],[91.6947,26.1353],[91.6969,26.1312],[91.6953,26.1251],[91.7065,26.1203],[91.7163,26.1181],[91.7193,26.1258],[91.7107,26.1278],[91.711,26.1322],[91.7149,26.129]]]},"properties":{"id":"deepor-beel-ramsar","name":"Deepor Beel","category":"ramsar","area_km2":40}}]}