{"type":"FeatureCollection","features":[{"type":"Feature","geometry":{"type":"Polygon","coordinates":[[[74.9843,18.6049],[74.9796,18.609],[74.974,18.6042],[74.97,18.6075],[74.9659,18.5915],[74.9689,18.5883],[74.9715,18.5946],[74.9755,18.5951],[74.9835,18.5889],[74.9873,18.5823],[74.9943,18.5832],[75.0026,18.5782],[74.9957,18.5923],[74.9865,18.5909],[74.979,18.5952],[74.9761,18.6005],[74.9843,18.6049]]]},"properties":{"id":"deolgaon-rehkuri-wls","name":"Deolgaon-Rehkuri Wildlife Sanctuary","category":"wls","area_km2":2.2}}]}