{"type":"FeatureCollection","features":[{"type":"Feature","geometry":{"type":"Polygon","coordinates":[[[70.3718,26.0605],[70.3654,26.0471],[70.3654,26.0291],[70.3718,26.0086],[70.3825,25.9913],[70.4079,25.9584],[70.4212,25.9054],[70.4264,25.8902],[70.4327,25.868],[70.4366,25.8421],[70.4403,25.832],[70.4446,25.8275],[70.4524,25.8243],[70.501,25.8243],[70.5242,25.8266],[70.5447,25.8304],[70.579,25.8354],[70.6148,25.8456],[70.623,25.8469],[70.6625,25.8509],[70.691,25.8566],[70.7065,25.861],[70.7193,25.8667],[70.7257,25.8711],[70.7438,25.8972],[70.7589,25.9234],[70.7643,25.9398],[70.7603,25.9475],[70.7491,25.9524],[70.7286,25.9577],[70.7118,25.9654],[70.7047,25.9742],[70.6991,25.9877],[70.6888,26.0268],[70.6879,26.0468],[70.6903,26.0703],[70.6915,26.1141],[70.6903,26.1301],[70.6856,26.1407],[70.6654,26.1713],[70.6599,26.184],[70.6597,26.1896],[70.6632,26.197],[70.6731,26.2081],[70.6774,26.2155],[70.6774,26.2261],[70.6758,26.2301],[70.6649,26.2453],[70.6615,26.2524],[70.6588,26.2655],[70.6616,26.2738],[70.6694,26.2865],[70.6799,26.2985],[70.7055,26.3292],[70.7206,26.3464],[70.7224,26.3602],[70.7103,26.44],[70.7211,26.6314],[70.7055,26.6741],[70.7246,26.7019],[70.7139,26.7307],[70.6541,26.8096],[70.5896,26.8598],[70.5801,26.8712],[70.5729,26.8732],[70.5624,26.8719],[70.5545,26.8675],[70.5335,26.8494],[70.5003,26.8389],[70.4943,26.8337],[70.4841,26.8157],[70.4675,26.7902],[70.4562,26.7714],[70.4433,26.7521],[70.4261,26.7239],[70.4105,26.7057],[70.3911,26.6875],[70.3749,26.6784],[70.3687,26.6727],[70.3609,26.6609],[70.3598,26.6488],[70.3616,26.6389],[70.3673,26.6284],[70.3762,26.622],[70.3997,26.608],[70.4197,26.6036],[70.4503,26.6032],[70.46,26.601],[70.4653,26.5953],[70.4703,26.5841],[70.4721,26.5589],[70.4675,26.5232],[70.4582,26.4871],[70.4464,26.4594],[70.4339,26.4393],[70.4264,26.4209],[70.4246,26.4067],[70.4246,26.3877],[70.4179,26.3671],[70.4104,26.3573],[70.3987,26.3345],[70.3932,26.3169],[70.3803,26.2979],[70.3725,26.2883],[70.3646,26.2762],[70.3568,26.2519],[70.3568,26.2308],[70.3646,26.2058],[70.3768,26.1847],[70.3896,26.1566],[70.3925,26.1284],[70.3917,26.1028],[70.3796,26.0714],[70.3718,26.0605]]]},"properties":{"id":"desert-np","name":"Desert National Park","category":"np","area_km2":3162}}]}