{"type":"FeatureCollection","features":[{"type":"Feature","geometry":{"type":"MultiPolygon","coordinates":[[[[76.7337,32.1288],[76.7355,32.1343],[76.7319,32.1458],[76.7171,32.1584],[76.7155,32.1679],[76.7217,32.188],[76.7044,32.1884],[76.699,32.1874],[76.6956,32.1703],[76.6909,32.1601],[76.6842,32.1515],[76.6802,32.1352],[76.6703,32.1284],[76.6619,32.1289],[76.6532,32.1151],[76.6532,32.1128],[76.6743,32.097],[76.6808,32.097],[76.6947,32.1088],[76.7081,32.1171],[76.7122,32.1147],[76.72,32.1227],[76.7235,32.1195],[76.7337,32.1288]]],[[[76.9063,32.4654],[76.9039,32.4678],[76.8964,32.4661],[76.8704,32.4645],[76.854,32.4564],[76.8395,32.4454],[76.8312,32.443],[76.8202,32.4374],[76.8122,32.4296],[76.8103,32.4217],[76.8041,32.4129],[76.7981,32.4087],[76.7842,32.4055],[76.7808,32.4013],[76.7863,32.3924],[76.7886,32.385],[76.7891,32.371],[76.7836,32.3621],[76.7737,32.3587],[76.7592,32.3577],[76.7516,32.3547],[76.7489,32.3124],[76.7479,32.3046],[76.7486,32.2881],[76.7529,32.2728],[76.7525,32.2678],[76.7401,32.2571],[76.7332,32.2544],[76.7304,32.2465],[76.7443,32.22],[76.7481,32.2099],[76.7466,32.1989],[76.7391,32.1922],[76.7404,32.1875],[76.7375,32.1784],[76.7378,32.17],[76.7459,32.1567],[76.7568,32.1468],[76.763,32.1302],[76.7609,32.1084],[76.7663,32.105],[76.766,32.0993],[76.7699,32.0998],[76.7723,32.0951],[76.7731,32.0857],[76.7798,32.0794],[76.7844,32.0792],[76.7868,32.0725],[76.7959,32.0711],[76.802,32.0727],[76.802,32.0636],[76.8156,32.0566],[76.8249,32.0484],[76.8326,32.0474],[76.8401,32.0432],[76.8417,32.0377],[76.8462,32.043],[76.8576,32.0484],[76.8661,32.0476],[76.8754,32.0542],[76.8923,32.0587],[76.931,32.0609],[76.9417,32.0665],[76.9422,32.0705],[76.9362,32.0814],[76.9374,32.0975],[76.9455,32.109],[76.9526,32.1138],[76.9655,32.1144],[76.9838,32.1108],[76.9949,32.1101],[77.0083,32.1152],[77.0223,32.124],[77.0226,32.1288],[77.0139,32.1439],[77.0119,32.1504],[77.0128,32.1632],[77.019,32.1776],[77.0324,32.1931],[77.0395,32.2067],[77.0484,32.2183],[77.0487,32.2277],[77.0443,32.2347],[77.0295,32.2449],[77.0312,32.2561],[77.0266,32.2612],[77.0262,32.2718],[77.0328,32.2838],[77.0384,32.302],[77.045,32.3068],[77.0616,32.3158],[77.063,32.3245],[77.0687,32.3367],[77.0552,32.3439],[77.0405,32.3441],[77.0473,32.3541],[77.0472,32.368],[77.0706,32.3929],[77.0755,32.4031],[77.0753,32.4193],[77.0772,32.4261],[77.0705,32.43],[77.057,32.4342],[77.0396,32.4247],[77.0312,32.4248],[77.0121,32.4174],[77.0007,32.415],[76.9901,32.4176],[76.9861,32.4208],[76.9837,32.4284],[76.9749,32.429],[76.9626,32.4244],[76.9552,32.4112],[76.9485,32.4074],[76.9438,32.4127],[76.948,32.4211],[76.9459,32.4261],[76.9407,32.4254],[76.9256,32.4166],[76.9101,32.4174],[76.9152,32.4331],[76.9074,32.4402],[76.9025,32.4474],[76.899,32.4487],[76.9031,32.4574],[76.9118,32.4639],[76.9063,32.4654]]]]},"properties":{"id":"dhauladhar-wls","name":"Dhauladhar Wildlife Sanctuary","category":"wls","area_km2":982.9}}]}