{"type":"FeatureCollection","features":[{"type":"Feature","geometry":{"type":"Polygon","coordinates":[[[76.4265,20.5319],[76.4127,20.5439],[76.4189,20.5532],[76.4272,20.5533],[76.4329,20.5558],[76.4353,20.5613],[76.4436,20.5683],[76.4375,20.5759],[76.4447,20.5791],[76.4454,20.5845],[76.4373,20.5885],[76.4288,20.5876],[76.4281,20.5896],[76.4118,20.5851],[76.3994,20.5828],[76.3903,20.5833],[76.3835,20.5876],[76.3941,20.5883],[76.3826,20.6043],[76.3766,20.6005],[76.3699,20.6016],[76.3668,20.6053],[76.3715,20.6113],[76.3804,20.6148],[76.3843,20.6203],[76.3818,20.6235],[76.3646,20.6223],[76.3618,20.6281],[76.3624,20.6531],[76.3525,20.648],[76.3391,20.6492],[76.33,20.6463],[76.3371,20.6395],[76.3358,20.6373],[76.3243,20.6382],[76.3216,20.641],[76.3103,20.6295],[76.299,20.6021],[76.3072,20.6009],[76.3055,20.5949],[76.3094,20.5932],[76.3079,20.5882],[76.3126,20.5834],[76.3089,20.5776],[76.305,20.5819],[76.3016,20.5784],[76.293,20.5798],[76.2889,20.5741],[76.2739,20.565],[76.2672,20.5552],[76.2564,20.5504],[76.258,20.5438],[76.2673,20.5384],[76.2636,20.5317],[76.2693,20.5309],[76.2702,20.5354],[76.274,20.5352],[76.2733,20.528],[76.2767,20.5317],[76.2952,20.5276],[76.3026,20.5295],[76.3059,20.5258],[76.3096,20.5269],[76.3152,20.5232],[76.3045,20.5193],[76.3052,20.5156],[76.3004,20.5132],[76.3078,20.5113],[76.312,20.5133],[76.3236,20.5058],[76.3318,20.5025],[76.339,20.5054],[76.3442,20.4972],[76.3375,20.4943],[76.3371,20.4902],[76.3451,20.4854],[76.3458,20.4807],[76.3559,20.475],[76.3639,20.4805],[76.372,20.4727],[76.3787,20.4752],[76.3833,20.4731],[76.4033,20.4699],[76.4027,20.4782],[76.4142,20.4768],[76.4175,20.4781],[76.4207,20.4881],[76.4283,20.5001],[76.4366,20.4967],[76.4415,20.5107],[76.4499,20.519],[76.4488,20.5268],[76.4512,20.5359],[76.4478,20.5417],[76.4524,20.5441],[76.4529,20.5482],[76.4464,20.5541],[76.4411,20.553],[76.4363,20.5447],[76.4306,20.539],[76.4324,20.5314],[76.4265,20.5319]]]},"properties":{"id":"dhyanganga-wls","name":"Dhyanganga Wildlife Sanctuary","category":"wls","area_km2":205.2}}]}