{"type":"FeatureCollection","features":[{"type":"Feature","geometry":{"type":"Polygon","coordinates":[[[95.2811,29.061],[95.2714,29.0587],[95.2601,29.0541],[95.2743,29.0454],[95.2748,29.0307],[95.2426,29.0026],[95.244,28.9892],[95.2542,28.9825],[95.2609,28.9656],[95.2551,28.9531],[95.2681,28.9468],[95.2823,28.9486],[95.2988,28.9584],[95.306,28.9562],[95.3113,28.9361],[95.3234,28.9317],[95.3269,28.9232],[95.3176,28.912],[95.3243,28.9085],[95.3247,28.8942],[95.3153,28.8879],[95.3269,28.8558],[95.4513,28.8663],[95.6422,28.8886],[95.6765,28.927],[95.7198,28.9739],[95.7939,28.9997],[95.9257,29.0418],[96.0315,29.0106],[96.0436,28.9969],[96.0496,28.9813],[96.0543,28.9568],[96.0603,28.9412],[96.0674,28.9272],[96.0763,28.9152],[96.0906,28.9043],[96.1072,28.9033],[96.1333,28.8949],[96.1428,28.8866],[96.1571,28.8825],[96.169,28.8747],[96.1809,28.8643],[96.191,28.8606],[96.2098,28.8471],[96.2248,28.8335],[96.2248,28.8204],[96.2227,28.8107],[96.2209,28.7904],[96.2252,28.7745],[96.2369,28.7582],[96.2373,28.7174],[96.2893,28.6364],[96.4076,28.6152],[96.4687,28.6185],[96.4745,28.6218],[96.4873,28.6334],[96.4874,28.6389],[96.4825,28.6532],[96.4669,28.6752],[96.4706,28.6788],[96.491,28.6844],[96.5074,28.6956],[96.525,28.7011],[96.5557,28.7012],[96.5793,28.7116],[96.5925,28.7246],[96.6042,28.7444],[96.6101,28.7669],[96.609,28.7798],[96.6032,28.793],[96.5845,28.8113],[96.5569,28.8414],[96.5386,28.8642],[96.5261,28.8825],[96.5266,28.8918],[96.5301,28.9102],[96.5194,28.9322],[96.508,28.9518],[96.5094,28.9664],[96.4922,28.9597],[96.4812,28.9585],[96.4694,28.9712],[96.4647,28.9831],[96.4659,28.9953],[96.4743,29.0097],[96.4909,29.0334],[96.5007,29.0528],[96.5128,29.0697],[96.5136,29.074],[96.4985,29.0713],[96.4771,29.0631],[96.4623,29.0566],[96.4537,29.0491],[96.4356,29.041],[96.4231,29.0375],[96.3999,29.0359],[96.3565,29.037],[96.3414,29.0343],[96.3269,29.028],[96.294,29.0081],[96.2794,28.9947],[96.2677,28.9792],[96.2533,28.9652],[96.2345,28.944],[96.2202,28.9298],[96.2114,28.928],[96.2051,28.9228],[96.1819,28.9103],[96.1683,28.8987],[96.1609,28.8978],[96.1595,28.9072],[96.1554,28.9179],[96.148,28.9254],[96.1349,28.9352],[96.1404,28.9424],[96.1423,28.9567],[96.1718,28.9698],[96.1732,28.9917],[96.1715,28.9992],[96.1508,29.0385],[96.1409,29.0583],[96.1288,29.0705],[96.1203,29.0744],[96.1021,29.079],[96.1139,29.0816],[96.128,29.0863],[96.1561,29.0918],[96.1736,29.0992],[96.1824,29.1053],[96.1916,29.1159],[96.1973,29.1248],[96.2007,29.1334],[96.2105,29.1481],[96.2325,29.152],[96.245,29.1658],[96.2552,29.1649],[96.2741,29.1657],[96.3001,29.1688],[96.302,29.1774],[96.3006,29.192],[96.2962,29.1972],[96.2832,29.2027],[96.284,29.2096],[96.2706,29.21],[96.2608,29.2147],[96.2532,29.2138],[96.2628,29.2212],[96.2588,29.2305],[96.2625,29.2416],[96.2541,29.2394],[96.2438,29.2394],[96.2355,29.2419],[96.2237,29.2512],[96.2133,29.2639],[96.1959,29.2636],[96.1828,29.2718],[96.1791,29.2806],[96.1732,29.2839],[96.1667,29.2943],[96.1496,29.2949],[96.1467,29.3095],[96.1399,29.3174],[96.1436,29.3288],[96.1392,29.3429],[96.1322,29.3478],[96.1219,29.3511],[96.113,29.3566],[96.1055,29.3588],[96.0936,29.3647],[96.0858,29.3647],[96.0708,29.3725],[96.0619,29.3745],[96.0576,29.3809],[96.0536,29.3824],[96.038,29.3765],[96.0238,29.366],[96.0165,29.3625],[96.0117,29.3655],[95.9946,29.3686],[95.9839,29.3628],[95.9782,29.3638],[95.9761,29.3699],[95.9657,29.3758],[95.9553,29.3674],[95.9415,29.3658],[95.9388,29.3489],[95.9306,29.3473],[95.9222,29.3415],[95.9074,29.3371],[95.9027,29.3339],[95.8926,29.3312],[95.8865,29.3267],[95.8775,29.3146],[95.8674,29.3179],[95.862,29.3152],[95.8499,29.3169],[95.8395,29.323],[95.8374,29.3347],[95.8424,29.34],[95.8389,29.3531],[95.8251,29.3509],[95.8123,29.3475],[95.808,29.3435],[95.7971,29.3379],[95.7819,29.3256],[95.7768,29.323],[95.7574,29.3226],[95.7371,29.298],[95.7484,29.2884],[95.7494,29.2797],[95.7524,29.2762],[95.7427,29.2618],[95.736,29.2554],[95.7361,29.2515],[95.7303,29.2397],[95.7305,29.2352],[95.7376,29.2273],[95.7432,29.2257],[95.7353,29.2175],[95.7279,29.2175],[95.7161,29.2118],[95.7088,29.204],[95.7034,29.2054],[95.7057,29.2132],[95.6983,29.2247],[95.6943,29.2238],[95.6687,29.2244],[95.648,29.2104],[95.6376,29.2164],[95.6361,29.2233],[95.6249,29.2298],[95.6056,29.236],[95.5969,29.226],[95.5967,29.2143],[95.5946,29.2067],[95.6035,29.1958],[95.6019,29.1911],[95.5957,29.188],[95.5878,29.188],[95.5848,29.1837],[95.5738,29.1796],[95.5597,29.1883],[95.5489,29.197],[95.5394,29.1945],[95.5331,29.1948],[95.5308,29.1903],[95.5367,29.1692],[95.5328,29.139],[95.5307,29.1305],[95.5175,29.1336],[95.4967,29.1423],[95.481,29.1431],[95.4811,29.1223],[95.4772,29.0871],[95.4665,29.0665],[95.4494,29.0442],[95.4403,29.0366],[95.4277,29.0411],[95.4212,29.0414],[95.4107,29.0305],[95.3987,29.0312],[95.3851,29.0353],[95.3683,29.0364],[95.3481,29.0411],[95.3224,29.0507],[95.3046,29.0597],[95.2879,29.0626],[95.2811,29.061]]]},"properties":{"id":"dibang-wls","name":"Dibang Wildlife Sanctuary","category":"wls","area_km2":4149}}]}