{"type":"FeatureCollection","features":[{"type":"Feature","geometry":{"type":"Polygon","coordinates":[[[95.2941,27.6636],[95.2659,27.658],[95.2499,27.6514],[95.239,27.6445],[95.2209,27.6384],[95.2169,27.6323],[95.2195,27.6262],[95.2176,27.6159],[95.2195,27.6094],[95.2159,27.6016],[95.1986,27.5915],[95.2226,27.5959],[95.2353,27.6008],[95.2421,27.5988],[95.2541,27.5899],[95.2631,27.5869],[95.2793,27.5873],[95.2869,27.5908],[95.2983,27.5872],[95.3082,27.5874],[95.3272,27.5926],[95.3433,27.5952],[95.3536,27.6032],[95.3662,27.6077],[95.3722,27.6083],[95.39,27.6184],[95.397,27.6241],[95.4134,27.6338],[95.429,27.6449],[95.4298,27.6506],[95.4373,27.6666],[95.443,27.6693],[95.4619,27.6891],[95.4715,27.7039],[95.4691,27.7348],[95.4719,27.7383],[95.4844,27.7464],[95.4919,27.7563],[95.4897,27.7674],[95.4924,27.7712],[95.5063,27.7694],[95.5195,27.7792],[95.514,27.7826],[95.4963,27.7843],[95.4838,27.7835],[95.4726,27.7774],[95.4659,27.7692],[95.4556,27.7616],[95.4484,27.7527],[95.4422,27.7426],[95.4221,27.7293],[95.4139,27.7271],[95.3973,27.72],[95.3748,27.7073],[95.3659,27.6965],[95.3477,27.6891],[95.3335,27.6863],[95.3248,27.6761],[95.3229,27.6717],[95.3151,27.6666],[95.3053,27.6641],[95.2941,27.6636]]]},"properties":{"id":"dibru-saikhowa-np","name":"Dibru Saikhowa National Park","category":"np","area_km2":340}}]}