{"type":"FeatureCollection","features":[{"type":"Feature","geometry":{"type":"Polygon","coordinates":[[[95.5384,27.2737],[95.5448,27.28],[95.5465,27.2894],[95.5499,27.2968],[95.5587,27.2982],[95.5641,27.2955],[95.5815,27.3145],[95.6136,27.3251],[95.6179,27.3241],[95.6242,27.316],[95.6287,27.3168],[95.6209,27.3475],[95.6126,27.3663],[95.6132,27.3753],[95.6115,27.3876],[95.6062,27.3913],[95.5951,27.3901],[95.5805,27.3793],[95.5634,27.3713],[95.5546,27.3625],[95.5341,27.356],[95.5341,27.3669],[95.5474,27.3753],[95.5607,27.3901],[95.5888,27.4078],[95.5855,27.4139],[95.6073,27.4171],[95.6092,27.4357],[95.6054,27.442],[95.594,27.45],[95.5736,27.4547],[95.5408,27.4576],[95.5366,27.4364],[95.5417,27.4291],[95.5673,27.4215],[95.5693,27.4074],[95.5623,27.3978],[95.5364,27.4004],[95.5277,27.394],[95.5217,27.3943],[95.5069,27.4133],[95.51,27.4169],[95.5071,27.4324],[95.5184,27.4396],[95.5167,27.4434],[95.5052,27.4434],[95.4952,27.4379],[95.4895,27.4367],[95.4846,27.4453],[95.4946,27.4462],[95.4936,27.4515],[95.4875,27.452],[95.4816,27.4587],[95.4754,27.4517],[95.4697,27.4555],[95.4653,27.4454],[95.4644,27.4362],[95.4678,27.4309],[95.4802,27.4304],[95.4836,27.4243],[95.4838,27.4125],[95.4811,27.4074],[95.4848,27.4008],[95.4753,27.393],[95.4729,27.3843],[95.4843,27.376],[95.4851,27.367],[95.4776,27.3632],[95.4698,27.3642],[95.4735,27.3611],[95.4698,27.3577],[95.4713,27.3528],[95.4657,27.3437],[95.4522,27.3378],[95.4577,27.334],[95.4645,27.3254],[95.4703,27.3212],[95.4785,27.3251],[95.481,27.3204],[95.4771,27.3151],[95.4641,27.3064],[95.4499,27.2937],[95.4459,27.2885],[95.4493,27.2719],[95.4599,27.2722],[95.4625,27.2694],[95.4446,27.2594],[95.4439,27.2556],[95.4485,27.247],[95.4475,27.2386],[95.4518,27.2325],[95.4537,27.236],[95.4516,27.2479],[95.4536,27.252],[95.4668,27.2649],[95.4725,27.2647],[95.4707,27.254],[95.4824,27.2534],[95.4829,27.2446],[95.4868,27.2422],[95.4912,27.2452],[95.5038,27.2485],[95.5087,27.2618],[95.5155,27.2577],[95.522,27.26],[95.5274,27.2656],[95.5384,27.2737]]]},"properties":{"id":"dihing-patkai-wls","name":"Dihing Patkai Wildlife Sanctuary","category":"wls","area_km2":111.2}}]}