{"type":"FeatureCollection","features":[{"type":"Feature","geometry":{"type":"Polygon","coordinates":[[[80.5877,28.6749],[80.5905,28.6799],[80.5687,28.6881],[80.5503,28.6917],[80.5395,28.6908],[80.5061,28.6712],[80.5034,28.6651],[80.5114,28.6232],[80.5148,28.6159],[80.5215,28.5767],[80.5306,28.5726],[80.5228,28.553],[80.5176,28.5521],[80.515,28.5575],[80.5058,28.5685],[80.4996,28.5697],[80.4937,28.5766],[80.4814,28.5853],[80.4702,28.5826],[80.472,28.591],[80.4697,28.5936],[80.4633,28.6091],[80.458,28.6007],[80.459,28.5807],[80.4654,28.564],[80.4692,28.5608],[80.4863,28.5583],[80.4953,28.5546],[80.4961,28.5414],[80.5037,28.5404],[80.512,28.5456],[80.5203,28.5454],[80.5298,28.5387],[80.5462,28.5293],[80.5524,28.5159],[80.565,28.5118],[80.5688,28.5076],[80.5712,28.4863],[80.58,28.4802],[80.5918,28.4765],[80.5992,28.4792],[80.6118,28.4898],[80.6253,28.4894],[80.6287,28.4832],[80.6246,28.4756],[80.6315,28.47],[80.6344,28.4627],[80.622,28.4493],[80.6223,28.4449],[80.6315,28.447],[80.6427,28.4462],[80.6448,28.443],[80.6422,28.4307],[80.642,28.4217],[80.6444,28.415],[80.6565,28.4075],[80.6615,28.4006],[80.6655,28.3883],[80.6658,28.3828],[80.6722,28.3824],[80.6838,28.3883],[80.6921,28.3964],[80.7076,28.3979],[80.7178,28.3954],[80.7354,28.3849],[80.7449,28.3816],[80.7454,28.3759],[80.7352,28.3634],[80.723,28.3569],[80.7145,28.3429],[80.7157,28.3372],[80.7195,28.3339],[80.7394,28.3276],[80.7454,28.328],[80.7468,28.3326],[80.7573,28.3364],[80.7634,28.3408],[80.777,28.3406],[80.7832,28.3548],[80.7865,28.3559],[80.8055,28.351],[80.8088,28.3536],[80.8136,28.3657],[80.8145,28.3726],[80.8388,28.3814],[80.8426,28.3795],[80.8492,28.3699],[80.8566,28.3717],[80.8595,28.3793],[80.8661,28.3835],[80.8775,28.3768],[80.882,28.3653],[80.8851,28.3638],[80.8908,28.3671],[80.8913,28.3732],[80.8954,28.3789],[80.9051,28.3847],[80.9153,28.3878],[80.926,28.3987],[80.9298,28.4044],[80.9296,28.414],[80.9217,28.4228],[80.9177,28.4315],[80.9207,28.4403],[80.9078,28.4554],[80.8962,28.4726],[80.8891,28.4783],[80.8659,28.4897],[80.8556,28.4976],[80.8445,28.4958],[80.8439,28.4998],[80.83,28.5121],[80.8154,28.5207],[80.7997,28.5212],[80.7892,28.5245],[80.7846,28.5294],[80.7896,28.5434],[80.7829,28.5467],[80.7697,28.55],[80.7686,28.5659],[80.7383,28.5748],[80.7384,28.5665],[80.7244,28.5753],[80.7145,28.5684],[80.7036,28.5792],[80.6905,28.5877],[80.6957,28.6035],[80.6775,28.6044],[80.6797,28.6211],[80.6708,28.628],[80.6676,28.6422],[80.6513,28.6341],[80.6414,28.6433],[80.6333,28.6375],[80.6116,28.6395],[80.6062,28.6524],[80.5894,28.648],[80.5974,28.656],[80.5803,28.6614],[80.5877,28.6749]],[[80.5662,28.6333],[80.5619,28.6458],[80.5615,28.6721],[80.5634,28.6742],[80.5705,28.6727],[80.577,28.6658],[80.5793,28.658],[80.5844,28.6502],[80.5832,28.6437],[80.5674,28.6319],[80.5662,28.6333]],[[80.6024,28.6353],[80.6088,28.6383],[80.6177,28.6332],[80.663,28.6246],[80.6692,28.6212],[80.6687,28.6117],[80.6725,28.6049],[80.6799,28.6001],[80.6874,28.5911],[80.6865,28.5842],[80.6919,28.573],[80.6878,28.571],[80.6765,28.571],[80.6729,28.573],[80.6704,28.5877],[80.6592,28.6067],[80.6533,28.6078],[80.6418,28.6023],[80.6449,28.5923],[80.653,28.5862],[80.6544,28.5826],[80.6505,28.5785],[80.6419,28.5779],[80.6329,28.587],[80.6321,28.5945],[80.627,28.6009],[80.6162,28.6071],[80.613,28.6144],[80.6045,28.6227],[80.6024,28.6353]],[[80.7147,28.5534],[80.7155,28.5624],[80.723,28.5632],[80.7324,28.5598],[80.7403,28.5633],[80.7478,28.5622],[80.7501,28.5511],[80.7575,28.5513],[80.7694,28.5445],[80.7722,28.5385],[80.7694,28.5267],[80.7712,28.5192],[80.7792,28.5154],[80.785,28.5105],[80.793,28.5073],[80.7936,28.4923],[80.8064,28.4874],[80.8098,28.4799],[80.8091,28.4743],[80.8015,28.4663],[80.7905,28.4667],[80.7802,28.4748],[80.773,28.4875],[80.774,28.5029],[80.7587,28.5092],[80.7495,28.515],[80.7444,28.5226],[80.7447,28.5289],[80.7483,28.5414],[80.7363,28.5421],[80.7288,28.5392],[80.7254,28.5402],[80.7248,28.5513],[80.7147,28.5534]],[[80.7131,28.5327],[80.7199,28.5284],[80.7214,28.5207],[80.7147,28.5144],[80.7098,28.5152],[80.7024,28.5201],[80.7012,28.526],[80.7056,28.5334],[80.7131,28.5327]]]},"properties":{"id":"dudhwa-np","name":"Dudhwa National Park","category":"np","area_km2":490}}]}