{"type":"FeatureCollection","features":[{"type":"Feature","geometry":{"type":"Polygon","coordinates":[[[92.4304,27.1297],[92.4181,27.1202],[92.4035,27.1223],[92.3964,27.1163],[92.3919,27.1163],[92.3814,27.1213],[92.3696,27.1181],[92.3622,27.1181],[92.3516,27.1243],[92.34,27.118],[92.3274,27.1143],[92.3197,27.0993],[92.3076,27.0834],[92.2971,27.0615],[92.2977,27.0557],[92.3055,27.0496],[92.3214,27.0409],[92.3197,27.0316],[92.3238,27.0228],[92.3239,27.0176],[92.3283,27.0088],[92.3381,27.0033],[92.35,27.0139],[92.3628,27.0139],[92.3824,27.0099],[92.3889,27.0062],[92.4097,26.999],[92.4305,27.0046],[92.4457,27.003],[92.4644,27.0133],[92.4742,27.0263],[92.4787,27.0276],[92.495,27.0274],[92.5036,27.0356],[92.5188,27.0414],[92.5276,27.0421],[92.5866,27.0901],[92.5822,27.0924],[92.5821,27.1001],[92.5749,27.0995],[92.5624,27.103],[92.5445,27.0996],[92.5301,27.0982],[92.5207,27.0863],[92.4987,27.0753],[92.4637,27.0689],[92.435,27.1048],[92.4349,27.116],[92.4387,27.1239],[92.4386,27.1282],[92.4304,27.1297]]]},"properties":{"id":"eagle-nest-wls","name":"Eagle Nest Wildlife Sanctuary","category":"wls","area_km2":217}}]}