{"type":"FeatureCollection","features":[{"type":"Feature","geometry":{"type":"Polygon","coordinates":[[[93.3394,26.3649],[93.3474,26.3674],[93.3572,26.3745],[93.381,26.3843],[93.3943,26.3855],[93.418,26.3849],[93.4223,26.3837],[93.4431,26.3707],[93.4526,26.3687],[93.4595,26.3722],[93.4655,26.3794],[93.4954,26.3879],[93.4965,26.3917],[93.4911,26.4016],[93.4921,26.409],[93.5005,26.4128],[93.5037,26.4228],[93.5013,26.4353],[93.5002,26.4519],[93.4941,26.454],[93.4762,26.4675],[93.4607,26.478],[93.4509,26.4932],[93.4467,26.4931],[93.4368,26.4766],[93.4308,26.4724],[93.4052,26.4631],[93.394,26.4577],[93.3896,26.4507],[93.3787,26.4553],[93.372,26.4514],[93.3717,26.4426],[93.3694,26.4389],[93.3612,26.4382],[93.3486,26.4437],[93.335,26.4518],[93.3222,26.4498],[93.3146,26.4566],[93.3065,26.4581],[93.2965,26.4531],[93.2905,26.4534],[93.2848,26.4589],[93.2693,26.467],[93.2633,26.467],[93.2487,26.4618],[93.2284,26.4576],[93.2181,26.4488],[93.2104,26.4376],[93.2092,26.4336],[93.2145,26.4274],[93.2361,26.4131],[93.2388,26.4098],[93.2326,26.3997],[93.2348,26.3976],[93.247,26.3966],[93.2715,26.3853],[93.2827,26.3849],[93.2912,26.3869],[93.2958,26.3851],[93.2995,26.3707],[93.3098,26.3692],[93.3212,26.3743],[93.3314,26.374],[93.3394,26.3649]]]},"properties":{"id":"east-karbi-anglong-wls","name":"East Karbi Anglong Wildlife Sanctuary","category":"wls","area_km2":221.8}}]}