{"type":"FeatureCollection","features":[{"type":"Feature","geometry":{"type":"Polygon","coordinates":[[[88.4485,22.4752],[88.4896,22.4928],[88.5103,22.4863],[88.5064,22.4915],[88.5073,22.4973],[88.5181,22.4946],[88.5184,22.4992],[88.5242,22.5022],[88.5244,22.508],[88.5351,22.5075],[88.536,22.5099],[88.5203,22.5126],[88.5139,22.5116],[88.5147,22.5198],[88.5251,22.5222],[88.5345,22.5205],[88.5347,22.5267],[88.5403,22.5223],[88.5352,22.5339],[88.5303,22.5407],[88.5254,22.5387],[88.5288,22.5498],[88.5285,22.5562],[88.5202,22.5635],[88.5053,22.5695],[88.5063,22.5751],[88.5113,22.581],[88.5046,22.5865],[88.4948,22.5795],[88.4903,22.5836],[88.4853,22.5788],[88.4815,22.5823],[88.4738,22.5841],[88.4706,22.575],[88.4677,22.5733],[88.4513,22.5749],[88.4451,22.5697],[88.4406,22.5767],[88.436,22.5673],[88.4263,22.5704],[88.4196,22.5691],[88.4166,22.5638],[88.4185,22.5535],[88.4123,22.5548],[88.4052,22.5522],[88.4026,22.5594],[88.3974,22.5549],[88.4008,22.5526],[88.3984,22.5433],[88.3902,22.5419],[88.3918,22.5338],[88.3953,22.5272],[88.4014,22.5259],[88.4014,22.5178],[88.4125,22.5158],[88.4049,22.5078],[88.4019,22.5133],[88.4008,22.502],[88.3957,22.4912],[88.3931,22.4767],[88.3999,22.4711],[88.4158,22.4767],[88.4197,22.4738],[88.4421,22.4703],[88.4485,22.4752]]]},"properties":{"id":"east-kolkata-wetlands-ramsar","name":"East Kolkata Wetlands","category":"ramsar","area_km2":125}}]}