{"type":"FeatureCollection","features":[{"type":"Feature","geometry":{"type":"Polygon","coordinates":[[[77.1007,10.314],[77.0963,10.309],[77.0914,10.315],[77.0887,10.3109],[77.0784,10.3028],[77.0659,10.2981],[77.0631,10.2916],[77.0559,10.2873],[77.0435,10.284],[77.0494,10.2783],[77.0528,10.2722],[77.05,10.2611],[77.0606,10.2486],[77.0612,10.2373],[77.0477,10.2311],[77.043,10.2338],[77.0347,10.2305],[77.021,10.2295],[77.0135,10.2258],[77.0133,10.2229],[77.0209,10.2169],[77.019,10.2135],[77.0248,10.2117],[77.029,10.2073],[77.0341,10.2075],[77.0406,10.2032],[77.0428,10.2066],[77.0468,10.2054],[77.0554,10.2113],[77.065,10.2103],[77.0678,10.206],[77.0655,10.1974],[77.0686,10.1941],[77.0763,10.1958],[77.0865,10.1843],[77.0889,10.1843],[77.0852,10.175],[77.08,10.171],[77.0767,10.1752],[77.0669,10.1745],[77.0612,10.1696],[77.0572,10.1774],[77.042,10.1761],[77.0308,10.1729],[77.0269,10.1737],[77.0218,10.1791],[77.0154,10.176],[77.0144,10.1726],[77.0003,10.1705],[76.9974,10.1604],[76.9996,10.1581],[77.0091,10.1657],[77.0165,10.1666],[77.0199,10.1714],[77.0331,10.1694],[77.0322,10.1653],[77.0247,10.1645],[77.0214,10.1592],[77.0301,10.1585],[77.0278,10.1546],[77.0358,10.1498],[77.0391,10.139],[77.048,10.1429],[77.0528,10.1414],[77.0586,10.134],[77.06,10.136],[77.0553,10.1441],[77.0726,10.1609],[77.0947,10.1751],[77.0969,10.1862],[77.1003,10.1809],[77.1147,10.1886],[77.1212,10.1978],[77.1256,10.2006],[77.1304,10.2094],[77.1333,10.2302],[77.122,10.2358],[77.1118,10.2424],[77.1042,10.2427],[77.098,10.2543],[77.1079,10.2641],[77.1166,10.2791],[77.117,10.2845],[77.1221,10.2891],[77.1201,10.3002],[77.1099,10.3048],[77.1007,10.314]]]},"properties":{"id":"eravikulam-np","name":"Eravikulam National Park","category":"np","area_km2":97}}]}