{"type":"FeatureCollection","features":[{"type":"Feature","geometry":{"type":"Polygon","coordinates":[[[80.2096,18.4929],[80.2032,18.4913],[80.1995,18.4938],[80.2014,18.5057],[80.1995,18.5143],[80.2032,18.5183],[80.2026,18.527],[80.191,18.5363],[80.1862,18.5426],[80.1826,18.5659],[80.1807,18.5711],[80.1754,18.5767],[80.1676,18.5754],[80.1615,18.5705],[80.1617,18.5578],[80.1549,18.5578],[80.1428,18.5645],[80.1367,18.5649],[80.1207,18.5598],[80.1121,18.5537],[80.1086,18.5378],[80.1096,18.527],[80.1136,18.5206],[80.1214,18.5189],[80.1275,18.5131],[80.1317,18.5057],[80.1325,18.4993],[80.1453,18.4864],[80.1456,18.481],[80.1407,18.4695],[80.1399,18.4614],[80.1432,18.4533],[80.156,18.4337],[80.1656,18.4144],[80.1663,18.407],[80.1611,18.4028],[80.155,18.4016],[80.1332,18.4158],[80.1257,18.4259],[80.1207,18.4428],[80.1107,18.4506],[80.0993,18.4526],[80.0904,18.4509],[80.0804,18.4438],[80.0772,18.4384],[80.0772,18.4323],[80.084,18.4235],[80.0989,18.4083],[80.1093,18.3999],[80.1114,18.3867],[80.1025,18.365],[80.095,18.3318],[80.094,18.3237],[80.0954,18.3119],[80.105,18.298],[80.1125,18.2906],[80.1189,18.2726],[80.125,18.2462],[80.1378,18.2347],[80.1585,18.2279],[80.1731,18.2303],[80.1817,18.2432],[80.2009,18.2794],[80.2102,18.2862],[80.2234,18.2845],[80.2309,18.275],[80.2298,18.2699],[80.2244,18.2608],[80.2095,18.2415],[80.2075,18.2371],[80.1888,18.2059],[80.182,18.1903],[80.1784,18.1775],[80.1806,18.1665],[80.1896,18.1545],[80.2043,18.152],[80.2148,18.1384],[80.225,18.1317],[80.2289,18.1257],[80.2455,18.123],[80.2517,18.1207],[80.2533,18.1257],[80.2502,18.1325],[80.2581,18.1275],[80.2638,18.1155],[80.2709,18.1101],[80.2733,18.1112],[80.2741,18.1234],[80.28,18.1207],[80.2779,18.1144],[80.2808,18.11],[80.2788,18.107],[80.2806,18.1013],[80.2862,18.0936],[80.2837,18.0882],[80.2957,18.0738],[80.3059,18.0668],[80.3128,18.0643],[80.3193,18.0677],[80.3214,18.0741],[80.3261,18.0775],[80.3282,18.0755],[80.3262,18.0694],[80.3315,18.0633],[80.3295,18.0574],[80.3291,18.0443],[80.3217,18.0349],[80.325,18.0243],[80.329,18.0201],[80.3377,18.0165],[80.3458,18.0157],[80.359,18.023],[80.3643,18.0379],[80.3753,18.0456],[80.3814,18.0524],[80.3923,18.0559],[80.402,18.0471],[80.4222,18.041],[80.4252,18.042],[80.4296,18.0551],[80.4299,18.0656],[80.4278,18.07],[80.3881,18.1097],[80.3906,18.1255],[80.3898,18.1304],[80.3781,18.1463],[80.3769,18.1556],[80.3685,18.1624],[80.3579,18.1781],[80.3519,18.1825],[80.3483,18.1887],[80.3501,18.1917],[80.3767,18.1889],[80.3902,18.1897],[80.4122,18.1894],[80.4387,18.1947],[80.4416,18.196],[80.446,18.2061],[80.4597,18.211],[80.4614,18.218],[80.4597,18.2233],[80.446,18.2404],[80.4262,18.2594],[80.4193,18.2648],[80.4135,18.267],[80.4055,18.2668],[80.4009,18.2617],[80.3992,18.252],[80.3935,18.2516],[80.3887,18.2814],[80.3857,18.2881],[80.3682,18.3051],[80.3579,18.3112],[80.3324,18.3305],[80.3189,18.3505],[80.3065,18.3563],[80.2987,18.3708],[80.2997,18.3775],[80.3035,18.3838],[80.303,18.3877],[80.2837,18.4071],[80.2704,18.4238],[80.2683,18.4285],[80.2676,18.4404],[80.2524,18.4558],[80.24,18.4754],[80.2279,18.4923],[80.221,18.4952],[80.2096,18.4929]]]},"properties":{"id":"eturnagaram-wls","name":"Eturnagaram Wildlife Sanctuary","category":"wls","area_km2":803}}]}