{"type":"FeatureCollection","features":[{"type":"Feature","geometry":{"type":"Polygon","coordinates":[[[95.0139,25.852],[95.0205,25.853],[95.0179,25.8607],[95.009,25.8677],[95.0102,25.8742],[95.0141,25.8809],[94.996,25.8831],[94.9905,25.8801],[94.9845,25.8733],[94.9687,25.8727],[94.9572,25.8666],[94.9475,25.852],[94.9385,25.8501],[94.9353,25.8465],[94.9328,25.8384],[94.9287,25.8337],[94.9299,25.8289],[94.9275,25.8195],[94.9389,25.8089],[94.9438,25.8112],[94.9508,25.8184],[94.9599,25.8305],[94.9592,25.835],[94.9675,25.8384],[94.9717,25.8459],[94.9814,25.8429],[95.0026,25.847],[95.007,25.8466],[95.0139,25.852]]]},"properties":{"id":"fakim-wls","name":"Fakim Wildlife Sanctuary","category":"wls","area_km2":6.4}}]}