{"type":"FeatureCollection","features":[{"type":"Feature","geometry":{"type":"Polygon","coordinates":[[[88.5616,27.3228],[88.5647,27.3231],[88.5656,27.3387],[88.5873,27.3502],[88.5958,27.3594],[88.592,27.3611],[88.5722,27.3643],[88.5655,27.3628],[88.5591,27.3568],[88.5502,27.3597],[88.5428,27.3537],[88.5381,27.3452],[88.5358,27.3515],[88.5361,27.3593],[88.5245,27.3617],[88.5192,27.3542],[88.5062,27.3516],[88.5016,27.3471],[88.4974,27.3358],[88.502,27.3347],[88.5065,27.3271],[88.5112,27.3241],[88.5162,27.3109],[88.5165,27.2989],[88.5144,27.29],[88.5095,27.2866],[88.4993,27.2855],[88.4943,27.2877],[88.4771,27.2851],[88.4698,27.2804],[88.4677,27.2718],[88.4706,27.2636],[88.4861,27.2638],[88.4895,27.2693],[88.4951,27.2715],[88.5123,27.275],[88.5201,27.2794],[88.5267,27.2807],[88.5415,27.2772],[88.5469,27.2796],[88.5536,27.2858],[88.5493,27.3043],[88.5538,27.3109],[88.5481,27.3162],[88.5501,27.3192],[88.5616,27.3228]]]},"properties":{"id":"fambong-lho-wls","name":"Fambong Lho Wildlife Sanctuary","category":"wls","area_km2":51.8}}]}