{"type":"FeatureCollection","features":[{"type":"Feature","geometry":{"type":"MultiPolygon","coordinates":[[[[69.1746,22.1098],[69.1738,22.1205],[69.1689,22.1204],[69.1657,22.1149],[69.1644,22.095],[69.1733,22.0994],[69.1746,22.1098]]],[[[69.1719,22.1642],[69.1707,22.1669],[69.1614,22.165],[69.1607,22.1536],[69.1667,22.149],[69.1686,22.1537],[69.1676,22.1608],[69.1719,22.1642]]]]},"properties":{"id":"gaga-great-indian-bustard-wls","name":"Gaga Great Indian Bustard Wildlife Sanctuary","category":"wls","area_km2":3.3}}]}