{"type":"FeatureCollection","features":[{"type":"Feature","geometry":{"type":"Polygon","coordinates":[[[87.2999,20.7166],[87.1341,20.784],[87.0574,20.7516],[87.0091,20.7399],[87.0062,20.7252],[87.0081,20.7217],[87.0175,20.7237],[87.0185,20.7137],[87.0157,20.7092],[87.0073,20.7061],[87.0083,20.7015],[87.0356,20.7087],[87.053,20.7191],[87.0595,20.72],[87.0641,20.7239],[87.0699,20.7246],[87.0704,20.7202],[87.0522,20.7094],[87.0371,20.7016],[87.0258,20.6931],[87.0165,20.688],[87.0037,20.6787],[86.9307,20.6335],[86.8622,20.5907],[86.8333,20.5698],[86.8048,20.551],[86.7897,20.5401],[86.7826,20.5278],[86.7778,20.5081],[86.7743,20.504],[86.7594,20.5004],[86.7438,20.4661],[86.7416,20.4666],[86.7366,20.4603],[86.7339,20.4519],[86.7332,20.4316],[86.7359,20.4213],[86.7333,20.4077],[86.7353,20.4062],[86.7492,20.4051],[86.7631,20.398],[86.7695,20.398],[86.7785,20.393],[86.783,20.3841],[86.7882,20.3878],[86.7893,20.3991],[86.7883,20.4056],[86.7908,20.4098],[86.7905,20.4228],[86.8029,20.4252],[86.8021,20.4343],[86.8089,20.4367],[86.8162,20.4257],[86.818,20.4185],[86.8173,20.3965],[86.8107,20.373],[86.8029,20.3585],[86.7958,20.3502],[86.7835,20.3394],[86.7684,20.3285],[86.7572,20.3227],[86.952,20.2838],[87.0006,20.4159],[87.2675,20.6331],[87.2999,20.7166]]]},"properties":{"id":"gahirmatha-marine-wls","name":"Gahirmatha (Marine) Wildlife Sanctuary","category":"wls","area_km2":1435}}]}