{"type":"FeatureCollection","features":[{"type":"Feature","geometry":{"type":"Polygon","coordinates":[[[93.8518,6.8152],[93.8617,6.817],[93.8693,6.8162],[93.8794,6.8035],[93.8813,6.7947],[93.8873,6.7984],[93.8895,6.8055],[93.8947,6.8051],[93.9028,6.8147],[93.9014,6.8204],[93.9103,6.8331],[93.9083,6.8394],[93.891,6.8409],[93.8861,6.8391],[93.8676,6.8371],[93.8649,6.8346],[93.8599,6.8209],[93.8518,6.8152]]]},"properties":{"id":"galathea-bay-wls","name":"Galathea Bay Wildlife Sanctuary","category":"wls","area_km2":11.4}}]}