{"type":"FeatureCollection","features":[{"type":"Feature","geometry":{"type":"Polygon","coordinates":[[[93.8728,6.9734],[93.8729,6.9843],[93.8672,6.9906],[93.863,6.9905],[93.8579,6.9851],[93.8525,6.9827],[93.8423,6.981],[93.8366,6.9771],[93.8308,6.9699],[93.8055,6.9705],[93.7898,6.9661],[93.7899,6.9578],[93.7948,6.9445],[93.7954,6.9368],[93.8109,6.9201],[93.8027,6.9124],[93.8024,6.9073],[93.8167,6.8953],[93.8151,6.8901],[93.8085,6.8888],[93.8072,6.8763],[93.8123,6.8604],[93.8193,6.8544],[93.8275,6.8528],[93.8419,6.8536],[93.8533,6.8562],[93.8693,6.8636],[93.8768,6.8699],[93.8734,6.8801],[93.8706,6.893],[93.8765,6.9016],[93.8719,6.9086],[93.8701,6.92],[93.8676,6.9249],[93.8604,6.9494],[93.8623,6.9572],[93.8686,6.9646],[93.8728,6.9734]]]},"properties":{"id":"galathea-np","name":"Galathea National Park","category":"np","area_km2":110}}]}