{"type":"FeatureCollection","features":[{"type":"Feature","geometry":{"type":"Polygon","coordinates":[[[76.0021,32.7792],[76.0025,32.7749],[76.0086,32.778],[76.0178,32.7789],[76.0252,32.7928],[76.018,32.8007],[76.006,32.808],[76.0001,32.8132],[75.9958,32.825],[75.9828,32.8354],[75.9726,32.841],[75.9672,32.8541],[75.9535,32.874],[75.9358,32.8883],[75.927,32.8999],[75.9246,32.9062],[75.9089,32.9139],[75.9018,32.9136],[75.884,32.9197],[75.878,32.9251],[75.87,32.9242],[75.8562,32.9264],[75.8501,32.9299],[75.8424,32.9293],[75.8371,32.9244],[75.83,32.9131],[75.8243,32.9086],[75.8223,32.9006],[75.8176,32.8944],[75.8014,32.8857],[75.8113,32.8778],[75.8145,32.8708],[75.8157,32.8616],[75.8215,32.86],[75.8235,32.8539],[75.8312,32.8511],[75.8344,32.8474],[75.843,32.8453],[75.8496,32.8482],[75.8611,32.8488],[75.8717,32.857],[75.8731,32.8646],[75.8689,32.8634],[75.8638,32.8686],[75.854,32.8743],[75.8556,32.8778],[75.8686,32.8813],[75.872,32.8734],[75.879,32.8771],[75.8815,32.8713],[75.8796,32.8682],[75.8864,32.8669],[75.8843,32.8642],[75.904,32.8533],[75.9147,32.8505],[75.9246,32.8406],[75.9324,32.8443],[75.9344,32.8332],[75.9297,32.8287],[75.9161,32.8246],[75.9183,32.8107],[75.9227,32.8075],[75.9256,32.8095],[75.9347,32.8006],[75.9452,32.7981],[75.9597,32.8062],[75.9588,32.8095],[75.9647,32.8148],[75.9693,32.8146],[75.9757,32.8067],[75.9811,32.8096],[75.9838,32.8065],[75.9795,32.8011],[75.9724,32.7985],[75.9642,32.7892],[75.9715,32.786],[75.9772,32.787],[75.9863,32.7981],[75.9922,32.7994],[75.9922,32.7924],[75.9964,32.7968],[76.0021,32.7971],[76.0029,32.7904],[76.008,32.7883],[76.0021,32.7792]]]},"properties":{"id":"gamgul-siahbehi-wls","name":"Gamgul Siahbehi Wildlife Sanctuary","category":"wls","area_km2":108.4}}]}