{"type":"FeatureCollection","features":[{"type":"Feature","geometry":{"type":"MultiPolygon","coordinates":[[[[75.5468,24.6948],[75.544,24.7015],[75.5318,24.7107],[75.5214,24.7072],[75.5059,24.6993],[75.4974,24.692],[75.4879,24.6863],[75.4621,24.6812],[75.4554,24.6807],[75.4294,24.683],[75.3919,24.6906],[75.3893,24.6842],[75.3788,24.6704],[75.3758,24.658],[75.377,24.6521],[75.3717,24.6455],[75.3718,24.641],[75.3783,24.6385],[75.3785,24.6351],[75.3866,24.6257],[75.3927,24.6132],[75.4014,24.604],[75.4144,24.609],[75.4393,24.6062],[75.448,24.5929],[75.4549,24.5922],[75.461,24.6018],[75.4656,24.6022],[75.475,24.5946],[75.4844,24.5928],[75.4876,24.5961],[75.5001,24.6226],[75.5097,24.6284],[75.5165,24.6231],[75.5178,24.6079],[75.5104,24.5939],[75.5173,24.5871],[75.5287,24.5895],[75.5379,24.5835],[75.5445,24.5758],[75.5526,24.5697],[75.5541,24.5831],[75.5534,24.588],[75.5571,24.5938],[75.5545,24.6091],[75.5505,24.6242],[75.5517,24.6333],[75.5551,24.6408],[75.5642,24.6446],[75.5851,24.6455],[75.598,24.6428],[75.6034,24.6437],[75.5968,24.6505],[75.5914,24.6528],[75.5739,24.664],[75.5638,24.675],[75.5578,24.6886],[75.5532,24.6941],[75.5468,24.6948]]],[[[75.7506,24.6274],[75.7784,24.6251],[75.7855,24.6196],[75.7982,24.6219],[75.8049,24.6254],[75.811,24.6354],[75.811,24.6488],[75.8147,24.6554],[75.821,24.66],[75.8277,24.6748],[75.8337,24.694],[75.8346,24.7009],[75.8267,24.7028],[75.8332,24.7152],[75.8326,24.7304],[75.8212,24.7377],[75.8061,24.753],[75.7847,24.7607],[75.7783,24.7615],[75.7707,24.7585],[75.7572,24.7616],[75.7401,24.755],[75.7155,24.7407],[75.6832,24.7242],[75.6733,24.7129],[75.6577,24.6935],[75.646,24.6852],[75.6306,24.684],[75.6266,24.6824],[75.6087,24.6819],[75.6007,24.6958],[75.5876,24.707],[75.583,24.7133],[75.5751,24.7124],[75.5755,24.708],[75.5644,24.7081],[75.5529,24.705],[75.5617,24.6971],[75.568,24.6946],[75.5734,24.6896],[75.5736,24.6845],[75.5667,24.6822],[75.57,24.6722],[75.5762,24.6677],[75.5835,24.668],[75.599,24.675],[75.6052,24.6741],[75.6074,24.667],[75.6053,24.6644],[75.5944,24.66],[75.6061,24.6545],[75.6162,24.6481],[75.6299,24.6533],[75.6398,24.6516],[75.6527,24.6437],[75.6694,24.6386],[75.6726,24.6437],[75.6782,24.6458],[75.6811,24.6426],[75.6848,24.6484],[75.6881,24.649],[75.6921,24.6435],[75.6966,24.644],[75.7011,24.6507],[75.7133,24.6506],[75.7202,24.6543],[75.7252,24.6523],[75.7239,24.6476],[75.7258,24.6373],[75.7356,24.6398],[75.7368,24.6505],[75.7402,24.6494],[75.7385,24.6439],[75.7466,24.637],[75.7468,24.6318],[75.7506,24.6274]],[[75.7014,24.6805],[75.7007,24.6881],[75.706,24.6894],[75.7133,24.6841],[75.7152,24.6726],[75.714,24.6693],[75.7018,24.6672],[75.7032,24.676],[75.7014,24.6805]]]]},"properties":{"id":"gandhi-sagar-wls","name":"Gandhi Sagar Wildlife Sanctuary","category":"wls","area_km2":368.6}}]}