{"type":"FeatureCollection","features":[{"type":"Feature","geometry":{"type":"Polygon","coordinates":[[[78.9242,31.2525],[78.9195,31.2489],[78.9221,31.2334],[78.9297,31.2182],[78.9476,31.2178],[78.9503,31.2134],[78.9461,31.2069],[78.9501,31.1999],[78.9583,31.1904],[78.9575,31.1867],[78.9727,31.18],[78.9795,31.1788],[78.9859,31.1739],[78.9904,31.1601],[78.9882,31.1552],[78.9908,31.1482],[78.9876,31.1438],[78.9908,31.1381],[78.9991,31.1353],[79.0065,31.1192],[79.0089,31.11],[79.0022,31.1125],[78.99,31.1086],[78.973,31.1081],[78.9592,31.0995],[78.9492,31.0984],[78.9451,31.1006],[78.9322,31.1007],[78.9266,31.1089],[78.9206,31.1108],[78.9128,31.1077],[78.912,31.1015],[78.9087,31.099],[78.9005,31.0998],[78.8914,31.097],[78.8854,31.0988],[78.8771,31.1045],[78.8708,31.0934],[78.8695,31.0881],[78.8724,31.0767],[78.8719,31.0548],[78.8707,31.0464],[78.8651,31.0331],[78.8666,31.0288],[78.8758,31.0166],[78.8918,31.0031],[78.8648,30.969],[78.8627,30.9578],[78.8654,30.9544],[78.8764,30.9481],[78.8755,30.9448],[78.8627,30.9369],[78.8579,30.9313],[78.8475,30.9241],[78.8449,30.9183],[78.8579,30.9037],[78.8585,30.89],[78.8695,30.881],[78.872,30.8753],[78.8809,30.877],[78.8972,30.8711],[78.9081,30.8725],[78.9196,30.8786],[78.9259,30.8744],[78.9343,30.8727],[78.9396,30.8673],[78.9458,30.8542],[78.9514,30.8553],[78.9698,30.8523],[78.9771,30.8535],[78.9947,30.8606],[79.0033,30.8573],[79.0069,30.852],[79.017,30.8429],[79.0197,30.8327],[79.0189,30.8208],[79.0321,30.8073],[79.041,30.8083],[79.0507,30.8024],[79.0663,30.7979],[79.0698,30.7923],[79.0873,30.7779],[79.1011,30.7746],[79.1052,30.7713],[79.1166,30.772],[79.1297,30.768],[79.1315,30.7572],[79.143,30.7479],[79.1617,30.7554],[79.1691,30.7558],[79.175,30.7515],[79.1813,30.7511],[79.1962,30.7403],[79.1997,30.7329],[79.2081,30.7378],[79.2319,30.734],[79.2452,30.7329],[79.2525,30.7285],[79.2563,30.723],[79.2744,30.7239],[79.2793,30.7299],[79.2802,30.7378],[79.2879,30.748],[79.2868,30.7523],[79.2811,30.7558],[79.2739,30.7572],[79.2614,30.7682],[79.2621,30.7764],[79.2455,30.7849],[79.2463,30.789],[79.2405,30.7947],[79.2409,30.8017],[79.2375,30.8052],[79.2255,30.8097],[79.2274,30.8196],[79.2405,30.8238],[79.2397,30.831],[79.2358,30.8386],[79.2416,30.842],[79.2502,30.8421],[79.2548,30.8587],[79.2592,30.8672],[79.2716,30.8696],[79.2734,30.8732],[79.2802,30.8753],[79.2776,30.8772],[79.2698,30.8966],[79.2728,30.8995],[79.2698,30.906],[79.2809,30.9114],[79.2827,30.9169],[79.2801,30.923],[79.2846,30.9328],[79.2806,30.9398],[79.2766,30.942],[79.2683,30.952],[79.263,30.9547],[79.2683,30.9589],[79.2825,30.9628],[79.2905,30.9684],[79.3008,30.9682],[79.3111,30.9596],[79.317,30.9588],[79.3232,30.962],[79.3292,30.9684],[79.3286,30.9749],[79.3227,30.9834],[79.3309,30.995],[79.3279,30.9988],[79.3077,31.0054],[79.3087,31.0146],[79.3145,31.0177],[79.3227,31.0259],[79.3368,31.0273],[79.3432,31.0316],[79.3535,31.0309],[79.3673,31.0391],[79.372,31.0496],[79.3764,31.0537],[79.3845,31.0554],[79.3845,31.0628],[79.3892,31.0684],[79.4036,31.0686],[79.4139,31.0746],[79.4077,31.077],[79.404,31.087],[79.4021,31.1021],[79.3988,31.1078],[79.3929,31.1103],[79.3798,31.1124],[79.3424,31.1249],[79.3325,31.1273],[79.3175,31.1367],[79.3094,31.1475],[79.3072,31.1578],[79.301,31.1678],[79.3032,31.1904],[79.2999,31.2057],[79.2926,31.2212],[79.2844,31.2324],[79.2802,31.235],[79.2571,31.2402],[79.2519,31.243],[79.2503,31.2582],[79.2546,31.2685],[79.2699,31.2786],[79.2715,31.2868],[79.2658,31.2932],[79.2518,31.3018],[79.2392,31.3142],[79.2394,31.3179],[79.2465,31.3253],[79.2465,31.33],[79.225,31.3387],[79.2116,31.3464],[79.1922,31.3628],[79.1824,31.3852],[79.1737,31.3955],[79.1662,31.402],[79.1436,31.4255],[79.1274,31.4349],[79.1085,31.4376],[79.0996,31.4433],[79.09,31.445],[79.0779,31.4527],[79.0705,31.4601],[79.0617,31.4613],[79.0559,31.455],[79.0508,31.44],[79.0515,31.4198],[79.035,31.4079],[79.0237,31.3964],[79.0176,31.3856],[79.0119,31.3677],[79.0108,31.3571],[78.9899,31.3453],[78.967,31.3369],[78.9583,31.3304],[78.9476,31.3195],[78.9442,31.3079],[78.9417,31.2742],[78.9371,31.2606],[78.9327,31.2529],[78.9242,31.2525]]]},"properties":{"id":"gangotri-np","name":"Gangotri National Park","category":"np","area_km2":2390}}]}