{"type":"FeatureCollection","features":[{"type":"Feature","geometry":{"type":"Polygon","coordinates":[[[85.2769,24.4918],[85.2678,24.4965],[85.2672,24.5039],[85.257,24.5193],[85.2544,24.5215],[85.2432,24.5166],[85.2369,24.52],[85.2401,24.5254],[85.2321,24.5228],[85.2271,24.5273],[85.2117,24.5236],[85.2102,24.518],[85.2114,24.5067],[85.1995,24.5133],[85.1947,24.5207],[85.1609,24.5184],[85.1375,24.5095],[85.1412,24.5044],[85.1349,24.4968],[85.1398,24.4942],[85.1403,24.4896],[85.1316,24.4846],[85.1188,24.4854],[85.1172,24.4917],[85.1125,24.4901],[85.1147,24.4839],[85.1057,24.4808],[85.0952,24.4748],[85.0977,24.4736],[85.101,24.4647],[85.0933,24.453],[85.1077,24.4454],[85.1006,24.4415],[85.0914,24.4437],[85.0826,24.4433],[85.0691,24.4321],[85.0667,24.4341],[85.0699,24.44],[85.0638,24.4511],[85.0599,24.4535],[85.054,24.4454],[85.058,24.4397],[85.0528,24.438],[85.0403,24.4286],[85.0377,24.4342],[85.0352,24.4324],[85.0334,24.4385],[85.0367,24.4504],[85.0366,24.4565],[85.0314,24.4615],[85.0309,24.4526],[85.0262,24.4527],[85.0258,24.4429],[85.0212,24.4442],[85.0194,24.4513],[85.0058,24.4482],[85.0012,24.452],[85.0058,24.4567],[85.0078,24.4644],[85.0042,24.48],[84.9942,24.4703],[84.9867,24.4671],[84.9906,24.461],[84.9854,24.461],[84.9831,24.4541],[84.9782,24.4523],[84.9737,24.4556],[84.969,24.4515],[84.9714,24.4468],[84.98,24.4389],[84.9804,24.4326],[84.9684,24.4406],[84.9751,24.43],[84.9692,24.4317],[84.9704,24.4218],[84.9668,24.4227],[84.9621,24.418],[84.9643,24.4116],[84.9588,24.4089],[84.9591,24.4024],[84.9639,24.3987],[84.9485,24.3833],[84.9419,24.3795],[84.9416,24.3762],[84.9466,24.3744],[84.976,24.3795],[84.9816,24.383],[84.9823,24.3794],[84.9904,24.379],[84.9897,24.3627],[84.9974,24.3636],[84.9988,24.3564],[85.0024,24.3562],[85.0157,24.3604],[85.0189,24.3558],[85.0233,24.3558],[85.0316,24.362],[85.0361,24.3677],[85.047,24.3688],[85.0383,24.3532],[85.0474,24.3522],[85.0553,24.3558],[85.0599,24.3537],[85.0577,24.3606],[85.0651,24.367],[85.0666,24.375],[85.0752,24.3742],[85.0771,24.3666],[85.0698,24.3478],[85.0698,24.3434],[85.0808,24.3432],[85.0871,24.3404],[85.0924,24.3354],[85.0931,24.3308],[85.1011,24.3228],[85.1164,24.3209],[85.1249,24.3267],[85.1304,24.3268],[85.1278,24.3326],[85.1222,24.3356],[85.1194,24.3458],[85.1295,24.3522],[85.1332,24.3504],[85.1512,24.3643],[85.179,24.3874],[85.1921,24.4016],[85.2155,24.4062],[85.2387,24.4156],[85.2549,24.4177],[85.2645,24.4153],[85.2782,24.4057],[85.2821,24.4003],[85.2911,24.4011],[85.2979,24.4093],[85.3063,24.4138],[85.3144,24.4241],[85.3294,24.4365],[85.3473,24.4376],[85.3626,24.4526],[85.3741,24.4589],[85.3761,24.4903],[85.3451,24.4961],[85.3219,24.499],[85.3071,24.4943],[85.2973,24.49],[85.2848,24.4895],[85.2769,24.4918]],[[85.1753,24.4274],[85.1705,24.4291],[85.1639,24.4444],[85.1548,24.4458],[85.1535,24.451],[85.161,24.4549],[85.1644,24.4601],[85.185,24.4533],[85.1948,24.4511],[85.207,24.4501],[85.2108,24.4472],[85.21,24.4393],[85.2022,24.4382],[85.184,24.4403],[85.1837,24.4369],[85.1753,24.4274]],[[85.0795,24.4205],[85.0833,24.4232],[85.0947,24.4191],[85.1063,24.4216],[85.1122,24.4214],[85.1257,24.4249],[85.1214,24.418],[85.1228,24.4134],[85.1202,24.406],[85.1123,24.4024],[85.1101,24.3964],[85.1119,24.3932],[85.1041,24.3906],[85.0949,24.3816],[85.0819,24.3818],[85.0753,24.3845],[85.0801,24.3934],[85.0761,24.3946],[85.0774,24.3985],[85.0817,24.3984],[85.0805,24.4067],[85.0829,24.4163],[85.0789,24.4151],[85.0795,24.4205]]]},"properties":{"id":"gautam-budha-wls","name":"Gautam Budha Wildlife Sanctuary","category":"wls","area_km2":121.1}}]}