{"type":"FeatureCollection","features":[{"type":"Feature","geometry":{"type":"Polygon","coordinates":[[[75.2463,20.4118],[75.2499,20.4154],[75.2466,20.4245],[75.2491,20.4347],[75.2488,20.4425],[75.2508,20.4502],[75.2493,20.4543],[75.2369,20.4571],[75.2305,20.4601],[75.2261,20.4539],[75.2348,20.4467],[75.2268,20.4297],[75.22,20.4276],[75.2202,20.4216],[75.2245,20.4165],[75.2122,20.4164],[75.2069,20.4119],[75.2056,20.4218],[75.1983,20.4201],[75.1952,20.409],[75.202,20.4037],[75.1953,20.3956],[75.1778,20.4008],[75.1729,20.3981],[75.1671,20.399],[75.1622,20.396],[75.1655,20.3915],[75.1612,20.3891],[75.1641,20.3832],[75.1534,20.3774],[75.1526,20.3686],[75.1494,20.361],[75.1415,20.3579],[75.1364,20.3538],[75.1347,20.3564],[75.1376,20.3664],[75.1271,20.3647],[75.1267,20.3602],[75.1227,20.3564],[75.1113,20.3573],[75.0991,20.3526],[75.0905,20.3449],[75.0851,20.343],[75.074,20.3437],[75.0519,20.3609],[75.0473,20.3656],[75.0341,20.3604],[75.0344,20.3515],[75.0268,20.3486],[75.0202,20.3485],[74.994,20.3432],[74.9774,20.3434],[74.9657,20.3416],[74.95,20.3376],[74.939,20.3383],[74.9233,20.3358],[74.9141,20.3315],[74.9158,20.3236],[74.9049,20.322],[74.9002,20.3175],[74.8894,20.3192],[74.8826,20.3123],[74.8809,20.3045],[74.8764,20.3024],[74.8749,20.2963],[74.87,20.2927],[74.8531,20.2912],[74.8489,20.2867],[74.8603,20.2788],[74.8687,20.2746],[74.8767,20.2735],[74.8828,20.2692],[74.8943,20.2692],[74.9025,20.2658],[74.9132,20.2684],[74.9251,20.275],[74.9234,20.2805],[74.9325,20.2823],[74.9447,20.2795],[74.9594,20.2789],[74.967,20.2856],[74.973,20.2861],[74.9731,20.2891],[74.9846,20.2885],[74.9878,20.3047],[74.9936,20.3054],[74.9995,20.3151],[75.001,20.3132],[75.011,20.3161],[75.0122,20.3104],[75.0174,20.3082],[75.0225,20.3141],[75.0374,20.3143],[75.0364,20.3222],[75.0384,20.3301],[75.0503,20.33],[75.052,20.3198],[75.0551,20.3164],[75.0623,20.3167],[75.0603,20.3252],[75.0567,20.3274],[75.0615,20.3357],[75.0731,20.3369],[75.0728,20.3311],[75.0816,20.3324],[75.0801,20.3223],[75.0863,20.3208],[75.0854,20.325],[75.0914,20.3313],[75.0977,20.3289],[75.1041,20.3349],[75.1085,20.3349],[75.1113,20.328],[75.1055,20.3252],[75.1094,20.3221],[75.1111,20.3161],[75.1062,20.3098],[75.1009,20.3084],[75.1043,20.3045],[75.1167,20.304],[75.1221,20.3094],[75.1295,20.3136],[75.1354,20.3088],[75.1375,20.3168],[75.1449,20.3154],[75.1491,20.3091],[75.1596,20.3181],[75.1661,20.3176],[75.1677,20.3091],[75.1712,20.305],[75.1708,20.3008],[75.1662,20.2967],[75.1628,20.2876],[75.1744,20.2821],[75.1685,20.2777],[75.1691,20.274],[75.1855,20.2763],[75.1881,20.2707],[75.1851,20.2644],[75.1794,20.2622],[75.1775,20.2574],[75.1836,20.2519],[75.2005,20.2563],[75.2088,20.2479],[75.2169,20.2475],[75.2228,20.2414],[75.2333,20.2404],[75.2449,20.2451],[75.2457,20.2506],[75.2427,20.26],[75.2361,20.2682],[75.2364,20.2714],[75.2257,20.2711],[75.2131,20.2773],[75.2139,20.2837],[75.2296,20.2829],[75.216,20.2889],[75.223,20.2957],[75.234,20.2919],[75.2414,20.2945],[75.2549,20.2939],[75.2461,20.297],[75.2369,20.298],[75.2266,20.3048],[75.2123,20.3074],[75.2067,20.3059],[75.2067,20.3136],[75.1996,20.3117],[75.1987,20.3173],[75.1955,20.3161],[75.1909,20.3202],[75.1933,20.3255],[75.1982,20.3279],[75.2095,20.3277],[75.2203,20.3292],[75.2308,20.3289],[75.2361,20.3258],[75.2375,20.3379],[75.2356,20.3438],[75.2303,20.3417],[75.217,20.3434],[75.2085,20.343],[75.2139,20.3524],[75.2097,20.3541],[75.2056,20.3482],[75.1921,20.3468],[75.1888,20.352],[75.1958,20.3588],[75.188,20.3623],[75.1841,20.3702],[75.1865,20.3771],[75.1903,20.3788],[75.1939,20.3761],[75.2031,20.3814],[75.21,20.3731],[75.22,20.3793],[75.2267,20.3769],[75.2294,20.3788],[75.2189,20.3882],[75.2294,20.3902],[75.2382,20.3974],[75.2373,20.4077],[75.2463,20.4118]]]},"properties":{"id":"gautala-autramghat-wls","name":"Gautala Autramghat Wildlife Sanctuary","category":"wls","area_km2":260.6}}]}