{"type":"FeatureCollection","features":[{"type":"Feature","geometry":{"type":"Polygon","coordinates":[[[74.7214,16.2451],[74.7215,16.242],[74.711,16.2455],[74.6979,16.2437],[74.6996,16.2425],[74.6923,16.2371],[74.6879,16.226],[74.6893,16.2212],[74.6962,16.2146],[74.6997,16.2079],[74.6985,16.1913],[74.688,16.1853],[74.6795,16.1854],[74.6737,16.1835],[74.6686,16.1769],[74.669,16.1702],[74.6663,16.1561],[74.6605,16.15],[74.6425,16.1437],[74.6551,16.1461],[74.6654,16.1522],[74.6689,16.1526],[74.6685,16.1607],[74.6713,16.1707],[74.6707,16.1782],[74.6747,16.1829],[74.6934,16.1855],[74.7015,16.1923],[74.7039,16.2002],[74.6989,16.2144],[74.6915,16.2223],[74.6955,16.2367],[74.7036,16.2409],[74.7057,16.2385],[74.7144,16.2385],[74.7246,16.2343],[74.7292,16.229],[74.7282,16.2236],[74.7339,16.2234],[74.745,16.2163],[74.7489,16.2049],[74.7534,16.1999],[74.7632,16.1973],[74.7705,16.1906],[74.7836,16.1918],[74.7965,16.1885],[74.8059,16.1749],[74.8101,16.173],[74.8167,16.1757],[74.8088,16.1754],[74.8029,16.1794],[74.7991,16.1882],[74.7882,16.1931],[74.7803,16.1919],[74.767,16.1941],[74.7653,16.1971],[74.7592,16.1999],[74.7526,16.2072],[74.7522,16.2162],[74.7576,16.2198],[74.7508,16.2266],[74.7385,16.2341],[74.7358,16.2318],[74.7277,16.2384],[74.7281,16.242],[74.7214,16.2451]]]},"properties":{"id":"ghataprabha-wls","name":"Ghataprabha Wildlife Sanctuary","category":"wls","area_km2":29.8}}]}