{"type":"FeatureCollection","features":[{"type":"Feature","geometry":{"type":"Polygon","coordinates":[[[77.6587,26.1069],[77.6495,26.1],[77.6549,26.092],[77.6691,26.0905],[77.684,26.0758],[77.6881,26.0696],[77.6895,26.0619],[77.7153,26.0587],[77.7252,26.0592],[77.7425,26.057],[77.7482,26.0573],[77.76,26.0613],[77.7657,26.0616],[77.7743,26.0589],[77.7899,26.0514],[77.794,26.0525],[77.8051,26.0712],[77.8074,26.0804],[77.8182,26.0975],[77.8281,26.1063],[77.8353,26.1034],[77.841,26.113],[77.8502,26.1197],[77.8627,26.1202],[77.8781,26.1167],[77.8831,26.114],[77.8998,26.1121],[77.9017,26.1164],[77.8935,26.121],[77.8933,26.1244],[77.9026,26.1267],[77.9083,26.1307],[77.9146,26.1418],[77.9275,26.1403],[77.9283,26.1352],[77.941,26.1198],[77.9355,26.1174],[77.9293,26.127],[77.9241,26.1287],[77.9146,26.1258],[77.9087,26.121],[77.9004,26.1103],[77.8889,26.1091],[77.881,26.1055],[77.8766,26.1005],[77.8642,26.0757],[77.8698,26.0687],[77.882,26.0702],[77.908,26.0675],[77.9118,26.063],[77.9187,26.0626],[77.9309,26.0646],[77.9393,26.069],[77.9468,26.066],[77.9473,26.0563],[77.9504,26.0543],[77.9647,26.0596],[77.9769,26.0628],[77.9819,26.0678],[77.9871,26.0693],[77.996,26.0816],[78.005,26.0911],[78.0046,26.0963],[77.9949,26.1099],[77.9963,26.1171],[78.0035,26.1234],[78.0126,26.1351],[78.0104,26.1378],[78.0114,26.1523],[78.0197,26.155],[78.03,26.1544],[78.049,26.1471],[78.0588,26.1443],[78.0706,26.1431],[78.0881,26.1309],[78.1065,26.142],[78.1086,26.1453],[78.1023,26.1636],[78.0929,26.165],[78.0931,26.1697],[78.0997,26.1737],[78.0854,26.1756],[78.078,26.1782],[78.0819,26.183],[78.0885,26.1843],[78.0916,26.1903],[78.0954,26.1854],[78.1018,26.1853],[78.1121,26.1956],[78.1206,26.1995],[78.1311,26.2007],[78.1235,26.2041],[78.1192,26.202],[78.0932,26.2059],[78.0853,26.1992],[78.0785,26.2013],[78.0654,26.1992],[78.0608,26.2014],[78.0619,26.2092],[78.0451,26.2113],[78.0389,26.2084],[78.035,26.2116],[78.0247,26.2115],[78.014,26.2077],[78.0213,26.1823],[78.0171,26.1794],[78.0129,26.1845],[78.0112,26.1992],[78.0013,26.2031],[77.9981,26.198],[77.9817,26.2004],[77.9772,26.1953],[77.9637,26.1917],[77.9509,26.1859],[77.9384,26.1818],[77.9334,26.1774],[77.9296,26.1659],[77.9173,26.1671],[77.9154,26.1698],[77.9211,26.178],[77.9346,26.1838],[77.9374,26.1881],[77.9477,26.1934],[77.945,26.2002],[77.9488,26.2047],[77.9589,26.2045],[77.964,26.207],[77.9661,26.213],[77.9762,26.2181],[77.964,26.225],[77.9593,26.2292],[77.9635,26.2323],[77.9764,26.2289],[77.9886,26.2372],[77.9882,26.2419],[77.9836,26.2447],[77.9677,26.2444],[77.9606,26.2475],[77.9502,26.2486],[77.9339,26.2563],[77.9259,26.2569],[77.8808,26.2555],[77.8707,26.2515],[77.8656,26.2462],[77.861,26.2479],[77.8495,26.2478],[77.8415,26.2416],[77.8391,26.2458],[77.8472,26.2583],[77.8428,26.2608],[77.8356,26.2584],[77.8256,26.2524],[77.8309,26.243],[77.8247,26.2436],[77.8207,26.2479],[77.8103,26.2432],[77.8028,26.236],[77.7966,26.2235],[77.8035,26.2185],[77.8222,26.2172],[77.8366,26.2138],[77.8342,26.2112],[77.8139,26.2146],[77.8047,26.2151],[77.7926,26.2106],[77.793,26.2152],[77.7888,26.2171],[77.7858,26.2143],[77.7824,26.2046],[77.7776,26.2019],[77.7708,26.1792],[77.765,26.1774],[77.7593,26.1693],[77.749,26.1658],[77.738,26.1666],[77.7332,26.1652],[77.7303,26.1598],[77.7203,26.154],[77.7119,26.156],[77.7081,26.1545],[77.7083,26.1497],[77.7203,26.1279],[77.7178,26.1195],[77.706,26.1113],[77.6749,26.104],[77.6688,26.1019],[77.6619,26.1076],[77.6587,26.1069]]]},"properties":{"id":"ghatigaon-wls","name":"Ghatigaon Wildlife Sanctuary","category":"wls","area_km2":510.6}}]}