{"type":"FeatureCollection","features":[{"type":"Feature","geometry":{"type":"Polygon","coordinates":[[[79.6008,20.6568],[79.5938,20.6598],[79.5892,20.6558],[79.5894,20.6398],[79.5863,20.6305],[79.581,20.6208],[79.5731,20.6168],[79.5693,20.6111],[79.5526,20.5933],[79.5488,20.5917],[79.5362,20.5777],[79.5362,20.5733],[79.5325,20.5706],[79.5274,20.5623],[79.53,20.5431],[79.538,20.5343],[79.5347,20.5137],[79.5346,20.5049],[79.5507,20.5023],[79.5639,20.5132],[79.5677,20.5129],[79.5682,20.5056],[79.5635,20.4963],[79.5573,20.4917],[79.5776,20.485],[79.5834,20.4923],[79.5897,20.4945],[79.5955,20.4909],[79.5985,20.4859],[79.6035,20.4886],[79.6032,20.4937],[79.607,20.4926],[79.6136,20.4961],[79.6037,20.5027],[79.6108,20.5133],[79.6158,20.5179],[79.6266,20.5174],[79.6331,20.5253],[79.6335,20.5314],[79.6364,20.5311],[79.6388,20.5232],[79.6459,20.5148],[79.6583,20.508],[79.659,20.4997],[79.6652,20.5001],[79.6634,20.5053],[79.6661,20.5093],[79.6753,20.5147],[79.6741,20.522],[79.6789,20.5257],[79.683,20.5096],[79.7008,20.5117],[79.7065,20.5035],[79.7189,20.508],[79.716,20.5245],[79.7139,20.5274],[79.7144,20.5374],[79.705,20.5366],[79.6969,20.5405],[79.6823,20.5409],[79.6816,20.5438],[79.6737,20.5453],[79.6689,20.5502],[79.6765,20.5498],[79.6798,20.5537],[79.674,20.5582],[79.6731,20.5621],[79.6795,20.5647],[79.6803,20.5683],[79.6663,20.5666],[79.6655,20.5748],[79.6602,20.5804],[79.6368,20.5894],[79.6404,20.5943],[79.6333,20.6042],[79.6334,20.6159],[79.6302,20.6179],[79.6254,20.6293],[79.6354,20.6379],[79.6343,20.643],[79.6239,20.6444],[79.6102,20.6534],[79.6008,20.6568]],[[79.5723,20.5852],[79.5719,20.6],[79.5756,20.6066],[79.5842,20.6006],[79.5835,20.5912],[79.5859,20.5863],[79.5819,20.5855],[79.5767,20.5886],[79.5723,20.5852]],[[79.607,20.5504],[79.6046,20.5481],[79.6058,20.5424],[79.5979,20.5425],[79.6024,20.5494],[79.607,20.5504]],[[79.5982,20.5491],[79.5957,20.5394],[79.5921,20.5485],[79.5982,20.5491]]]},"properties":{"id":"ghodazari-wls","name":"Ghodazari Wildlife Sanctuary","category":"wls","area_km2":159}}]}