{"type":"FeatureCollection","features":[{"type":"Feature","geometry":{"type":"Polygon","coordinates":[[[70.8736,21.1518],[70.8616,21.1473],[70.8366,21.133],[70.8239,21.1293],[70.8032,21.1377],[70.7877,21.1401],[70.7805,21.151],[70.7544,21.1501],[70.7368,21.1675],[70.7282,21.1801],[70.7259,21.192],[70.6809,21.2134],[70.6472,21.2223],[70.6373,21.206],[70.6283,21.1776],[70.6365,21.1637],[70.6555,21.1537],[70.684,21.1242],[70.7174,21.0954],[70.7361,21.0882],[70.7339,21.0722],[70.7437,21.0627],[70.7523,21.045],[70.7819,21.0393],[70.7881,21.0363],[70.8029,21.042],[70.8079,21.0477],[70.8201,21.054],[70.8496,21.0832],[70.8639,21.0914],[70.8862,21.0981],[70.8955,21.104],[70.8685,21.1242],[70.8663,21.1379],[70.8736,21.1518]]]},"properties":{"id":"gir-np","name":"Gir National Park","category":"np","area_km2":258.7}}]}