{"type":"FeatureCollection","features":[{"type":"Feature","geometry":{"type":"Polygon","coordinates":[[[70.5774,21.2829],[70.5737,21.2854],[70.5697,21.2821],[70.5555,21.2811],[70.5512,21.2846],[70.5506,21.281],[70.5448,21.2818],[70.5351,21.2802],[70.5223,21.2758],[70.5127,21.2834],[70.5064,21.2814],[70.5141,21.276],[70.5158,21.2712],[70.5115,21.2688],[70.5191,21.2616],[70.521,21.2491],[70.5198,21.2469],[70.5079,21.2461],[70.51,21.2355],[70.5201,21.2288],[70.5177,21.2259],[70.5107,21.2277],[70.5065,21.2258],[70.5067,21.2213],[70.4999,21.2182],[70.4947,21.2285],[70.4926,21.244],[70.4892,21.2474],[70.4767,21.2493],[70.4733,21.2534],[70.4686,21.248],[70.4639,21.2464],[70.4581,21.249],[70.4572,21.2447],[70.4632,21.24],[70.463,21.2353],[70.4687,21.236],[70.4755,21.2309],[70.4771,21.2203],[70.4828,21.216],[70.4852,21.2185],[70.4925,21.2163],[70.4919,21.2115],[70.4967,21.2067],[70.4904,21.1986],[70.4931,21.1947],[70.4899,21.1907],[70.4935,21.1867],[70.5024,21.1864],[70.5028,21.1769],[70.5052,21.1698],[70.5004,21.1619],[70.5002,21.1581],[70.495,21.1526],[70.4916,21.1435],[70.4773,21.1331],[70.4684,21.1204],[70.472,21.1161],[70.4719,21.1049],[70.4665,21.1028],[70.4684,21.0993],[70.4775,21.0988],[70.4786,21.0911],[70.4816,21.0879],[70.488,21.0914],[70.4911,21.0892],[70.4983,21.095],[70.5045,21.0942],[70.5009,21.103],[70.5014,21.1073],[70.5072,21.1142],[70.5005,21.1172],[70.5002,21.1222],[70.505,21.1254],[70.5024,21.1294],[70.505,21.135],[70.5108,21.14],[70.5141,21.1509],[70.5189,21.1467],[70.5256,21.1536],[70.5218,21.1566],[70.5235,21.1653],[70.5314,21.1653],[70.534,21.1739],[70.5196,21.1875],[70.5247,21.1919],[70.5406,21.193],[70.54,21.1996],[70.5487,21.2026],[70.556,21.202],[70.5587,21.1935],[70.5551,21.1875],[70.5568,21.1822],[70.5673,21.1835],[70.5701,21.1952],[70.5739,21.1952],[70.5787,21.1885],[70.5785,21.1846],[70.5855,21.1815],[70.5936,21.1742],[70.6021,21.1736],[70.6041,21.1672],[70.5954,21.1564],[70.6081,21.1524],[70.6168,21.154],[70.6161,21.148],[70.6245,21.1326],[70.6175,21.1308],[70.6146,21.1356],[70.6082,21.1379],[70.5961,21.1358],[70.595,21.1295],[70.609,21.1237],[70.6034,21.1203],[70.5902,21.1244],[70.5875,21.1177],[70.5966,21.1195],[70.5952,21.1129],[70.5997,21.1129],[70.5933,21.1052],[70.6007,21.1049],[70.612,21.1145],[70.6177,21.111],[70.6163,21.1034],[70.6201,21.0959],[70.6236,21.1052],[70.629,21.1081],[70.6333,21.1233],[70.6391,21.1276],[70.6458,21.127],[70.6434,21.1219],[70.65,21.1182],[70.6652,21.1142],[70.6745,21.1095],[70.6781,21.1049],[70.6765,21.0955],[70.6788,21.0897],[70.6721,21.086],[70.6663,21.0735],[70.6702,21.0696],[70.6834,21.0696],[70.6908,21.0748],[70.6949,21.082],[70.7014,21.081],[70.7045,21.0754],[70.7085,21.0741],[70.708,21.0656],[70.7116,21.0616],[70.7203,21.0602],[70.7234,21.0564],[70.7233,21.0373],[70.7159,21.0256],[70.7172,21.0203],[70.7147,21.0181],[70.7054,21.0171],[70.708,21.0078],[70.7222,20.9905],[70.7286,20.9884],[70.736,20.981],[70.7394,20.9741],[70.7578,20.9817],[70.7588,20.9871],[70.7632,20.9871],[70.7665,20.9932],[70.7857,20.9926],[70.7869,21.0017],[70.8017,21.0022],[70.811,20.996],[70.8102,21.0007],[70.8192,21.0052],[70.8243,20.9946],[70.8281,20.9916],[70.833,21.0028],[70.8404,21.0098],[70.8441,21.0093],[70.848,21.0008],[70.846,20.9943],[70.8413,20.9898],[70.8436,20.9784],[70.8426,20.9732],[70.8531,20.9675],[70.8583,20.974],[70.8582,20.9834],[70.8618,20.9865],[70.8626,20.9709],[70.8618,20.9673],[70.8707,20.9705],[70.8711,20.9666],[70.8462,20.9511],[70.8429,20.9461],[70.8422,20.9395],[70.851,20.9363],[70.8496,20.9238],[70.8566,20.9211],[70.8757,20.9084],[70.8795,20.9107],[70.8834,20.919],[70.8808,20.9336],[70.8855,20.9503],[70.8956,20.9501],[70.9011,20.9538],[70.8957,20.9649],[70.8987,20.9731],[70.9058,20.9752],[70.9089,20.9797],[70.9177,20.98],[70.9275,20.9837],[70.9325,21.0068],[70.9315,21.0146],[70.9376,21.009],[70.9441,20.9949],[70.9624,20.9956],[70.9717,20.9928],[70.9873,20.9616],[70.9843,20.953],[70.996,20.9495],[70.9984,20.9447],[71.0031,20.9499],[71.007,20.9615],[71.0195,20.9647],[71.0219,20.9684],[71.0362,20.9677],[71.0449,20.9786],[71.0532,20.9847],[71.0571,20.9934],[71.0571,20.9995],[71.0618,21.0097],[71.0631,21.0171],[71.0613,21.0225],[71.0659,21.0379],[71.0722,21.0352],[71.0851,21.0363],[71.088,21.0341],[71.086,21.0259],[71.093,21.0254],[71.1028,21.0272],[71.1081,21.0248],[71.0997,21.0056],[71.0983,20.9982],[71.0922,20.9878],[71.0918,20.9788],[71.1047,20.9705],[71.1023,20.986],[71.1091,20.9908],[71.1285,20.9947],[71.1361,21.006],[71.1404,21.0094],[71.1478,21.0097],[71.1627,21.0339],[71.1642,21.0459],[71.1679,21.0514],[71.1795,21.0597],[71.1845,21.0688],[71.2013,21.0855],[71.2139,21.1034],[71.2139,21.1073],[71.2025,21.1044],[71.1931,21.0988],[71.1893,21.1014],[71.1885,21.1066],[71.1909,21.1198],[71.1768,21.1206],[71.1648,21.1046],[71.1634,21.1012],[71.1534,21.1026],[71.1498,21.1058],[71.1531,21.1129],[71.1387,21.1137],[71.1209,21.1413],[71.1177,21.1488],[71.1073,21.1538],[71.0864,21.1395],[71.0824,21.1207],[71.0591,21.1282],[71.0408,21.136],[71.0311,21.1425],[71.014,21.1573],[71.0066,21.1621],[71.0054,21.1691],[71.0224,21.1724],[71.033,21.1789],[71.0342,21.1829],[71.0283,21.1881],[71.0292,21.1914],[71.0381,21.1939],[71.0385,21.1989],[71.0465,21.2038],[71.0487,21.1959],[71.052,21.1923],[71.0591,21.1952],[71.0627,21.2019],[71.0588,21.2061],[71.0651,21.2077],[71.0562,21.2149],[71.0607,21.2219],[71.0461,21.225],[71.0418,21.2195],[71.032,21.221],[71.0318,21.2182],[71.0213,21.2226],[71.0183,21.2293],[71.0133,21.2301],[71.0133,21.2334],[71.0073,21.2373],[71.0007,21.2355],[70.9973,21.2381],[70.9968,21.2282],[71.0007,21.2242],[70.9966,21.2174],[71.0033,21.2122],[71.0059,21.2061],[71.0018,21.2029],[70.9959,21.1933],[70.9906,21.1896],[70.9898,21.1962],[70.9825,21.1982],[70.9829,21.193],[70.98,21.1894],[70.9678,21.196],[70.9609,21.1893],[70.9571,21.1936],[70.9607,21.1971],[70.952,21.2058],[70.953,21.2101],[70.9488,21.212],[70.939,21.211],[70.9387,21.2046],[70.9323,21.2022],[70.9235,21.2109],[70.9182,21.2062],[70.9099,21.1933],[70.898,21.1927],[70.8676,21.1738],[70.8553,21.1745],[70.835,21.1889],[70.8256,21.1969],[70.8213,21.2066],[70.7955,21.2384],[70.791,21.2459],[70.7869,21.247],[70.7822,21.26],[70.7784,21.2581],[70.7716,21.26],[70.7705,21.2578],[70.7592,21.257],[70.7508,21.241],[70.7415,21.2394],[70.7369,21.2432],[70.7305,21.2414],[70.7245,21.2475],[70.7201,21.2448],[70.7192,21.2574],[70.7149,21.2579],[70.7096,21.2501],[70.7065,21.2547],[70.7084,21.2584],[70.7002,21.2634],[70.6926,21.2624],[70.6924,21.2582],[70.6833,21.263],[70.6775,21.2626],[70.6739,21.2554],[70.6691,21.2573],[70.6696,21.2627],[70.6646,21.2622],[70.6569,21.2654],[70.6356,21.2696],[70.6305,21.2698],[70.6238,21.2742],[70.6056,21.273],[70.5972,21.2802],[70.5826,21.2808],[70.5774,21.2829]],[[70.6472,21.2223],[70.6809,21.2134],[70.7259,21.192],[70.7282,21.1801],[70.7368,21.1675],[70.7544,21.1501],[70.7805,21.151],[70.7877,21.1401],[70.8032,21.1377],[70.8239,21.1293],[70.8366,21.133],[70.8616,21.1473],[70.8736,21.1518],[70.8663,21.1379],[70.8685,21.1242],[70.8955,21.104],[70.8862,21.0981],[70.8639,21.0914],[70.8496,21.0832],[70.8201,21.054],[70.8079,21.0477],[70.8029,21.042],[70.7881,21.0363],[70.7819,21.0393],[70.7523,21.045],[70.7437,21.0627],[70.7339,21.0722],[70.7361,21.0882],[70.7174,21.0954],[70.684,21.1242],[70.6555,21.1537],[70.6365,21.1637],[70.6283,21.1776],[70.6373,21.206],[70.6472,21.2223]],[[71.1058,21.1171],[71.1029,21.1175],[71.1039,21.1248],[71.1065,21.1259],[71.1126,21.1196],[71.1112,21.1111],[71.1148,21.1053],[71.1122,21.0994],[71.1172,21.0865],[71.1127,21.0856],[71.109,21.0917],[71.1003,21.0899],[71.1018,21.1077],[71.1065,21.1093],[71.1058,21.1171]],[[71.0673,21.108],[71.0695,21.0989],[71.0616,21.0965],[71.0614,21.1038],[71.0582,21.1133],[71.0597,21.1167],[71.0629,21.1107],[71.0673,21.108]],[[70.9813,21.0181],[70.9916,21.0186],[70.9891,21.015],[70.9917,21.0065],[70.9859,21.0059],[70.9935,20.9991],[70.9929,20.9961],[70.9762,20.9947],[70.9823,21.0066],[70.978,21.0111],[70.9826,21.0108],[70.9813,21.0181]]]},"properties":{"id":"gir-wls","name":"Gir Wildlife Sanctuary","category":"wls","area_km2":1153.4}}]}