{"type":"FeatureCollection","features":[{"type":"Feature","geometry":{"type":"Polygon","coordinates":[[[70.4711,21.5458],[70.4694,21.5362],[70.473,21.5291],[70.4798,21.5254],[70.4771,21.5218],[70.4749,21.5106],[70.4711,21.5087],[70.4735,21.4972],[70.4715,21.4902],[70.4678,21.4897],[70.4703,21.4773],[70.4731,21.477],[70.4814,21.4668],[70.4842,21.4674],[70.4914,21.4604],[70.4974,21.4579],[70.4987,21.4505],[70.5043,21.4478],[70.5153,21.4476],[70.531,21.444],[70.5402,21.4433],[70.5481,21.4446],[70.5656,21.4597],[70.5655,21.4506],[70.5725,21.4504],[70.5765,21.4537],[70.5784,21.4659],[70.5843,21.4698],[70.5877,21.4758],[70.5916,21.475],[70.6064,21.4853],[70.6098,21.4933],[70.6145,21.4941],[70.6198,21.5],[70.6221,21.5164],[70.6212,21.5246],[70.6178,21.5358],[70.6081,21.5315],[70.6044,21.5398],[70.6012,21.5383],[70.5962,21.5491],[70.5914,21.5559],[70.5828,21.5593],[70.58,21.5643],[70.5788,21.5737],[70.5698,21.5828],[70.5651,21.581],[70.5502,21.5861],[70.5363,21.5895],[70.515,21.5814],[70.5079,21.5831],[70.5,21.5826],[70.4868,21.5747],[70.4822,21.5657],[70.4774,21.5601],[70.4711,21.5458]],[[70.5192,21.5651],[70.513,21.5645],[70.5199,21.5771],[70.5252,21.5706],[70.5192,21.5651]],[[70.4996,21.5355],[70.5038,21.5342],[70.5027,21.5283],[70.5057,21.5246],[70.4999,21.5243],[70.494,21.5291],[70.4996,21.5355]]]},"properties":{"id":"girnar-wls","name":"GIRNAR Wildlife Sanctuary","category":"wls","area_km2":178.8}}]}