{"type":"FeatureCollection","features":[{"type":"Feature","geometry":{"type":"Polygon","coordinates":[[[84.2506,25.6574],[84.2422,25.6555],[84.2354,25.6594],[84.2286,25.6599],[84.2262,25.6566],[84.2258,25.6502],[84.2301,25.639],[84.2346,25.6348],[84.2493,25.6271],[84.2676,25.622],[84.2932,25.6246],[84.308,25.6318],[84.3247,25.6464],[84.3333,25.6577],[84.3362,25.6659],[84.3371,25.677],[84.3354,25.684],[84.333,25.6836],[84.3353,25.6761],[84.3329,25.6625],[84.3262,25.6529],[84.3135,25.6391],[84.297,25.6285],[84.2763,25.6243],[84.2592,25.6265],[84.2357,25.6356],[84.2309,25.6397],[84.2281,25.6472],[84.2277,25.657],[84.2355,25.6593],[84.2408,25.6549],[84.2481,25.6547],[84.2506,25.6574]]]},"properties":{"id":"gokul-jalashay-ramsar","name":"Gokul Jalashay","category":"ramsar","area_km2":4.5}}]}