{"type":"FeatureCollection","features":[{"type":"Feature","geometry":{"type":"Polygon","coordinates":[[[83.0264,21.4772],[83.0344,21.4733],[83.0363,21.4632],[83.0408,21.4575],[83.0456,21.4583],[83.046,21.454],[83.0425,21.4462],[83.0431,21.4423],[83.0547,21.4312],[83.0591,21.4291],[83.0783,21.4271],[83.0843,21.4316],[83.0852,21.442],[83.0946,21.4486],[83.0972,21.4548],[83.0976,21.473],[83.0936,21.4762],[83.0883,21.488],[83.0952,21.4935],[83.1113,21.4978],[83.125,21.4941],[83.129,21.4913],[83.1294,21.4834],[83.1208,21.4647],[83.1195,21.4578],[83.1244,21.4498],[83.1311,21.4478],[83.1311,21.4398],[83.1351,21.4262],[83.14,21.4243],[83.1405,21.4175],[83.1346,21.4156],[83.1317,21.4108],[83.132,21.4031],[83.1263,21.3945],[83.1224,21.3832],[83.1195,21.3674],[83.1123,21.3531],[83.1186,21.3517],[83.1233,21.3611],[83.1304,21.3597],[83.1334,21.3618],[83.1445,21.3611],[83.1657,21.3749],[83.1792,21.3761],[83.1842,21.3703],[83.1899,21.3728],[83.2,21.3834],[83.2072,21.3935],[83.2201,21.4034],[83.2236,21.4117],[83.2228,21.4151],[83.2158,21.4213],[83.2147,21.4282],[83.2214,21.4378],[83.223,21.4427],[83.2194,21.4503],[83.2203,21.4614],[83.2255,21.4706],[83.223,21.4797],[83.2231,21.4943],[83.2199,21.506],[83.2201,21.5152],[83.2153,21.5303],[83.2165,21.5373],[83.2209,21.5339],[83.2222,21.5216],[83.2256,21.52],[83.2317,21.5262],[83.2397,21.5274],[83.2462,21.5306],[83.2467,21.5398],[83.2424,21.5575],[83.245,21.5656],[83.2448,21.572],[83.2401,21.5826],[83.2361,21.5858],[83.2201,21.5871],[83.2126,21.5847],[83.1983,21.5853],[83.1939,21.5824],[83.1924,21.564],[83.1893,21.552],[83.1853,21.543],[83.1839,21.5185],[83.1804,21.5067],[83.1727,21.489],[83.1678,21.4822],[83.1595,21.4824],[83.1505,21.5],[83.1475,21.5032],[83.1386,21.5039],[83.1336,21.5087],[83.1119,21.5104],[83.111,21.5175],[83.115,21.5253],[83.1222,21.5304],[83.123,21.5347],[83.119,21.5361],[83.1102,21.5298],[83.1075,21.5364],[83.1098,21.5451],[83.1161,21.5415],[83.1193,21.5484],[83.1116,21.5521],[83.1068,21.5508],[83.1037,21.542],[83.0985,21.5382],[83.101,21.548],[83.0939,21.5444],[83.0904,21.5456],[83.088,21.5543],[83.0785,21.5561],[83.0726,21.5646],[83.06,21.564],[83.0499,21.5583],[83.0389,21.5474],[83.0253,21.5281],[83.0189,21.506],[83.0189,21.4892],[83.0264,21.4772]]]},"properties":{"id":"gomardha-wls","name":"Gomardha Wildlife Sanctuary","category":"wls","area_km2":277.8}}]}