{"type":"FeatureCollection","features":[{"type":"Feature","geometry":{"type":"Polygon","coordinates":[[[88.8118,26.8006],[88.8057,26.795],[88.7954,26.7947],[88.789,26.7884],[88.7789,26.7868],[88.7786,26.7779],[88.7718,26.7666],[88.7718,26.7551],[88.7671,26.7399],[88.7629,26.734],[88.7769,26.6967],[88.7911,26.6919],[88.7985,26.6926],[88.801,26.6963],[88.8064,26.6937],[88.8102,26.6953],[88.81,26.7088],[88.8166,26.7097],[88.8181,26.7028],[88.824,26.7054],[88.8234,26.7122],[88.8257,26.7143],[88.8315,26.7115],[88.8315,26.7187],[88.8357,26.717],[88.8443,26.7296],[88.8472,26.7433],[88.8477,26.7564],[88.8508,26.761],[88.8528,26.7735],[88.8462,26.7797],[88.849,26.7903],[88.8427,26.7908],[88.8436,26.7945],[88.8361,26.7946],[88.8286,26.7981],[88.8262,26.8043],[88.8118,26.8006]]]},"properties":{"id":"gorumara-np","name":"Gorumara National Park","category":"np","area_km2":79.5}}]}