{"type":"FeatureCollection","features":[{"type":"Feature","geometry":{"type":"Polygon","coordinates":[[[76.4391,31.4856],[76.434,31.489],[76.4338,31.4994],[76.4246,31.5031],[76.4251,31.5127],[76.4166,31.5103],[76.4075,31.5256],[76.4041,31.5182],[76.3975,31.5353],[76.3923,31.5404],[76.4005,31.5455],[76.3905,31.5441],[76.3926,31.5484],[76.3847,31.5605],[76.3815,31.5677],[76.3858,31.572],[76.3746,31.5706],[76.381,31.5582],[76.3815,31.5518],[76.3898,31.5354],[76.3908,31.5271],[76.3801,31.5319],[76.3797,31.5368],[76.3723,31.538],[76.3736,31.5426],[76.3685,31.5391],[76.3745,31.53],[76.3729,31.527],[76.3637,31.5244],[76.3766,31.5249],[76.3818,31.5189],[76.3891,31.524],[76.3936,31.5244],[76.3911,31.5153],[76.3956,31.5073],[76.3925,31.5036],[76.4013,31.4959],[76.4006,31.5021],[76.4076,31.5014],[76.4066,31.4945],[76.4018,31.4931],[76.4046,31.4866],[76.4122,31.4764],[76.4148,31.4843],[76.4213,31.4865],[76.4225,31.4813],[76.419,31.4782],[76.4232,31.4751],[76.4181,31.4745],[76.4175,31.4666],[76.4234,31.4633],[76.4293,31.4645],[76.4351,31.4609],[76.4299,31.458],[76.4246,31.4599],[76.4363,31.4505],[76.4346,31.4417],[76.4402,31.4417],[76.4408,31.4345],[76.4393,31.4228],[76.4328,31.4132],[76.4347,31.4094],[76.4432,31.4111],[76.448,31.4091],[76.4632,31.4069],[76.4619,31.4038],[76.4693,31.4002],[76.4691,31.397],[76.4746,31.3941],[76.4805,31.3952],[76.479,31.3902],[76.4878,31.3941],[76.4812,31.3878],[76.4869,31.3847],[76.4908,31.3887],[76.4926,31.3852],[76.502,31.3773],[76.507,31.3703],[76.514,31.3673],[76.5091,31.3644],[76.5038,31.3668],[76.5017,31.3639],[76.5117,31.3596],[76.5165,31.3607],[76.515,31.3662],[76.522,31.3635],[76.5126,31.3562],[76.519,31.3557],[76.5236,31.349],[76.5263,31.3496],[76.5224,31.3566],[76.5254,31.3608],[76.5347,31.3537],[76.5396,31.3469],[76.5344,31.34],[76.5417,31.3441],[76.5461,31.3392],[76.5391,31.3369],[76.5498,31.3374],[76.559,31.3325],[76.5568,31.3228],[76.5619,31.324],[76.571,31.3102],[76.576,31.3046],[76.5818,31.3047],[76.5819,31.298],[76.5788,31.295],[76.5861,31.2954],[76.5899,31.2987],[76.5916,31.291],[76.5878,31.2895],[76.5918,31.2837],[76.5975,31.283],[76.6036,31.2764],[76.61,31.2805],[76.6097,31.2741],[76.6155,31.2643],[76.613,31.2608],[76.628,31.2636],[76.6292,31.2665],[76.6346,31.2611],[76.6433,31.2613],[76.6457,31.268],[76.6392,31.2653],[76.6331,31.2695],[76.6322,31.2742],[76.6201,31.266],[76.6158,31.2747],[76.6249,31.2826],[76.6214,31.2821],[76.617,31.2929],[76.6075,31.2941],[76.6076,31.3072],[76.6049,31.3051],[76.5951,31.3133],[76.5867,31.3159],[76.5823,31.3214],[76.5856,31.327],[76.5777,31.3273],[76.5772,31.3357],[76.5793,31.3391],[76.573,31.3382],[76.5651,31.347],[76.5686,31.3497],[76.5605,31.3585],[76.5588,31.3531],[76.5522,31.3612],[76.5559,31.3649],[76.5523,31.3717],[76.5514,31.3663],[76.547,31.3754],[76.544,31.3708],[76.5372,31.3805],[76.5373,31.3864],[76.5311,31.3857],[76.5243,31.3886],[76.5253,31.3954],[76.519,31.393],[76.5187,31.3996],[76.5144,31.4049],[76.511,31.4012],[76.5096,31.4077],[76.5049,31.4097],[76.5114,31.4175],[76.5066,31.4166],[76.5092,31.4227],[76.504,31.4217],[76.5036,31.4161],[76.4972,31.4171],[76.4939,31.4256],[76.4869,31.4314],[76.491,31.4339],[76.4901,31.4381],[76.4801,31.4393],[76.4781,31.4475],[76.4725,31.4471],[76.4726,31.4554],[76.4624,31.4564],[76.4619,31.4641],[76.4652,31.4619],[76.4638,31.4691],[76.4749,31.4621],[76.4684,31.4715],[76.4544,31.4832],[76.4611,31.4725],[76.4607,31.4684],[76.448,31.479],[76.446,31.4847],[76.4391,31.4856]]]},"properties":{"id":"govind-sagar-wls","name":"Govind Sagar Wildlife Sanctuary","category":"wls","area_km2":100}}]}