{"type":"FeatureCollection","features":[{"type":"Feature","geometry":{"type":"MultiPolygon","coordinates":[[[[78.6195,31.2253],[78.6068,31.2293],[78.5968,31.2252],[78.5895,31.2267],[78.5797,31.226],[78.5749,31.2213],[78.5681,31.2192],[78.5657,31.2139],[78.552,31.2003],[78.5436,31.1983],[78.5076,31.1959],[78.497,31.1982],[78.4838,31.199],[78.4814,31.2081],[78.4693,31.2038],[78.455,31.204],[78.4498,31.2026],[78.4417,31.193],[78.432,31.1922],[78.422,31.1956],[78.4161,31.1944],[78.4027,31.1866],[78.3891,31.1826],[78.385,31.1762],[78.3784,31.1772],[78.3771,31.1712],[78.3636,31.1662],[78.356,31.1571],[78.3499,31.1569],[78.3427,31.1529],[78.3361,31.1536],[78.3302,31.1478],[78.3191,31.1498],[78.3108,31.1474],[78.2996,31.1405],[78.2942,31.1305],[78.2878,31.128],[78.274,31.1182],[78.2613,31.1117],[78.249,31.0984],[78.2415,31.0949],[78.2254,31.0912],[78.2078,31.0894],[78.2009,31.0829],[78.2006,31.0701],[78.1938,31.062],[78.1933,31.0496],[78.1829,31.0421],[78.1846,31.0347],[78.1717,31.021],[78.1794,31.0212],[78.2061,31.0256],[78.2228,31.0273],[78.2344,31.0258],[78.2503,31.0207],[78.2701,31.0156],[78.2815,31.0205],[78.306,31.0213],[78.32,31.0101],[78.3381,31.0061],[78.3535,31.0108],[78.3625,31.0246],[78.3763,31.0307],[78.3887,31.0433],[78.3956,31.0433],[78.4159,31.0373],[78.44,31.0319],[78.4524,31.0303],[78.4821,31.0285],[78.4935,31.0191],[78.4947,31.015],[78.4925,31.0071],[78.4961,31.0042],[78.5073,31.0042],[78.5187,31.0063],[78.5444,31.0026],[78.5501,31.0028],[78.5598,31.014],[78.5665,31.0191],[78.5767,31.0348],[78.58,31.0458],[78.5793,31.0507],[78.5684,31.069],[78.5646,31.0796],[78.565,31.0885],[78.5608,31.0926],[78.5486,31.0977],[78.5477,31.104],[78.5527,31.1154],[78.5586,31.1231],[78.5681,31.1282],[78.5725,31.1343],[78.5703,31.1457],[78.5707,31.1532],[78.58,31.1656],[78.5833,31.1744],[78.5981,31.1866],[78.6164,31.2047],[78.625,31.2196],[78.6195,31.2253]]],[[[78.1898,31.2258],[78.173,31.2268],[78.1602,31.2255],[78.1574,31.2186],[78.1545,31.2189],[78.1471,31.2104],[78.1334,31.2084],[78.1286,31.2008],[78.124,31.2004],[78.1145,31.1946],[78.1036,31.1854],[78.096,31.1844],[78.0876,31.1873],[78.066,31.1872],[78.0512,31.1799],[78.0426,31.1786],[78.0409,31.1729],[78.0327,31.1688],[78.0291,31.1625],[78.0303,31.151],[78.0206,31.1517],[78.0086,31.1609],[78.0007,31.162],[77.9846,31.1571],[77.9839,31.1474],[77.9872,31.1358],[77.9832,31.1255],[77.987,31.1214],[77.9996,31.1186],[78.0129,31.1191],[78.0218,31.117],[78.031,31.1082],[78.0268,31.1026],[78.0279,31.0961],[78.0228,31.0915],[78.0274,31.0757],[78.0312,31.0726],[78.0533,31.0745],[78.0651,31.077],[78.081,31.0678],[78.0886,31.0667],[78.0987,31.0688],[78.0967,31.0705],[78.0971,31.0884],[78.1021,31.0955],[78.1105,31.102],[78.1109,31.1186],[78.119,31.1273],[78.1206,31.133],[78.1166,31.1377],[78.1168,31.1473],[78.136,31.151],[78.1357,31.1631],[78.1437,31.1628],[78.1489,31.1659],[78.1538,31.1727],[78.1655,31.1794],[78.1828,31.1838],[78.1862,31.1875],[78.1851,31.1942],[78.1881,31.2004],[78.1972,31.2061],[78.1981,31.2177],[78.1898,31.2258]]]]},"properties":{"id":"govind-pashu-vihar-wls","name":"Govind Pashu Vihar Wildlife Sanctuary","category":"wls","area_km2":485.9}}]}