{"type":"FeatureCollection","features":[{"type":"Feature","geometry":{"type":"Polygon","coordinates":[[[78.4524,31.2412],[78.4431,31.2448],[78.436,31.2545],[78.4312,31.2528],[78.4259,31.2443],[78.4207,31.2441],[78.4127,31.2397],[78.407,31.2422],[78.4028,31.2479],[78.4073,31.2558],[78.3962,31.27],[78.3961,31.2754],[78.3863,31.2715],[78.3841,31.2817],[78.3703,31.2864],[78.352,31.2807],[78.3399,31.2827],[78.3319,31.2777],[78.318,31.279],[78.3111,31.2832],[78.308,31.2756],[78.3104,31.2712],[78.3077,31.2615],[78.3008,31.2593],[78.2919,31.26],[78.2829,31.2663],[78.276,31.2615],[78.2686,31.2486],[78.2633,31.2459],[78.2605,31.2398],[78.2495,31.2401],[78.2507,31.2334],[78.2432,31.2294],[78.2371,31.2327],[78.2258,31.2351],[78.2199,31.2338],[78.2124,31.2196],[78.1981,31.2177],[78.1972,31.2061],[78.1881,31.2004],[78.1851,31.1942],[78.1862,31.1875],[78.1828,31.1838],[78.1655,31.1794],[78.1538,31.1727],[78.1489,31.1659],[78.1437,31.1628],[78.1357,31.1631],[78.136,31.151],[78.1168,31.1473],[78.1166,31.1377],[78.1206,31.133],[78.119,31.1273],[78.1109,31.1186],[78.1105,31.102],[78.1021,31.0955],[78.0971,31.0884],[78.0967,31.0705],[78.0993,31.068],[78.0942,31.0574],[78.0862,31.0543],[78.0784,31.0574],[78.0709,31.0515],[78.0753,31.0458],[78.0823,31.0441],[78.0995,31.0335],[78.1204,31.0269],[78.1541,31.0208],[78.1717,31.021],[78.1846,31.0347],[78.1829,31.0421],[78.1933,31.0496],[78.1938,31.062],[78.2006,31.0701],[78.2009,31.0829],[78.2078,31.0894],[78.2254,31.0912],[78.2415,31.0949],[78.249,31.0984],[78.2613,31.1117],[78.274,31.1182],[78.2878,31.128],[78.2942,31.1305],[78.2996,31.1405],[78.3108,31.1474],[78.3191,31.1498],[78.3302,31.1478],[78.3361,31.1536],[78.3427,31.1529],[78.3499,31.1569],[78.356,31.1571],[78.3636,31.1662],[78.3771,31.1712],[78.3784,31.1772],[78.385,31.1762],[78.3891,31.1826],[78.4027,31.1866],[78.4161,31.1944],[78.422,31.1956],[78.432,31.1922],[78.4417,31.193],[78.4498,31.2026],[78.455,31.204],[78.4693,31.2038],[78.479,31.2058],[78.4798,31.2138],[78.4729,31.2185],[78.4617,31.2361],[78.4524,31.2412]]]},"properties":{"id":"govind-np","name":"Govind National Park","category":"np","area_km2":472.1}}]}