{"type":"FeatureCollection","features":[{"type":"Feature","geometry":{"type":"MultiPolygon","coordinates":[[[[77.7566,31.953],[77.7364,31.9519],[77.7274,31.9437],[77.721,31.9286],[77.7193,31.9207],[77.7132,31.9199],[77.7037,31.9228],[77.7012,31.9263],[77.6919,31.9288],[77.6829,31.9144],[77.6763,31.9114],[77.6727,31.9058],[77.6577,31.8947],[77.6442,31.8809],[77.6294,31.8729],[77.6202,31.8702],[77.6064,31.8708],[77.5945,31.8775],[77.5852,31.8777],[77.5828,31.8711],[77.5928,31.8564],[77.6052,31.8435],[77.6078,31.8372],[77.6176,31.8218],[77.6165,31.818],[77.6012,31.8066],[77.5979,31.7984],[77.588,31.7957],[77.5686,31.7928],[77.5646,31.7891],[77.5415,31.7884],[77.5146,31.7904],[77.4823,31.7885],[77.4728,31.7861],[77.4655,31.7887],[77.4601,31.7856],[77.4469,31.7855],[77.4358,31.7825],[77.4314,31.7794],[77.4492,31.7725],[77.4619,31.755],[77.4661,31.7401],[77.4664,31.7338],[77.4743,31.7301],[77.4768,31.7254],[77.4701,31.7109],[77.4753,31.7021],[77.4735,31.6942],[77.4687,31.6894],[77.466,31.6796],[77.471,31.6681],[77.4723,31.6602],[77.4769,31.6564],[77.4793,31.6504],[77.4865,31.6412],[77.495,31.6365],[77.5014,31.6369],[77.5142,31.6461],[77.5282,31.648],[77.5373,31.652],[77.542,31.6565],[77.5722,31.6611],[77.6054,31.6546],[77.6254,31.6534],[77.6361,31.6542],[77.6404,31.6562],[77.6513,31.6674],[77.6649,31.6728],[77.6696,31.6803],[77.6737,31.6947],[77.677,31.7005],[77.6822,31.7034],[77.712,31.704],[77.7329,31.714],[77.7482,31.7135],[77.7525,31.7179],[77.7534,31.7239],[77.7501,31.7313],[77.7483,31.749],[77.7595,31.7551],[77.7632,31.7607],[77.7845,31.7528],[77.7955,31.7593],[77.8084,31.7621],[77.8131,31.7603],[77.8277,31.7606],[77.8308,31.7675],[77.8387,31.7752],[77.8474,31.7747],[77.8674,31.7806],[77.8667,31.7862],[77.8621,31.7936],[77.85,31.7988],[77.8467,31.8042],[77.8469,31.8129],[77.8438,31.8234],[77.8472,31.8321],[77.8429,31.8379],[77.841,31.8482],[77.8365,31.8555],[77.845,31.8626],[77.8581,31.8595],[77.8643,31.8626],[77.8626,31.869],[77.8574,31.8759],[77.8652,31.8819],[77.8577,31.8879],[77.8453,31.8924],[77.8165,31.9001],[77.8011,31.9094],[77.7968,31.9146],[77.7892,31.9296],[77.7868,31.9491],[77.777,31.9511],[77.7656,31.9509],[77.7566,31.953]]],[[[77.4676,31.918],[77.4614,31.9174],[77.4574,31.9133],[77.4491,31.9103],[77.4356,31.9095],[77.4309,31.9073],[77.4259,31.9005],[77.4183,31.8972],[77.4067,31.8881],[77.3965,31.8844],[77.3894,31.8785],[77.3864,31.8705],[77.3978,31.8534],[77.3995,31.847],[77.4138,31.841],[77.4271,31.8396],[77.4326,31.8423],[77.442,31.8403],[77.449,31.8443],[77.4556,31.8431],[77.4737,31.8333],[77.4812,31.8319],[77.4925,31.8347],[77.5096,31.8438],[77.5285,31.8405],[77.538,31.8425],[77.5461,31.8388],[77.553,31.8406],[77.5608,31.8594],[77.5623,31.8771],[77.5492,31.8842],[77.5255,31.895],[77.5133,31.9023],[77.4868,31.9099],[77.4815,31.9124],[77.4781,31.9176],[77.4676,31.918]]]]},"properties":{"id":"great-himalayan-national-park-np","name":"Great Himalayan National Park","category":"np","area_km2":754.4}}]}