{"type":"FeatureCollection","features":[{"type":"Feature","geometry":{"type":"Polygon","coordinates":[[[75.8838,17.7749],[75.8883,17.7798],[75.885,17.7888],[75.8892,17.7909],[75.8834,17.7928],[75.8769,17.7982],[75.8824,17.8014],[75.8778,17.8055],[75.8793,17.8096],[75.8782,17.8183],[75.886,17.8223],[75.8837,17.8285],[75.8774,17.829],[75.876,17.8379],[75.8782,17.8399],[75.8769,17.8543],[75.8674,17.87],[75.8636,17.8717],[75.8589,17.869],[75.8424,17.8728],[75.8437,17.8669],[75.8513,17.8666],[75.8575,17.8597],[75.8612,17.8613],[75.8624,17.8442],[75.8656,17.8363],[75.861,17.8349],[75.8607,17.8295],[75.8553,17.8291],[75.8595,17.8245],[75.8591,17.8138],[75.8537,17.8133],[75.8561,17.8044],[75.8507,17.7905],[75.8607,17.7845],[75.8717,17.7867],[75.8798,17.7851],[75.88,17.7795],[75.8729,17.7708],[75.8729,17.767],[75.8802,17.7618],[75.8896,17.7642],[75.8877,17.7725],[75.8854,17.7666],[75.8838,17.7749]]]},"properties":{"id":"great-indian-bustard-wls","name":"Great Indian Bustard Wildlife Sanctuary","category":"wls","area_km2":366.7}}]}