{"type":"FeatureCollection","features":[{"type":"Feature","geometry":{"type":"Polygon","coordinates":[[[71.1358,23.7068],[71.1198,23.7033],[71.1212,23.6867],[71.1346,23.669],[71.1373,23.6497],[71.1386,23.6296],[71.1223,23.6333],[71.1056,23.6337],[71.0914,23.6298],[71.0885,23.6246],[71.09,23.6037],[71.0828,23.5984],[71.0767,23.6015],[71.07,23.6093],[71.0477,23.5967],[71.0477,23.5906],[71.0534,23.5775],[71.0659,23.562],[71.0829,23.4947],[71.0791,23.4739],[71.1007,23.4645],[71.0966,23.4546],[71.09,23.4507],[71.0735,23.45],[71.0517,23.4623],[71.0301,23.4603],[71.016,23.4662],[71.0055,23.4636],[71.0018,23.452],[71.0046,23.4418],[70.9981,23.4311],[70.9302,23.3922],[70.8803,23.3661],[70.8835,23.3598],[70.8428,23.346],[70.8261,23.323],[70.815,23.3115],[70.8299,23.2731],[70.7862,23.2578],[70.7971,23.236],[70.763,23.2213],[70.7544,23.2244],[70.7377,23.2093],[70.7268,23.198],[70.7315,23.1875],[70.7615,23.1438],[70.7648,23.1446],[70.8052,23.1608],[70.819,23.1529],[70.8252,23.1477],[70.8428,23.1416],[70.8551,23.1324],[70.8562,23.1288],[70.8783,23.1378],[70.9195,23.1473],[70.9764,23.1566],[70.9825,23.1661],[70.9897,23.1726],[71.0101,23.1779],[71.0359,23.1748],[71.0467,23.1774],[71.0619,23.1848],[71.0838,23.2067],[71.0898,23.2154],[71.0999,23.2211],[71.1118,23.2237],[71.167,23.1958],[71.1947,23.1922],[71.2079,23.185],[71.2226,23.1715],[71.2546,23.1688],[71.372,23.1808],[71.4256,23.1662],[71.5114,23.17],[71.5732,23.1593],[71.6267,23.1441],[71.6631,23.1347],[71.7133,23.1284],[71.7448,23.141],[71.7297,23.1599],[71.6865,23.1991],[71.6824,23.2249],[71.6741,23.2495],[71.6624,23.2742],[71.6501,23.2924],[71.6302,23.3183],[71.6027,23.3631],[71.5835,23.3933],[71.5704,23.4305],[71.5574,23.4614],[71.5301,23.5128],[71.4503,23.5785],[71.4235,23.6118],[71.3453,23.6687],[71.2706,23.6676],[71.271,23.6871],[71.2845,23.7062],[71.2872,23.7234],[71.2849,23.7452],[71.2811,23.7513],[71.2682,23.7556],[71.2563,23.7543],[71.243,23.7504],[71.2183,23.7499],[71.1964,23.7569],[71.1808,23.756],[71.1689,23.7534],[71.1565,23.7452],[71.1503,23.7338],[71.1397,23.7067],[71.1358,23.7068]]]},"properties":{"id":"great-rann-of-kutch-br","name":"Great Rann of Kutch Biosphere Reserve","category":"br","area_km2":12454}}]}