{"type":"FeatureCollection","features":[{"type":"Feature","geometry":{"type":"Polygon","coordinates":[[[76.6395,14.8373],[76.64,14.834],[76.6366,14.8226],[76.6327,14.8149],[76.6334,14.8103],[76.6373,14.807],[76.6399,14.8125],[76.6477,14.8083],[76.6444,14.8069],[76.649,14.7963],[76.6636,14.7901],[76.6725,14.791],[76.6806,14.7996],[76.6875,14.7992],[76.6889,14.8068],[76.6871,14.8097],[76.6946,14.811],[76.7061,14.8169],[76.6976,14.8255],[76.6916,14.8265],[76.678,14.8358],[76.6698,14.8319],[76.6661,14.8368],[76.65,14.8437],[76.6381,14.845],[76.6318,14.8435],[76.6301,14.8392],[76.6244,14.8428],[76.6179,14.8428],[76.6154,14.8395],[76.6201,14.838],[76.6171,14.8354],[76.6189,14.8297],[76.6255,14.8352],[76.629,14.8334],[76.6367,14.8347],[76.6395,14.8373]]]},"properties":{"id":"gudekote-sloth-bear-wls","name":"Gudekote Sloth Bear Sanctuary","category":"wls","area_km2":47.6}}]}