{"type":"FeatureCollection","features":[{"type":"Feature","geometry":{"type":"Polygon","coordinates":[[[76.6086,14.8584],[76.6109,14.8496],[76.6148,14.8515],[76.6207,14.8498],[76.6282,14.8522],[76.6319,14.8493],[76.6373,14.8552],[76.643,14.8564],[76.6496,14.8506],[76.6537,14.8542],[76.6532,14.8625],[76.6581,14.8655],[76.6654,14.8638],[76.6703,14.8587],[76.6772,14.8558],[76.6821,14.8656],[76.6754,14.8786],[76.6646,14.8859],[76.6473,14.8841],[76.6432,14.8892],[76.6518,14.8917],[76.6518,14.8968],[76.6456,14.9017],[76.6323,14.8999],[76.6336,14.8972],[76.622,14.898],[76.6177,14.8955],[76.6166,14.8875],[76.6042,14.8867],[76.5947,14.8879],[76.5926,14.8864],[76.5937,14.8794],[76.6016,14.8792],[76.5975,14.8754],[76.6009,14.8697],[76.6087,14.864],[76.6086,14.8584]]]},"properties":{"id":"gudekote-wls","name":"Gudekote Wildlife Sanctuary","category":"wls","area_km2":47.6}}]}