{"type":"FeatureCollection","features":[{"type":"Feature","geometry":{"type":"Polygon","coordinates":[[[77.2438,21.3762],[77.2396,21.3891],[77.2447,21.3963],[77.2619,21.4007],[77.268,21.407],[77.2806,21.4146],[77.2883,21.4278],[77.2881,21.4379],[77.2974,21.4603],[77.2912,21.4738],[77.2495,21.4775],[77.2305,21.4742],[77.2262,21.4689],[77.2192,21.4662],[77.1692,21.4602],[77.1657,21.4569],[77.1527,21.4495],[77.1445,21.448],[77.135,21.4369],[77.1194,21.4329],[77.1087,21.4263],[77.109,21.4196],[77.1206,21.4114],[77.1251,21.4011],[77.1226,21.3974],[77.1297,21.3826],[77.1113,21.3748],[77.0893,21.3767],[77.0485,21.386],[77.0347,21.3993],[77.031,21.4055],[77.0293,21.4138],[77.0185,21.4189],[77.0012,21.4174],[76.9936,21.4136],[76.9908,21.409],[76.9824,21.4086],[76.9721,21.4151],[76.9681,21.4139],[76.967,21.4034],[76.9698,21.3997],[76.9715,21.3873],[76.9579,21.3802],[76.9537,21.3645],[76.952,21.3354],[76.9405,21.3191],[76.9211,21.3129],[76.9051,21.3065],[76.9258,21.2845],[76.9329,21.2799],[76.944,21.2749],[76.9525,21.2756],[76.9614,21.2737],[76.9816,21.2725],[76.9947,21.2695],[77.009,21.2681],[77.025,21.2698],[77.0371,21.2651],[77.0446,21.2665],[77.0511,21.2621],[77.0598,21.2633],[77.0742,21.2798],[77.083,21.3003],[77.0931,21.306],[77.0986,21.3159],[77.1026,21.3193],[77.1186,21.3202],[77.1419,21.3198],[77.1596,21.3177],[77.1653,21.3188],[77.1718,21.3243],[77.1807,21.3349],[77.1893,21.3365],[77.1997,21.3342],[77.2106,21.3377],[77.2123,21.342],[77.2127,21.353],[77.2224,21.3551],[77.2345,21.3639],[77.2438,21.3762]]]},"properties":{"id":"gugamal-np","name":"Gugamal National Park","category":"np","area_km2":361.3}}]}