{"type":"FeatureCollection","features":[{"type":"Feature","geometry":{"type":"MultiPolygon","coordinates":[[[[78.2109,8.8414],[78.2088,8.8393],[78.2109,8.8342],[78.2164,8.8321],[78.2192,8.8346],[78.2154,8.8421],[78.2109,8.8414]]],[[[78.2277,8.8702],[78.2234,8.8728],[78.2267,8.8663],[78.2277,8.8702]]],[[[78.4881,9.0877],[78.4927,9.0864],[78.4948,9.0913],[78.49,9.0935],[78.4881,9.0877]]],[[[78.5854,9.1113],[78.5793,9.1128],[78.571,9.1011],[78.5801,9.1012],[78.5879,9.1077],[78.5854,9.1113]]],[[[78.8173,9.1582],[78.8263,9.1573],[78.8307,9.1589],[78.8333,9.1656],[78.8278,9.1758],[78.8258,9.1697],[78.8195,9.1651],[78.8173,9.1582]]],[[[78.9123,9.1826],[78.9062,9.1852],[78.8985,9.1792],[78.9189,9.1821],[78.9384,9.1824],[78.9228,9.1844],[78.9123,9.1826]]],[[[78.9665,9.1803],[78.9704,9.1795],[78.9735,9.1867],[78.9679,9.1896],[78.9625,9.1839],[78.9665,9.1803]]],[[[79.081,9.2028],[79.0759,9.2023],[79.0711,9.2052],[79.0704,9.2106],[79.0675,9.2097],[79.057,9.1992],[79.0589,9.196],[79.0656,9.2006],[79.0794,9.1962],[79.0864,9.1917],[79.0913,9.1967],[79.081,9.2028]]],[[[79.1366,9.2178],[79.1228,9.2192],[79.1213,9.2162],[79.1249,9.2119],[79.1389,9.2105],[79.1425,9.2136],[79.1366,9.2178]]],[[[79.2401,9.2425],[79.2324,9.2436],[79.2308,9.2387],[79.2358,9.2389],[79.2401,9.2425]]],[[[79.2151,9.2506],[79.2069,9.2496],[79.1977,9.2526],[79.1909,9.2521],[79.1795,9.2486],[79.1793,9.2382],[79.186,9.2354],[79.1899,9.2309],[79.1993,9.2302],[79.2046,9.2331],[79.2092,9.2387],[79.2229,9.2455],[79.2193,9.2503],[79.2151,9.2506]]]]},"properties":{"id":"gulf-of-mannar-br","name":"Gulf of Mannar Biosphere Reserve","category":"br","area_km2":10500}}]}