{"type":"FeatureCollection","features":[{"type":"Feature","geometry":{"type":"MultiPolygon","coordinates":[[[[78.9958,9.2222],[78.8792,9.2222],[78.875,9.2236],[78.8583,9.2056],[78.6722,9.1542],[78.6944,9.125],[78.75,9.1231],[78.8583,9.1556],[78.875,9.1667],[78.9958,9.1667],[78.9958,9.2222]]],[[[78.3083,8.925],[78.2625,8.975],[78.2333,8.95],[78.1917,8.8167],[78.2417,8.8167],[78.3083,8.925]]],[[[78.6222,9.1042],[78.5778,9.1208],[78.4556,9.0931],[78.475,9.0417],[78.6222,9.1042]]],[[[79.1681,9.2181],[79.1403,9.2217],[79.1028,9.2342],[79.0853,9.2347],[79.0347,9.2181],[79.0347,9.1667],[79.1861,9.1667],[79.1681,9.2181]]],[[[79.2194,9.25],[79.2028,9.2528],[79.1792,9.25],[79.1681,9.2431],[79.1792,9.1944],[79.25,9.2236],[79.25,9.2514],[79.2361,9.2528],[79.2194,9.25]]]]},"properties":{"id":"gulf-of-mannar-marine-biosphere-reserve-ramsar","name":"Gulf of Mannar Marine Biosphere Reserve","category":"ramsar","area_km2":526.7}}]}