{"type":"FeatureCollection","features":[{"type":"Feature","geometry":{"type":"Polygon","coordinates":[[[74.3794,34.0222],[74.3887,34.0239],[74.3939,34.0272],[74.3982,34.0361],[74.4075,34.0411],[74.4164,34.0542],[74.4214,34.07],[74.4193,34.0759],[74.4083,34.0825],[74.4065,34.0886],[74.4091,34.1142],[74.3995,34.1146],[74.3928,34.0968],[74.3751,34.0948],[74.3609,34.1024],[74.3555,34.1082],[74.3429,34.1043],[74.3242,34.0961],[74.3221,34.0925],[74.3352,34.0829],[74.3296,34.0765],[74.3412,34.0685],[74.3448,34.0612],[74.3533,34.0574],[74.3562,34.0517],[74.3758,34.0234],[74.3794,34.0222]]]},"properties":{"id":"gulmarg-wls","name":"Gulmarg Wildlife Sanctuary","category":"wls","area_km2":180}}]}