{"type":"FeatureCollection","features":[{"type":"Feature","geometry":{"type":"Polygon","coordinates":[[[91.7251,23.6278],[91.729,23.605],[91.7325,23.5971],[91.7385,23.5908],[91.744,23.5712],[91.7544,23.5465],[91.7539,23.5411],[91.7605,23.5317],[91.767,23.5179],[91.7743,23.508],[91.7893,23.4901],[91.7881,23.4766],[91.7918,23.466],[91.7981,23.4553],[91.8037,23.4362],[91.8096,23.4096],[91.8189,23.3824],[91.8232,23.3737],[91.8305,23.364],[91.8328,23.3694],[91.8376,23.3708],[91.8362,23.3864],[91.8419,23.3884],[91.8415,23.3997],[91.845,23.4047],[91.851,23.4041],[91.8604,23.4062],[91.8664,23.4109],[91.8636,23.421],[91.8636,23.4513],[91.8498,23.4666],[91.844,23.4697],[91.837,23.486],[91.8345,23.4981],[91.8291,23.5116],[91.8222,23.5456],[91.8266,23.5475],[91.8256,23.553],[91.8202,23.5573],[91.8216,23.561],[91.8127,23.5626],[91.8101,23.5674],[91.8144,23.5795],[91.8186,23.5842],[91.8144,23.5868],[91.8151,23.5917],[91.8075,23.5959],[91.8059,23.6031],[91.8118,23.6037],[91.8131,23.6115],[91.8093,23.612],[91.8102,23.6163],[91.8049,23.6216],[91.8086,23.6275],[91.8058,23.6331],[91.8044,23.6424],[91.8062,23.6488],[91.8106,23.6527],[91.8214,23.6553],[91.8294,23.6543],[91.8477,23.6598],[91.8569,23.6682],[91.8637,23.669],[91.8756,23.6669],[91.8879,23.6792],[91.8986,23.6827],[91.9038,23.6887],[91.9094,23.6911],[91.9143,23.6977],[91.9133,23.704],[91.9094,23.7081],[91.9022,23.7093],[91.8841,23.7172],[91.8691,23.7216],[91.87,23.7264],[91.8645,23.7216],[91.8634,23.7269],[91.8677,23.7255],[91.8669,23.7306],[91.8711,23.7371],[91.8675,23.7361],[91.8605,23.7445],[91.8648,23.7494],[91.8574,23.7515],[91.8587,23.7623],[91.862,23.7637],[91.8602,23.7747],[91.8495,23.7783],[91.8426,23.7842],[91.8437,23.7871],[91.8335,23.7912],[91.8304,23.7864],[91.8283,23.7899],[91.8172,23.7864],[91.8111,23.7928],[91.8091,23.7901],[91.8069,23.797],[91.812,23.7997],[91.806,23.803],[91.807,23.8134],[91.7999,23.8193],[91.7975,23.8156],[91.7954,23.8201],[91.7905,23.8192],[91.797,23.8292],[91.7904,23.8289],[91.7834,23.823],[91.7778,23.8252],[91.7744,23.8216],[91.7693,23.8266],[91.7678,23.8184],[91.7648,23.8198],[91.7583,23.8102],[91.7576,23.8009],[91.7597,23.7978],[91.7548,23.7969],[91.7515,23.8052],[91.7532,23.8114],[91.7483,23.8173],[91.7495,23.8228],[91.744,23.8213],[91.7353,23.824],[91.7311,23.8204],[91.7349,23.8182],[91.7328,23.8104],[91.7264,23.8088],[91.7304,23.8166],[91.7232,23.8182],[91.7126,23.8266],[91.7088,23.8193],[91.7034,23.8167],[91.699,23.81],[91.6982,23.7984],[91.6956,23.7856],[91.6963,23.7739],[91.7,23.7468],[91.7094,23.7471],[91.7134,23.7436],[91.7195,23.7278],[91.7201,23.7191],[91.7126,23.7134],[91.7125,23.7051],[91.72,23.6853],[91.7201,23.6632],[91.7253,23.6456],[91.7251,23.6278]]]},"properties":{"id":"gumti-wls","name":"Gumti Wildlife Sanctuary","category":"wls","area_km2":389.5}}]}