{"type":"FeatureCollection","features":[{"type":"Feature","geometry":{"type":"Polygon","coordinates":[[[78.6121,15.5015],[78.6091,15.4964],[78.6279,15.4726],[78.6259,15.4659],[78.6085,15.4539],[78.6061,15.4478],[78.6073,15.4396],[78.6126,15.4274],[78.6463,15.422],[78.6651,15.4181],[78.6752,15.4138],[78.689,15.4158],[78.6986,15.4253],[78.724,15.4347],[78.7337,15.4313],[78.7411,15.4349],[78.7471,15.433],[78.7517,15.4233],[78.7725,15.4194],[78.7913,15.4143],[78.8053,15.4077],[78.8108,15.4002],[78.823,15.3971],[78.835,15.3975],[78.8497,15.4074],[78.8623,15.4027],[78.8681,15.4085],[78.8691,15.4159],[78.8671,15.4267],[78.8721,15.44],[78.8705,15.4456],[78.8629,15.4489],[78.861,15.4535],[78.8641,15.4553],[78.8898,15.4476],[78.9035,15.448],[78.9091,15.4596],[78.9079,15.4884],[78.9081,15.4997],[78.91,15.5242],[78.9096,15.5332],[78.9124,15.5445],[78.9105,15.564],[78.9153,15.5799],[78.9268,15.6034],[78.9303,15.6204],[78.9278,15.639],[78.923,15.647],[78.9221,15.6557],[78.9247,15.6617],[78.9219,15.6688],[78.9183,15.6697],[78.9055,15.6779],[78.8971,15.6814],[78.8876,15.6816],[78.876,15.6793],[78.87,15.6761],[78.87,15.6816],[78.8834,15.6896],[78.8962,15.694],[78.9012,15.7164],[78.9028,15.728],[78.9012,15.753],[78.9095,15.7594],[78.9192,15.7612],[78.933,15.7715],[78.9364,15.7802],[78.9364,15.7891],[78.9328,15.7932],[78.9245,15.7946],[78.92,15.8008],[78.9188,15.8269],[78.9187,15.8414],[78.9159,15.8455],[78.9045,15.8479],[78.8909,15.8493],[78.8842,15.8513],[78.8838,15.8572],[78.8895,15.8613],[78.9056,15.8657],[78.9102,15.8709],[78.912,15.8782],[78.9007,15.8822],[78.877,15.8741],[78.8628,15.8741],[78.8483,15.8698],[78.8248,15.8826],[78.8162,15.8838],[78.8077,15.8878],[78.784,15.8802],[78.7779,15.8768],[78.7722,15.8764],[78.7386,15.8611],[78.7296,15.8592],[78.7195,15.8623],[78.7063,15.8646],[78.6963,15.8574],[78.6883,15.8542],[78.6834,15.8469],[78.6785,15.8431],[78.6552,15.8436],[78.6533,15.8385],[78.657,15.8313],[78.6494,15.8202],[78.6463,15.8088],[78.6409,15.8052],[78.638,15.7911],[78.6311,15.7871],[78.625,15.7774],[78.6212,15.7756],[78.6201,15.7664],[78.6332,15.7584],[78.636,15.7546],[78.6389,15.7447],[78.641,15.7275],[78.6389,15.7134],[78.6246,15.6921],[78.6166,15.6777],[78.6137,15.6648],[78.6103,15.6556],[78.6104,15.64],[78.6143,15.6382],[78.6225,15.6244],[78.625,15.6084],[78.6214,15.5983],[78.6234,15.5935],[78.621,15.5803],[78.6232,15.5678],[78.6318,15.5635],[78.6307,15.5601],[78.6237,15.5548],[78.6216,15.5476],[78.6154,15.5357],[78.6148,15.5244],[78.6107,15.5157],[78.6127,15.5086],[78.6121,15.5015]]]},"properties":{"id":"gundla-brahmeswaram-wls","name":"Gundla Brahmeswaram Wildlife Sanctuary","category":"wls","area_km2":1193.7}}]}