{"type":"FeatureCollection","features":[{"type":"Feature","geometry":{"type":"Polygon","coordinates":[[[82.1763,23.8201],[82.1715,23.8183],[82.1619,23.8215],[82.1437,23.8163],[82.1285,23.8198],[82.1215,23.8228],[82.1148,23.8179],[82.1049,23.8195],[82.0937,23.8166],[82.0817,23.8164],[82.0761,23.8195],[82.0705,23.818],[82.0602,23.82],[82.0527,23.8194],[82.0477,23.825],[82.0385,23.8268],[82.0388,23.833],[82.0447,23.8409],[82.0333,23.8472],[82.02,23.8494],[82.0092,23.8608],[81.9997,23.8628],[81.9889,23.8605],[81.9814,23.8607],[81.9775,23.8563],[81.9703,23.8572],[81.9633,23.8536],[81.9561,23.8529],[81.9537,23.8573],[81.9461,23.8588],[81.9456,23.8622],[81.939,23.8621],[81.9395,23.8678],[81.9313,23.8705],[81.9215,23.8709],[81.9154,23.8587],[81.9104,23.8572],[81.9046,23.8448],[81.8987,23.8407],[81.8922,23.8405],[81.8882,23.8355],[81.8677,23.8341],[81.8631,23.8245],[81.8407,23.8218],[81.8368,23.8161],[81.8276,23.8139],[81.8234,23.8079],[81.8152,23.8064],[81.8166,23.7992],[81.8284,23.7981],[81.8234,23.7933],[81.8236,23.7849],[81.8323,23.7826],[81.8373,23.7789],[81.8393,23.7729],[81.8848,23.781],[81.9044,23.7793],[81.8999,23.7776],[81.9046,23.775],[81.9057,23.7607],[81.911,23.7606],[81.9169,23.7549],[81.9131,23.7513],[81.9136,23.7465],[81.9208,23.7402],[81.9227,23.7325],[81.9287,23.7305],[81.9374,23.7349],[81.9412,23.7387],[81.9524,23.7405],[81.9578,23.7396],[81.979,23.7437],[81.9777,23.7478],[81.9849,23.749],[81.9892,23.7467],[82.002,23.7558],[82.0069,23.7556],[82.0152,23.7599],[82.0364,23.754],[82.0414,23.7512],[82.0574,23.7505],[82.0679,23.76],[82.0752,23.7603],[82.0726,23.7559],[82.0734,23.7503],[82.0822,23.7458],[82.0842,23.7407],[82.0644,23.7316],[82.0701,23.7238],[82.0671,23.7179],[82.0886,23.7103],[82.0936,23.702],[82.1039,23.7089],[82.1139,23.7033],[82.122,23.7004],[82.1195,23.6944],[82.1251,23.6915],[82.1328,23.6949],[82.1449,23.6977],[82.1452,23.7013],[82.1501,23.6995],[82.1531,23.6908],[82.1567,23.6908],[82.1637,23.6834],[82.1686,23.6834],[82.166,23.6779],[82.1706,23.6676],[82.1741,23.6641],[82.173,23.6587],[82.169,23.6556],[82.1728,23.6527],[82.1735,23.6473],[82.1788,23.6461],[82.1756,23.6419],[82.1741,23.6338],[82.179,23.6301],[82.1748,23.6254],[82.1745,23.6166],[82.1714,23.6122],[82.1864,23.6081],[82.1921,23.616],[82.197,23.6194],[82.2009,23.6179],[82.2171,23.6232],[82.2289,23.6304],[82.2445,23.6311],[82.2529,23.6277],[82.2598,23.6284],[82.3066,23.6424],[82.3199,23.6469],[82.333,23.6528],[82.3558,23.6672],[82.3612,23.68],[82.3655,23.6829],[82.3814,23.6866],[82.4104,23.6818],[82.4199,23.6826],[82.4451,23.6896],[82.4699,23.7005],[82.491,23.7112],[82.497,23.7129],[82.5103,23.7114],[82.5174,23.707],[82.5181,23.6985],[82.511,23.6922],[82.5003,23.6881],[82.4915,23.6807],[82.4858,23.6789],[82.4694,23.6805],[82.4601,23.6772],[82.4568,23.6696],[82.4527,23.6678],[82.4402,23.6731],[82.4264,23.6711],[82.4075,23.6643],[82.3831,23.6496],[82.3814,23.6369],[82.3862,23.6254],[82.4,23.6043],[82.4146,23.5866],[82.4387,23.5432],[82.4725,23.5196],[82.4808,23.5132],[82.491,23.511],[82.5359,23.5047],[82.5459,23.5019],[82.555,23.5012],[82.5668,23.508],[82.5723,23.5186],[82.5696,23.5407],[82.5703,23.5706],[82.5695,23.5758],[82.5801,23.6208],[82.5897,23.6378],[82.5956,23.6537],[82.5968,23.6622],[82.5847,23.6833],[82.5795,23.695],[82.5645,23.7196],[82.5635,23.7292],[82.5737,23.7368],[82.5935,23.746],[82.5932,23.7577],[82.5894,23.7647],[82.578,23.7725],[82.5609,23.7795],[82.5515,23.7906],[82.5418,23.7915],[82.5381,23.7943],[82.5253,23.7841],[82.511,23.786],[82.4974,23.7849],[82.489,23.7899],[82.484,23.8005],[82.479,23.806],[82.4708,23.8106],[82.4536,23.8128],[82.4468,23.8101],[82.4434,23.8055],[82.4162,23.804],[82.3936,23.7999],[82.3906,23.8052],[82.3739,23.812],[82.3612,23.8109],[82.3498,23.8045],[82.3387,23.8084],[82.3369,23.804],[82.3161,23.8115],[82.3031,23.8127],[82.3022,23.8084],[82.2961,23.808],[82.2827,23.8166],[82.2682,23.8184],[82.2595,23.821],[82.2518,23.8167],[82.2446,23.8096],[82.238,23.8056],[82.2277,23.8072],[82.2249,23.8205],[82.2069,23.8266],[82.2081,23.8349],[82.212,23.8358],[82.2153,23.841],[82.2095,23.8527],[82.1987,23.849],[82.195,23.8424],[82.1905,23.8429],[82.1809,23.8363],[82.1786,23.8216],[82.1763,23.8201]]]},"properties":{"id":"guru-ghasidas-tamor-pingla-tr","name":"Guru Ghasidas-Tamor Pingla Tiger Reserve","category":"tr","area_km2":2829}}]}