{"type":"FeatureCollection","features":[{"type":"Feature","geometry":{"type":"Polygon","coordinates":[[[86.2582,21.3868],[86.2589,21.3927],[86.2542,21.3985],[86.2537,21.4054],[86.2572,21.4099],[86.2595,21.4186],[86.2588,21.4309],[86.2608,21.434],[86.2696,21.4397],[86.2703,21.4447],[86.2607,21.446],[86.2531,21.4445],[86.242,21.4364],[86.2348,21.4277],[86.2284,21.4238],[86.222,21.4247],[86.2147,21.4192],[86.2126,21.4117],[86.2162,21.4066],[86.2303,21.4001],[86.237,21.3904],[86.2378,21.3809],[86.2343,21.3764],[86.2217,21.3716],[86.2159,21.3751],[86.2123,21.3852],[86.2093,21.3874],[86.1956,21.3878],[86.1868,21.3758],[86.1765,21.3702],[86.1635,21.3715],[86.1601,21.3735],[86.1557,21.3811],[86.1503,21.3808],[86.1477,21.3728],[86.1481,21.365],[86.1546,21.3601],[86.1461,21.3449],[86.1484,21.3347],[86.1541,21.3335],[86.1644,21.3416],[86.1735,21.3391],[86.1912,21.3414],[86.2127,21.339],[86.2196,21.3348],[86.2256,21.3222],[86.2162,21.2965],[86.2159,21.2868],[86.2217,21.2828],[86.2157,21.2778],[86.216,21.2735],[86.2257,21.2659],[86.2288,21.257],[86.2424,21.2514],[86.2393,21.2467],[86.2343,21.2513],[86.2269,21.2537],[86.2231,21.2456],[86.2249,21.2343],[86.2341,21.2276],[86.2293,21.2097],[86.2324,21.1908],[86.2381,21.1902],[86.244,21.1963],[86.2492,21.208],[86.2565,21.2099],[86.2537,21.2153],[86.2552,21.2258],[86.2581,21.2254],[86.2641,21.2158],[86.2727,21.2119],[86.2792,21.2149],[86.2813,21.2208],[86.2779,21.2259],[86.2825,21.2294],[86.2823,21.2343],[86.2866,21.2399],[86.2896,21.2547],[86.2873,21.2655],[86.2934,21.2654],[86.2995,21.278],[86.299,21.2874],[86.3032,21.2864],[86.3095,21.2778],[86.3155,21.2775],[86.3157,21.2827],[86.3218,21.2857],[86.3393,21.2748],[86.3463,21.2718],[86.3525,21.2808],[86.3391,21.2822],[86.3281,21.2888],[86.3271,21.2926],[86.3329,21.2995],[86.3301,21.3052],[86.3338,21.3109],[86.323,21.3083],[86.3194,21.311],[86.3148,21.3094],[86.3136,21.3035],[86.3098,21.3038],[86.3067,21.3108],[86.3211,21.3157],[86.3177,21.3213],[86.3225,21.3267],[86.3093,21.3294],[86.3042,21.3226],[86.2999,21.3232],[86.3055,21.3275],[86.3064,21.3316],[86.2997,21.337],[86.2933,21.3366],[86.2873,21.3414],[86.2891,21.3522],[86.2854,21.3608],[86.2806,21.3499],[86.2769,21.3521],[86.2763,21.348],[86.2681,21.3467],[86.2693,21.3601],[86.2682,21.3708],[86.2594,21.3801],[86.2582,21.3868]]]},"properties":{"id":"hadgarh-wls","name":"Hadgarh Wildlife Sanctuary","category":"wls","area_km2":191.1}}]}