{"type":"FeatureCollection","features":[{"type":"Feature","geometry":{"type":"Polygon","coordinates":[[[94.3045,26.6928],[94.3111,26.6847],[94.3162,26.6888],[94.3225,26.6842],[94.3166,26.677],[94.3256,26.6711],[94.3402,26.6753],[94.3459,26.6684],[94.3482,26.661],[94.3603,26.666],[94.3569,26.6735],[94.3573,26.6874],[94.3615,26.6906],[94.3627,26.6975],[94.3611,26.7068],[94.3631,26.7158],[94.3675,26.7202],[94.3719,26.7292],[94.3679,26.736],[94.3663,26.7246],[94.3613,26.7226],[94.3615,26.7192],[94.349,26.7153],[94.3464,26.7089],[94.3466,26.7028],[94.3164,26.7063],[94.322,26.701],[94.3045,26.6928]]]},"properties":{"id":"hallongapara-gibbon-wls","name":"Hallongapara Gibbon Wildlife Sanctuary","category":"wls","area_km2":21}}]}