{"type":"FeatureCollection","features":[{"type":"Feature","geometry":{"type":"Polygon","coordinates":[[[74.9935,31.1422],[74.9897,31.1457],[75.0036,31.1459],[75.0116,31.1446],[75.019,31.1405],[75.0157,31.1468],[75.017,31.1507],[75.0263,31.1515],[75.0306,31.1543],[75.0415,31.1553],[75.0471,31.1602],[75.0477,31.1652],[75.0403,31.1743],[75.0304,31.1786],[75.0423,31.1879],[75.0383,31.1978],[75.0318,31.2085],[75.0249,31.2093],[75.0126,31.2081],[75.0072,31.1991],[75.0031,31.1963],[74.9903,31.195],[74.9799,31.1891],[74.9763,31.1794],[74.9671,31.1695],[74.9592,31.1655],[74.9401,31.1602],[74.9418,31.1521],[74.9398,31.1479],[74.9455,31.1482],[74.9475,31.1427],[74.9511,31.1423],[74.9558,31.1337],[74.9804,31.1262],[74.9943,31.117],[74.9998,31.1152],[75.017,31.1127],[75.0118,31.1167],[75.0192,31.1253],[75.0119,31.1332],[75.0057,31.1327],[75.0072,31.1378],[74.9935,31.1422]]]},"properties":{"id":"harike-lake-wls","name":"Harike Lake Wildlife Sanctuary","category":"wls","area_km2":86}}]}