{"type":"FeatureCollection","features":[{"type":"Feature","geometry":{"type":"Polygon","coordinates":[[[74.9798,31.1259],[74.9977,31.1145],[75.0181,31.1123],[75.0109,31.1168],[75.0182,31.1229],[75.0186,31.1299],[74.997,31.1418],[74.9923,31.1413],[74.9889,31.145],[74.9958,31.1473],[75.0035,31.1456],[75.0102,31.148],[75.0141,31.1457],[75.016,31.1516],[75.0214,31.152],[75.0181,31.1575],[75.011,31.1604],[75.0236,31.16],[75.0219,31.1558],[75.0278,31.154],[75.0415,31.1553],[75.0471,31.1602],[75.046,31.1676],[75.0334,31.1641],[75.0196,31.1711],[75.0066,31.1734],[74.9982,31.1718],[74.997,31.1746],[75.0231,31.1775],[75.0331,31.1719],[75.0304,31.1786],[75.0423,31.1879],[75.0416,31.1916],[75.0352,31.1847],[75.0368,31.1905],[75.0259,31.1925],[75.0158,31.1918],[75.0126,31.1887],[75.0101,31.1953],[75.0029,31.1929],[75.0039,31.1969],[74.9937,31.1933],[74.9855,31.1928],[74.9788,31.1889],[74.9743,31.1775],[74.9671,31.1695],[74.9592,31.1655],[74.9389,31.1602],[74.9418,31.154],[74.94,31.1473],[74.9455,31.1482],[74.9475,31.1427],[74.9515,31.1428],[74.9546,31.1344],[74.9798,31.1259]]]},"properties":{"id":"harike-lake-ramsar","name":"Harike Lake","category":"ramsar","area_km2":41}}]}