{"type":"FeatureCollection","features":[{"type":"Feature","geometry":{"type":"Polygon","coordinates":[[[77.9679,29.6196],[77.9182,29.619],[77.8873,29.5802],[77.8864,29.5342],[77.8942,29.5012],[77.9282,29.4669],[77.9305,29.4183],[77.94,29.3842],[77.9659,29.3431],[77.9502,29.2963],[77.9799,29.2608],[77.9662,29.2153],[77.965,29.1701],[77.975,29.1239],[77.9768,29.0791],[77.9752,29.0306],[77.9989,28.9916],[78.0139,28.9431],[78.0197,28.8937],[78.0438,28.8515],[78.0621,28.805],[78.0805,28.7941],[78.1228,28.7906],[78.1929,28.8167],[78.2274,28.8345],[78.2387,28.8582],[78.2555,28.9058],[78.2672,28.9549],[78.2773,29.0029],[78.2829,29.0532],[78.285,29.1038],[78.2752,29.1495],[78.2529,29.1926],[78.227,29.235],[78.1396,29.2748],[78.1299,29.3191],[78.1497,29.3654],[78.1476,29.4097],[78.1429,29.4585],[78.1432,29.5029],[78.144,29.5503],[78.1017,29.5768],[78.0582,29.6006],[78.0196,29.5994],[78.0152,29.5873],[78.0216,29.5809],[78.0008,29.5863],[77.9935,29.5913],[77.9869,29.5847],[77.9751,29.585],[77.9731,29.5804],[77.9616,29.5821],[77.9585,29.5853],[77.9403,29.5928],[77.9333,29.6006],[77.9428,29.6087],[77.9484,29.617],[77.957,29.6125],[77.9669,29.6115],[77.9777,29.6135],[77.9679,29.6196]]]},"properties":{"id":"hastinapur-wls","name":"Hastinapur Wildlife Sanctuary","category":"wls","area_km2":2073}}]}