{"type":"FeatureCollection","features":[{"type":"Feature","geometry":{"type":"Polygon","coordinates":[[[85.4595,24.1655],[85.4467,24.1678],[85.4374,24.1624],[85.4251,24.162],[85.4107,24.1677],[85.4079,24.1652],[85.4041,24.1687],[85.3849,24.1672],[85.3965,24.1637],[85.3969,24.1621],[85.3816,24.1627],[85.3814,24.1559],[85.3786,24.155],[85.3643,24.1594],[85.3588,24.168],[85.3488,24.1735],[85.3359,24.1757],[85.3342,24.1737],[85.3404,24.168],[85.3388,24.1629],[85.3321,24.1604],[85.3258,24.1538],[85.3077,24.1544],[85.3055,24.1575],[85.2836,24.1585],[85.268,24.1576],[85.2576,24.1555],[85.255,24.1567],[85.2619,24.1636],[85.2596,24.1643],[85.2487,24.1569],[85.247,24.1522],[85.2499,24.1489],[85.2384,24.1452],[85.2375,24.1422],[85.2298,24.1399],[85.2328,24.1378],[85.2471,24.1376],[85.2624,24.1338],[85.2598,24.126],[85.2524,24.1219],[85.2609,24.1117],[85.2688,24.1098],[85.2748,24.1054],[85.2709,24.1047],[85.2694,24.0984],[85.2744,24.0948],[85.2801,24.0968],[85.2804,24.1012],[85.2876,24.104],[85.292,24.1081],[85.2951,24.1048],[85.3029,24.107],[85.309,24.1113],[85.3135,24.1109],[85.3204,24.1059],[85.3225,24.0959],[85.3364,24.0974],[85.3401,24.1028],[85.3449,24.1046],[85.346,24.112],[85.3523,24.1178],[85.3671,24.1121],[85.376,24.11],[85.3718,24.1169],[85.3738,24.1182],[85.3848,24.1163],[85.3899,24.1121],[85.4122,24.1085],[85.4228,24.1109],[85.4225,24.115],[85.4331,24.1155],[85.4346,24.1204],[85.4406,24.1177],[85.4406,24.122],[85.446,24.1238],[85.4533,24.131],[85.4613,24.1351],[85.4687,24.1352],[85.4728,24.1318],[85.4788,24.1335],[85.4807,24.1415],[85.4747,24.1462],[85.4704,24.1548],[85.4708,24.1605],[85.4748,24.1633],[85.479,24.1706],[85.4759,24.1719],[85.4709,24.168],[85.4595,24.1655]]]},"properties":{"id":"hazaribagh-wls","name":"Hazaribagh Wildlife Sanctuary","category":"wls","area_km2":186.3}}]}