{"type":"FeatureCollection","features":[{"type":"Feature","geometry":{"type":"Polygon","coordinates":[[[77.2132,33.3494],[77.2251,33.3286],[77.2382,33.3325],[77.2465,33.3435],[77.2655,33.3514],[77.2905,33.3504],[77.3035,33.3474],[77.3261,33.3603],[77.3463,33.3852],[77.3701,33.3842],[77.3915,33.3941],[77.4034,33.3971],[77.4354,33.3911],[77.4699,33.3951],[77.4889,33.402],[77.5115,33.404],[77.5353,33.402],[77.5489,33.4045],[77.5531,33.408],[77.5773,33.4168],[77.6084,33.4505],[77.6208,33.4734],[77.6268,33.5002],[77.628,33.521],[77.6173,33.5517],[77.5911,33.6111],[77.5609,33.6542],[77.5633,33.6737],[77.5518,33.6877],[77.5609,33.6946],[77.5821,33.7172],[77.6149,33.7219],[77.6292,33.7278],[77.6494,33.7426],[77.666,33.7594],[77.6901,33.7798],[77.7212,33.7881],[77.736,33.8069],[77.7439,33.8217],[77.7485,33.8557],[77.7542,33.8782],[77.7401,33.8951],[77.7338,33.8983],[77.7245,33.9069],[77.7071,33.93],[77.6909,33.9467],[77.6606,33.9644],[77.6192,33.9868],[77.6174,34.0125],[77.5981,34.0303],[77.5742,34.062],[77.5347,34.0486],[77.5287,34.0575],[77.543,34.0785],[77.5212,34.0915],[77.4903,34.1064],[77.4784,34.1089],[77.4602,34.1102],[77.4345,34.1214],[77.4251,34.1203],[77.4169,34.1229],[77.409,34.1352],[77.4052,34.1375],[77.4007,34.1352],[77.3914,34.1373],[77.3807,34.1483],[77.3755,34.1509],[77.3598,34.1505],[77.3511,34.1566],[77.3437,34.1558],[77.3351,34.1621],[77.3249,34.1666],[77.3128,34.1701],[77.2988,34.1676],[77.2855,34.1617],[77.2668,34.1589],[77.2319,34.1568],[77.2108,34.1546],[77.2017,34.164],[77.1936,34.1664],[77.1689,34.1707],[77.1571,34.1707],[77.1494,34.1733],[77.1398,34.1739],[77.1238,34.1724],[77.1004,34.1625],[77.0854,34.154],[77.0706,34.1556],[77.0524,34.1652],[77.0336,34.1648],[77.0196,34.1607],[77.0118,34.1507],[76.9968,34.1371],[76.9899,34.1249],[76.993,34.1165],[77.0072,34.1029],[77.0241,34.0935],[77.0383,34.0872],[77.049,34.0766],[77.0932,34.0662],[77.1217,34.0534],[77.1407,34.0455],[77.1657,34.0297],[77.1823,34.013],[77.1978,33.9943],[77.2108,33.9716],[77.2251,33.945],[77.2346,33.9124],[77.2346,33.8858],[77.2287,33.8552],[77.2061,33.8236],[77.1788,33.8049],[77.1597,33.796],[77.1348,33.7782],[77.1241,33.7673],[77.1098,33.7486],[77.1075,33.7337],[77.1122,33.708],[77.1241,33.6912],[77.1407,33.6833],[77.1597,33.6724],[77.1776,33.6497],[77.1811,33.617],[77.1586,33.5854],[77.1479,33.5636],[77.1621,33.5477],[77.1752,33.5349],[77.1859,33.52],[77.199,33.4913],[77.1978,33.4685],[77.193,33.4586],[77.1799,33.4377],[77.1799,33.4238],[77.1859,33.3971],[77.2001,33.3742],[77.2132,33.3494]]]},"properties":{"id":"hemis-np","name":"Hemis National Park","category":"np","area_km2":3350}}]}