{"type":"FeatureCollection","features":[{"type":"Feature","geometry":{"type":"MultiPolygon","coordinates":[[[[83.4949,21.6409],[83.4895,21.6345],[83.4888,21.6301],[83.4825,21.6305],[83.4756,21.6225],[83.4843,21.623],[83.4786,21.6159],[83.4771,21.6094],[83.4747,21.6086],[83.4743,21.6041],[83.4775,21.5998],[83.4757,21.6083],[83.4801,21.6082],[83.4827,21.6056],[83.4809,21.613],[83.4855,21.6073],[83.4846,21.6145],[83.4879,21.6184],[83.4927,21.6335],[83.4935,21.6279],[83.4963,21.6316],[83.5018,21.6305],[83.504,21.6381],[83.4959,21.6374],[83.502,21.6436],[83.5062,21.6509],[83.5192,21.6563],[83.5268,21.6636],[83.5306,21.6703],[83.5333,21.6684],[83.5291,21.6557],[83.5324,21.6606],[83.5381,21.6589],[83.5387,21.6629],[83.5471,21.6645],[83.5411,21.6663],[83.5435,21.6708],[83.5492,21.6723],[83.5469,21.6767],[83.5385,21.6696],[83.5338,21.6693],[83.538,21.6756],[83.5362,21.678],[83.5434,21.6912],[83.5435,21.7005],[83.5466,21.7127],[83.5447,21.7166],[83.5489,21.7255],[83.559,21.7242],[83.5655,21.7214],[83.568,21.7282],[83.572,21.7276],[83.5769,21.7221],[83.5809,21.7273],[83.5834,21.7187],[83.5893,21.7225],[83.5899,21.7152],[83.5828,21.7129],[83.5946,21.7137],[83.5993,21.7093],[83.6021,21.7133],[83.5983,21.7167],[83.5984,21.727],[83.6082,21.7136],[83.6114,21.7159],[83.6111,21.7104],[83.6168,21.7065],[83.6107,21.6989],[83.616,21.6941],[83.6143,21.7023],[83.6207,21.7],[83.6179,21.7042],[83.6212,21.7062],[83.6331,21.6998],[83.6469,21.6972],[83.6514,21.6938],[83.6582,21.6945],[83.6602,21.6903],[83.6639,21.694],[83.666,21.6872],[83.675,21.6847],[83.676,21.6764],[83.6786,21.6756],[83.6882,21.665],[83.7049,21.6518],[83.7096,21.6435],[83.7098,21.6362],[83.7127,21.6313],[83.7174,21.6329],[83.718,21.629],[83.7089,21.6305],[83.7086,21.6255],[83.7041,21.632],[83.7015,21.6287],[83.6961,21.6321],[83.6951,21.6266],[83.6888,21.6346],[83.68,21.63],[83.687,21.6304],[83.6872,21.6221],[83.6938,21.6173],[83.6881,21.6128],[83.6889,21.607],[83.6847,21.6058],[83.6867,21.6016],[83.6828,21.5976],[83.685,21.5927],[83.6739,21.5832],[83.6762,21.5789],[83.6808,21.5868],[83.6838,21.5844],[83.6851,21.5892],[83.6899,21.589],[83.6903,21.5924],[83.6964,21.5956],[83.6975,21.6001],[83.7048,21.6123],[83.7071,21.6087],[83.712,21.6083],[83.7137,21.6044],[83.7223,21.5974],[83.7307,21.6047],[83.7315,21.6006],[83.7416,21.5862],[83.7465,21.5864],[83.7524,21.5818],[83.7516,21.5769],[83.7456,21.5703],[83.7492,21.5665],[83.7489,21.559],[83.7558,21.555],[83.7551,21.544],[83.7582,21.5349],[83.7672,21.5306],[83.7703,21.5328],[83.7764,21.5269],[83.7724,21.515],[83.7742,21.5093],[83.7712,21.5053],[83.7731,21.5017],[83.7817,21.5043],[83.7916,21.4995],[83.7951,21.4957],[83.8025,21.4936],[83.8113,21.4842],[83.8229,21.4871],[83.8288,21.4846],[83.8331,21.478],[83.8392,21.4762],[83.8473,21.4812],[83.8588,21.4796],[83.8553,21.4864],[83.8524,21.5008],[83.8541,21.5079],[83.8498,21.5118],[83.8468,21.5212],[83.8515,21.5166],[83.8876,21.5435],[83.8848,21.5529],[83.8887,21.5467],[83.8937,21.5514],[83.9019,21.5501],[83.9038,21.5523],[83.9187,21.5481],[83.927,21.5497],[83.9343,21.5488],[83.9393,21.5542],[83.9543,21.5599],[83.9753,21.5601],[83.9896,21.5759],[83.9951,21.5746],[83.9939,21.584],[83.9976,21.5809],[84.0045,21.5868],[84.0027,21.5942],[83.9963,21.5955],[83.9988,21.6042],[84.0051,21.5959],[84.0055,21.6016],[84.0106,21.5991],[84.0171,21.6011],[84.0164,21.5965],[84.0233,21.6005],[84.0274,21.5996],[84.0318,21.6058],[84.021,21.608],[84.0355,21.6157],[84.0359,21.6201],[84.0303,21.6223],[84.0322,21.6277],[84.012,21.6242],[84.0083,21.628],[84.0082,21.6352],[83.9994,21.6304],[83.995,21.6351],[83.9894,21.6356],[83.9863,21.6536],[83.9808,21.6541],[83.9847,21.6571],[83.9852,21.6633],[83.9819,21.6645],[83.981,21.6719],[83.9745,21.6789],[83.9729,21.6923],[83.9709,21.6978],[83.9745,21.7009],[83.9743,21.7067],[83.9826,21.7008],[83.9976,21.6956],[84.0059,21.6951],[84.0147,21.6881],[84.0155,21.6843],[84.0192,21.6869],[84.023,21.6815],[84.0255,21.6839],[84.0359,21.6785],[84.0409,21.6848],[84.0459,21.6871],[84.0393,21.6898],[84.031,21.6864],[84.0296,21.6901],[84.0219,21.6933],[84.0278,21.6975],[84.0232,21.6975],[84.0217,21.7012],[84.0278,21.7023],[84.0255,21.7106],[84.0321,21.715],[84.0278,21.7192],[84.0234,21.7185],[84.0194,21.7062],[84.0149,21.7042],[84.014,21.713],[84.0193,21.7176],[84.0179,21.7245],[84.0151,21.7175],[84.0101,21.7146],[84.0018,21.7151],[84.0039,21.711],[83.9991,21.7099],[83.9961,21.7146],[83.9909,21.7152],[83.9832,21.7195],[83.9841,21.7252],[83.9886,21.7309],[83.9796,21.7307],[83.9765,21.7325],[83.9768,21.7235],[83.97,21.7281],[83.9608,21.7278],[83.9662,21.7212],[83.9717,21.7102],[83.9657,21.7136],[83.9608,21.7225],[83.9536,21.7227],[83.9484,21.7275],[83.9489,21.7376],[83.9449,21.7423],[83.9514,21.7483],[83.9458,21.746],[83.9431,21.7515],[83.9456,21.7562],[83.9494,21.7543],[83.9564,21.7562],[83.9499,21.7587],[83.9513,21.7637],[83.9439,21.7618],[83.9431,21.767],[83.9388,21.7661],[83.9287,21.7714],[83.9277,21.7757],[83.9307,21.7824],[83.9224,21.7719],[83.9248,21.78],[83.9378,21.7877],[83.936,21.7931],[83.9295,21.7935],[83.9322,21.7965],[83.9295,21.8031],[83.9257,21.7948],[83.926,21.7885],[83.9198,21.7952],[83.9227,21.7886],[83.9192,21.7807],[83.9137,21.7774],[83.9111,21.7691],[83.9069,21.7767],[83.907,21.7705],[83.8999,21.7737],[83.8942,21.7654],[83.8878,21.7714],[83.8853,21.7685],[83.8896,21.7643],[83.8991,21.7648],[83.9085,21.7612],[83.9043,21.7562],[83.9181,21.7593],[83.9157,21.7607],[83.9184,21.7667],[83.9283,21.7637],[83.9358,21.7548],[83.9321,21.749],[83.9279,21.7544],[83.9299,21.7435],[83.9272,21.7421],[83.9318,21.7364],[83.9276,21.7325],[83.9191,21.7322],[83.9226,21.7285],[83.9329,21.7295],[83.9322,21.7217],[83.9352,21.7165],[83.9304,21.7128],[83.9375,21.7098],[83.9447,21.711],[83.9429,21.7051],[83.9486,21.7106],[83.955,21.7069],[83.9559,21.6997],[83.9521,21.7019],[83.9464,21.6942],[83.9408,21.6951],[83.9452,21.6901],[83.9446,21.6836],[83.9478,21.6863],[83.9515,21.6833],[83.9467,21.6794],[83.9511,21.6774],[83.959,21.683],[83.961,21.6799],[83.9604,21.6721],[83.9521,21.6715],[83.9463,21.6659],[83.9534,21.6595],[83.9614,21.6642],[83.9603,21.6601],[83.9538,21.6568],[83.9562,21.6541],[83.9553,21.6459],[83.9618,21.6458],[83.9569,21.6391],[83.9639,21.6308],[83.9601,21.628],[83.9552,21.6371],[83.9491,21.6363],[83.9501,21.6436],[83.9467,21.6389],[83.9413,21.644],[83.9355,21.645],[83.9417,21.6408],[83.938,21.6378],[83.9439,21.6364],[83.9428,21.6313],[83.949,21.6317],[83.9524,21.6276],[83.9448,21.6251],[83.9531,21.6237],[83.9556,21.6208],[83.9516,21.6187],[83.9471,21.6207],[83.9471,21.6135],[83.9535,21.6092],[83.959,21.6119],[83.9554,21.6056],[83.9607,21.5951],[83.954,21.5937],[83.9544,21.6009],[83.9469,21.6009],[83.9471,21.5953],[83.9406,21.6031],[83.942,21.6121],[83.9443,21.6133],[83.9392,21.6189],[83.9389,21.6236],[83.9317,21.6218],[83.9329,21.6139],[83.9196,21.6192],[83.9262,21.6054],[83.9188,21.6111],[83.9152,21.6086],[83.9083,21.6085],[83.9101,21.603],[83.9032,21.6001],[83.8995,21.6026],[83.8985,21.6081],[83.9069,21.61],[83.9081,21.6126],[83.9019,21.6158],[83.9023,21.6197],[83.8956,21.6182],[83.894,21.6205],[83.8892,21.6136],[83.891,21.6082],[83.887,21.6093],[83.8873,21.6161],[83.8808,21.6198],[83.8831,21.6277],[83.8802,21.6336],[83.8952,21.632],[83.8954,21.6286],[83.9103,21.6301],[83.9109,21.6385],[83.9056,21.6403],[83.9084,21.645],[83.9023,21.644],[83.9041,21.649],[83.9124,21.6487],[83.9078,21.6518],[83.9079,21.6553],[83.9157,21.6597],[83.9059,21.6611],[83.9065,21.6674],[83.9012,21.6681],[83.9002,21.6741],[83.9068,21.6781],[83.9136,21.6727],[83.9129,21.6811],[83.9196,21.685],[83.9098,21.684],[83.9061,21.6908],[83.8996,21.6922],[83.902,21.6953],[83.8971,21.697],[83.8926,21.6927],[83.8914,21.6996],[83.8839,21.705],[83.8862,21.7128],[83.883,21.7147],[83.8812,21.7028],[83.8866,21.6952],[83.8836,21.6922],[83.8863,21.6883],[83.8772,21.6862],[83.8829,21.6826],[83.8814,21.6764],[83.8746,21.6746],[83.8722,21.6828],[83.8669,21.679],[83.8708,21.6728],[83.8676,21.6698],[83.872,21.6662],[83.8671,21.6638],[83.8662,21.6576],[83.8597,21.6659],[83.8655,21.6655],[83.8661,21.6726],[83.8553,21.6739],[83.8592,21.6794],[83.8568,21.6865],[83.8509,21.681],[83.8558,21.6898],[83.852,21.6881],[83.8474,21.6931],[83.8449,21.6903],[83.849,21.6813],[83.8461,21.6806],[83.8412,21.6879],[83.8425,21.6817],[83.8384,21.6853],[83.8439,21.6764],[83.8447,21.6682],[83.8495,21.6662],[83.8459,21.6636],[83.8412,21.6706],[83.8404,21.6644],[83.8366,21.672],[83.8345,21.6679],[83.8379,21.6582],[83.8313,21.6617],[83.8296,21.6664],[83.8291,21.679],[83.8239,21.6798],[83.8251,21.6736],[83.8174,21.6743],[83.8161,21.679],[83.8071,21.6792],[83.8007,21.6811],[83.8141,21.6711],[83.8105,21.6682],[83.8143,21.666],[83.8133,21.6616],[83.8227,21.6552],[83.8286,21.6468],[83.837,21.6419],[83.8314,21.6389],[83.8364,21.6337],[83.8446,21.63],[83.8417,21.6277],[83.8434,21.6197],[83.8376,21.6203],[83.8357,21.6254],[83.8272,21.6346],[83.8279,21.6385],[83.8205,21.6411],[83.8168,21.6446],[83.8129,21.6566],[83.8108,21.6544],[83.8087,21.6611],[83.8042,21.6593],[83.8002,21.6653],[83.7958,21.6594],[83.7995,21.6527],[83.7979,21.6427],[83.7916,21.6468],[83.7854,21.6471],[83.783,21.6514],[83.777,21.6464],[83.7787,21.6395],[83.7735,21.642],[83.7747,21.6517],[83.7704,21.6541],[83.7761,21.6552],[83.7742,21.6614],[83.7692,21.6623],[83.7696,21.6689],[83.767,21.6712],[83.7672,21.6782],[83.7624,21.6786],[83.7566,21.6679],[83.7557,21.6747],[83.7507,21.6762],[83.7578,21.6782],[83.7546,21.6844],[83.76,21.6816],[83.7613,21.6883],[83.7668,21.6877],[83.7643,21.6928],[83.7695,21.695],[83.7659,21.6996],[83.7757,21.702],[83.772,21.708],[83.7798,21.7047],[83.7734,21.7119],[83.7785,21.7105],[83.7835,21.7219],[83.7779,21.7158],[83.7713,21.7189],[83.7627,21.718],[83.7618,21.7124],[83.7534,21.7144],[83.7574,21.7199],[83.7507,21.7207],[83.752,21.7293],[83.7481,21.7262],[83.746,21.7324],[83.7411,21.7309],[83.7361,21.7184],[83.7259,21.7235],[83.7202,21.7244],[83.7179,21.7278],[83.7144,21.7238],[83.7082,21.7249],[83.7078,21.721],[83.7036,21.7255],[83.7067,21.7264],[83.7112,21.7332],[83.7132,21.7425],[83.7094,21.7458],[83.7013,21.7442],[83.7002,21.7543],[83.6981,21.744],[83.694,21.7423],[83.6934,21.7355],[83.6869,21.7336],[83.6856,21.7381],[83.6921,21.7439],[83.6931,21.7505],[83.6892,21.7466],[83.6812,21.7512],[83.681,21.7489],[83.6724,21.7476],[83.6656,21.7492],[83.6624,21.7544],[83.6693,21.7564],[83.6727,21.7604],[83.668,21.7665],[83.673,21.769],[83.6694,21.7714],[83.6649,21.7696],[83.6677,21.7786],[83.6605,21.7814],[83.6572,21.7754],[83.6608,21.7758],[83.6593,21.771],[83.6494,21.7757],[83.6507,21.7707],[83.6549,21.7686],[83.6538,21.7629],[83.6442,21.7532],[83.6384,21.7553],[83.6424,21.7596],[83.6389,21.7641],[83.6352,21.7618],[83.6274,21.7633],[83.6297,21.7669],[83.6244,21.7753],[83.6252,21.7674],[83.6184,21.7657],[83.608,21.7658],[83.6097,21.7626],[83.6029,21.7604],[83.5864,21.7685],[83.5816,21.7659],[83.5767,21.7752],[83.5752,21.7679],[83.5715,21.7662],[83.5703,21.7576],[83.564,21.7604],[83.5643,21.7538],[83.5551,21.7603],[83.5495,21.7597],[83.5468,21.7669],[83.5529,21.7644],[83.5519,21.7735],[83.5539,21.783],[83.5616,21.7854],[83.5486,21.7917],[83.5545,21.7854],[83.5496,21.7797],[83.5467,21.7845],[83.5455,21.7794],[83.5427,21.7849],[83.5402,21.7815],[83.5336,21.7815],[83.5442,21.7763],[83.5379,21.7691],[83.5427,21.7643],[83.5429,21.7593],[83.5384,21.7556],[83.5417,21.7496],[83.5445,21.7506],[83.5498,21.7465],[83.5422,21.7478],[83.5409,21.7424],[83.5364,21.7422],[83.5381,21.7487],[83.5306,21.7509],[83.5308,21.7597],[83.5257,21.7606],[83.5206,21.7567],[83.5135,21.7583],[83.5126,21.7541],[83.5076,21.7619],[83.5108,21.7715],[83.5013,21.7597],[83.497,21.7597],[83.4937,21.7665],[83.4938,21.7604],[83.49,21.7608],[83.4938,21.7523],[83.4888,21.7487],[83.4917,21.7419],[83.4962,21.748],[83.498,21.7547],[83.5033,21.7539],[83.5014,21.7468],[83.5065,21.7441],[83.5074,21.7482],[83.5113,21.7447],[83.5214,21.7429],[83.524,21.7404],[83.5178,21.7379],[83.5208,21.7357],[83.5174,21.7319],[83.5226,21.7303],[83.524,21.7259],[83.5193,21.7236],[83.5192,21.7191],[83.5146,21.7129],[83.5171,21.7088],[83.5146,21.6997],[83.515,21.6916],[83.5116,21.689],[83.5,21.6949],[83.5062,21.6895],[83.5029,21.6826],[83.5117,21.6798],[83.5097,21.6763],[83.5137,21.6718],[83.5084,21.6652],[83.507,21.6747],[83.4981,21.6782],[83.5037,21.6738],[83.4983,21.6627],[83.498,21.6576],[83.4908,21.6546],[83.4845,21.6576],[83.4902,21.6523],[83.4976,21.6537],[83.4875,21.6487],[83.4777,21.6512],[83.4584,21.6618],[83.4612,21.6627],[83.4564,21.667],[83.4555,21.6607],[83.4471,21.6632],[83.4445,21.6599],[83.4686,21.6491],[83.4873,21.6442],[83.4872,21.6399],[83.4949,21.6409]],[[83.5754,21.7446],[83.5709,21.7474],[83.5809,21.7478],[83.5754,21.7446]],[[83.5907,21.7343],[83.5953,21.7298],[83.5917,21.7287],[83.5871,21.7341],[83.5907,21.7343]],[[83.7328,21.6529],[83.7381,21.6513],[83.7425,21.6446],[83.7328,21.6529]],[[83.9638,21.7013],[83.9598,21.7064],[83.9631,21.7116],[83.9638,21.7013]],[[83.5534,21.7333],[83.5611,21.7398],[83.5607,21.735],[83.5534,21.7333]],[[83.7371,21.6814],[83.7492,21.6761],[83.7476,21.6717],[83.7424,21.6723],[83.7371,21.6814]],[[83.5195,21.6755],[83.5143,21.6745],[83.5247,21.685],[83.5238,21.6905],[83.5284,21.6946],[83.5292,21.7051],[83.5318,21.7084],[83.529,21.6951],[83.5302,21.6931],[83.5238,21.6808],[83.5195,21.6755]],[[83.8639,21.6119],[83.8662,21.6121],[83.8738,21.6033],[83.8727,21.5951],[83.866,21.5988],[83.8639,21.6119]]],[[[83.4241,21.6896],[83.4191,21.6806],[83.433,21.673],[83.4445,21.6599],[83.4469,21.663],[83.4431,21.6703],[83.448,21.6773],[83.4418,21.6735],[83.4346,21.68],[83.4229,21.6865],[83.4241,21.6896]]]]},"properties":{"id":"hirakud-reservoir-ramsar","name":"Hirakud Reservoir","category":"ramsar","area_km2":654}}]}