{"type":"FeatureCollection","features":[{"type":"Feature","geometry":{"type":"Polygon","coordinates":[[[74.6123,33.5511],[74.6109,33.5578],[74.6134,33.5632],[74.6094,33.5742],[74.6109,33.5818],[74.6149,33.5843],[74.6183,33.5936],[74.6233,33.5977],[74.6287,33.607],[74.6293,33.6139],[74.6365,33.6211],[74.6338,33.6301],[74.6387,33.6364],[74.6471,33.6384],[74.6502,33.6413],[74.6494,33.6582],[74.6155,33.669],[74.5945,33.674],[74.5781,33.6808],[74.5588,33.6876],[74.5406,33.6832],[74.5235,33.6772],[74.5157,33.6725],[74.5046,33.6606],[74.5021,33.6493],[74.5057,33.6404],[74.516,33.6321],[74.5228,33.6244],[74.5256,33.6173],[74.5246,33.6107],[74.5192,33.6033],[74.516,33.5953],[74.5182,33.5849],[74.5325,33.5566],[74.5435,33.5561],[74.5602,33.5516],[74.5716,33.5427],[74.5877,33.5406],[74.6098,33.5457],[74.6123,33.5511]]]},"properties":{"id":"hirpora-wls","name":"Hirpora Wildlife Sanctuary","category":"wls","area_km2":341.3}}]}