{"type":"FeatureCollection","features":[{"type":"Feature","geometry":{"type":"Polygon","coordinates":[[[74.7159,34.0767],[74.7222,34.0743],[74.7235,34.0696],[74.7311,34.0701],[74.7333,34.0669],[74.7393,34.0722],[74.7481,34.0709],[74.7489,34.0762],[74.7394,34.0802],[74.7333,34.0788],[74.7255,34.0807],[74.7247,34.0897],[74.7178,34.0965],[74.7221,34.1005],[74.7254,34.0948],[74.7299,34.0933],[74.7322,34.0994],[74.7253,34.1025],[74.7289,34.1078],[74.7194,34.1115],[74.7074,34.1122],[74.7022,34.1146],[74.6968,34.1108],[74.6839,34.1098],[74.6778,34.1075],[74.675,34.1033],[74.6824,34.094],[74.6954,34.0929],[74.6943,34.0839],[74.7036,34.0817],[74.7106,34.0838],[74.7128,34.0771],[74.7159,34.0767]]]},"properties":{"id":"hokarsar-lake-wls","name":"Hokarsar Lake Wildlife Sanctuary","category":"wls","area_km2":13.8}}]}