{"type":"FeatureCollection","features":[{"type":"Feature","geometry":{"type":"Polygon","coordinates":[[[74.7181,34.0748],[74.7222,34.0743],[74.7235,34.0696],[74.7311,34.0701],[74.7333,34.0669],[74.7452,34.0725],[74.7489,34.0762],[74.7389,34.0789],[74.7285,34.0793],[74.725,34.0833],[74.7247,34.0897],[74.7204,34.0954],[74.7114,34.0938],[74.7237,34.1004],[74.7254,34.0948],[74.7299,34.0933],[74.7322,34.0994],[74.7253,34.1025],[74.7289,34.1078],[74.7194,34.1115],[74.7074,34.1122],[74.7022,34.1146],[74.6968,34.1108],[74.6839,34.1098],[74.675,34.1033],[74.6824,34.094],[74.6954,34.0929],[74.693,34.0853],[74.7036,34.0817],[74.7106,34.0838],[74.7128,34.0771],[74.7181,34.0748]]]},"properties":{"id":"hokera-wetland-ramsar","name":"Hokera Wetland","category":"ramsar","area_km2":13.8}}]}