{"type":"FeatureCollection","features":[{"type":"Feature","geometry":{"type":"Polygon","coordinates":[[[74.5208,34.2676],[74.5163,34.26],[74.5184,34.2455],[74.5123,34.2406],[74.5088,34.2334],[74.5097,34.2291],[74.5207,34.2284],[74.5256,34.2249],[74.5385,34.2273],[74.5461,34.2308],[74.548,34.2374],[74.5431,34.242],[74.5313,34.2464],[74.5269,34.2582],[74.5208,34.2676]]]},"properties":{"id":"hygam-wetland-conservation-reserve-ramsar","name":"Hygam Wetland Conservation Reserve","category":"ramsar","area_km2":8}}]}