{"type":"FeatureCollection","features":[{"type":"Feature","geometry":{"type":"Polygon","coordinates":[[[76.9629,9.754],[76.972,9.7465],[76.9864,9.7405],[76.9953,9.742],[77,9.7372],[77.014,9.7302],[77.016,9.7333],[77.0126,9.737],[77.0134,9.7417],[77.0079,9.7538],[77.0111,9.7521],[77.0136,9.7617],[77.0033,9.771],[77.012,9.7677],[77.0189,9.7716],[77.0162,9.7761],[77.0222,9.7786],[77.021,9.7819],[77.0256,9.785],[77.0207,9.7916],[77.0206,9.7968],[77.017,9.7939],[77.0119,9.7959],[77.0073,9.8022],[77.0094,9.8062],[77.0009,9.8103],[76.997,9.8088],[76.9921,9.8136],[76.9969,9.8152],[76.9926,9.8189],[76.9881,9.818],[76.9845,9.8296],[76.977,9.8331],[76.9698,9.8388],[76.9682,9.8366],[76.9723,9.8309],[76.967,9.8309],[76.9668,9.826],[76.9626,9.8302],[76.9562,9.8325],[76.9528,9.8248],[76.9534,9.8148],[76.9567,9.8067],[76.9624,9.7999],[76.9516,9.8078],[76.9543,9.7965],[76.9648,9.788],[76.9528,9.7933],[76.936,9.7957],[76.9382,9.7902],[76.9453,9.7841],[76.9448,9.7816],[76.9381,9.7872],[76.9381,9.7804],[76.9311,9.7797],[76.9322,9.7739],[76.9362,9.7683],[76.9421,9.766],[76.9455,9.7618],[76.9581,9.7594],[76.9629,9.754]]]},"properties":{"id":"idukki-wls","name":"Idukki Wildlife Sanctuary","category":"wls","area_km2":70}}]}