{"type":"FeatureCollection","features":[{"type":"Feature","geometry":{"type":"Polygon","coordinates":[[[77.3588,32.2564],[77.3507,32.2697],[77.3456,32.2876],[77.3406,32.2989],[77.3272,32.3163],[77.3104,32.3293],[77.3074,32.3336],[77.296,32.337],[77.2764,32.3357],[77.2676,32.3305],[77.2604,32.318],[77.2482,32.3027],[77.2442,32.2949],[77.2361,32.2738],[77.2378,32.2615],[77.2443,32.2595],[77.2581,32.2518],[77.277,32.2517],[77.2849,32.2498],[77.3037,32.2403],[77.3134,32.2376],[77.3352,32.2177],[77.3449,32.2159],[77.351,32.2121],[77.3627,32.2104],[77.3701,32.2017],[77.3752,32.2021],[77.3927,32.2101],[77.4034,32.2108],[77.4077,32.2163],[77.4003,32.2207],[77.3989,32.226],[77.3836,32.2287],[77.3737,32.2354],[77.3588,32.2564]]]},"properties":{"id":"inderkilla-national-park-np","name":"Inderkilla National Park","category":"np","area_km2":94}}]}