{"type":"FeatureCollection","features":[{"type":"Feature","geometry":{"type":"Polygon","coordinates":[[[77.3153,10.3568],[77.2986,10.3534],[77.2842,10.3541],[77.2832,10.3505],[77.2781,10.3493],[77.2616,10.3497],[77.2352,10.3528],[77.2356,10.3399],[77.228,10.3286],[77.2277,10.3154],[77.2307,10.3098],[77.2348,10.3089],[77.239,10.2956],[77.2478,10.2823],[77.2508,10.2814],[77.2635,10.2638],[77.2572,10.2594],[77.259,10.2304],[77.2646,10.235],[77.2803,10.2354],[77.2882,10.2319],[77.2957,10.2386],[77.3126,10.2455],[77.3163,10.2481],[77.3295,10.2682],[77.3421,10.2594],[77.3491,10.2593],[77.3522,10.2697],[77.3512,10.2826],[77.3488,10.2877],[77.3434,10.2925],[77.3419,10.2989],[77.3345,10.3066],[77.3304,10.3186],[77.3345,10.3271],[77.3334,10.3396],[77.3368,10.3478],[77.3311,10.3514],[77.3204,10.3518],[77.3153,10.3568]]]},"properties":{"id":"indira-gandhi-annamalai-np","name":"Indira Gandhi (Annamalai) National Park","category":"np","area_km2":117.1}}]}