{"type":"FeatureCollection","features":[{"type":"Feature","geometry":{"type":"Polygon","coordinates":[[[77.3205,10.4056],[77.3206,10.4134],[77.3231,10.4202],[77.3194,10.4224],[77.3062,10.4212],[77.2998,10.4134],[77.2876,10.4132],[77.2801,10.416],[77.2676,10.4116],[77.2673,10.4152],[77.2568,10.4232],[77.2603,10.4337],[77.2499,10.4498],[77.2389,10.4485],[77.2383,10.4529],[77.234,10.4562],[77.2174,10.4547],[77.2082,10.4608],[77.2055,10.467],[77.2014,10.4614],[77.1933,10.4612],[77.18,10.475],[77.1769,10.476],[77.171,10.4713],[77.1692,10.4642],[77.1635,10.4621],[77.1615,10.4573],[77.1477,10.4688],[77.1416,10.4694],[77.1285,10.4639],[77.1213,10.4622],[77.116,10.4645],[77.1173,10.4821],[77.1212,10.4895],[77.1203,10.4925],[77.1124,10.4916],[77.1096,10.496],[77.1038,10.4962],[77.1005,10.4886],[77.0926,10.4809],[77.0825,10.4741],[77.0767,10.4739],[77.0689,10.4658],[77.0665,10.4571],[77.0621,10.4621],[77.0594,10.4725],[77.059,10.4803],[77.0638,10.4913],[77.0704,10.5012],[77.0707,10.5056],[77.0632,10.5135],[77.0576,10.5147],[77.0466,10.5139],[77.0355,10.5166],[77.0228,10.5126],[77.0093,10.5102],[77.001,10.5056],[76.9956,10.4987],[76.9941,10.4935],[76.9986,10.4831],[76.9969,10.4809],[76.9914,10.4853],[76.9821,10.4772],[76.9822,10.4734],[76.9882,10.4747],[76.9857,10.4679],[77.0015,10.4561],[76.9881,10.462],[76.9796,10.46],[76.9786,10.4641],[76.9691,10.4678],[76.9602,10.4689],[76.9491,10.4734],[76.9375,10.4684],[76.927,10.4685],[76.9252,10.4715],[76.9294,10.4797],[76.9222,10.4807],[76.9148,10.479],[76.908,10.4835],[76.8928,10.4804],[76.8894,10.4765],[76.8816,10.4768],[76.881,10.4696],[76.8761,10.4689],[76.8685,10.4728],[76.8648,10.4917],[76.8585,10.4942],[76.8611,10.5029],[76.8622,10.5171],[76.8618,10.5273],[76.8584,10.538],[76.8573,10.5541],[76.851,10.554],[76.8441,10.5572],[76.8369,10.5541],[76.8352,10.5445],[76.8415,10.5405],[76.8417,10.5347],[76.8302,10.4972],[76.8279,10.4497],[76.816,10.423],[76.8228,10.4166],[76.8255,10.4091],[76.8302,10.4107],[76.8336,10.4028],[76.8232,10.3945],[76.8304,10.3887],[76.8441,10.3744],[76.8485,10.3673],[76.845,10.3628],[76.8458,10.3568],[76.8414,10.35],[76.836,10.3454],[76.8357,10.3396],[76.84,10.3316],[76.8536,10.3232],[76.8648,10.3238],[76.8721,10.32],[76.8761,10.3218],[76.8856,10.3393],[76.8965,10.3451],[76.894,10.3558],[76.8974,10.3624],[76.9045,10.3612],[76.9128,10.3637],[76.9146,10.36],[76.9047,10.3507],[76.9087,10.3478],[76.9158,10.3551],[76.9183,10.3554],[76.9194,10.3475],[76.9271,10.3533],[76.9214,10.3606],[76.9194,10.3685],[76.9214,10.3748],[76.9356,10.3839],[76.9393,10.385],[76.9512,10.3764],[76.9562,10.3761],[76.9662,10.3815],[76.9696,10.3729],[76.9616,10.3634],[76.9668,10.3619],[76.9773,10.3695],[76.9886,10.3701],[76.9925,10.3675],[76.9962,10.3587],[77.0036,10.3463],[77.0086,10.34],[77.0168,10.3374],[77.0199,10.3242],[77.0195,10.3203],[77.0137,10.3123],[76.9953,10.306],[76.9908,10.3022],[76.976,10.2826],[76.9749,10.274],[76.9728,10.2718],[76.9568,10.2706],[76.9569,10.2662],[76.9495,10.2643],[76.9244,10.2408],[76.9162,10.2403],[76.9046,10.2454],[76.9025,10.2395],[76.9072,10.2405],[76.9103,10.235],[76.9218,10.2315],[76.9395,10.2381],[76.947,10.2362],[76.9488,10.2324],[76.9585,10.2334],[76.9706,10.229],[76.9729,10.2248],[76.9831,10.2213],[76.9902,10.2249],[76.9928,10.2296],[76.9985,10.2295],[77.0053,10.2389],[77.0124,10.2439],[77.0265,10.2506],[77.0396,10.2528],[77.0484,10.2594],[77.0515,10.2637],[77.0528,10.2722],[77.0494,10.2783],[77.0435,10.284],[77.0559,10.2873],[77.0631,10.2916],[77.0659,10.2981],[77.0784,10.3028],[77.0887,10.3109],[77.0914,10.315],[77.0963,10.309],[77.1013,10.3153],[77.1093,10.3154],[77.1201,10.318],[77.1283,10.3262],[77.1511,10.3381],[77.1612,10.3486],[77.1759,10.3585],[77.1953,10.3546],[77.2017,10.358],[77.204,10.3542],[77.2226,10.3539],[77.2509,10.3514],[77.2616,10.3497],[77.2781,10.3493],[77.2832,10.3505],[77.2842,10.3541],[77.2986,10.3534],[77.3073,10.3547],[77.3139,10.3579],[77.3172,10.3547],[77.314,10.3671],[77.3176,10.3742],[77.3174,10.3862],[77.3205,10.4056]]]},"properties":{"id":"indira-gandhi-annamalai-wls","name":"Indira Gandhi (Annamalai) Wildlife Sanctuary","category":"wls","area_km2":841.5}}]}