{"type":"FeatureCollection","features":[{"type":"Feature","geometry":{"type":"Polygon","coordinates":[[[80.6895,19.2881],[80.6897,19.3023],[80.6934,19.3144],[80.687,19.3256],[80.6827,19.3292],[80.6733,19.3298],[80.664,19.3253],[80.6532,19.3219],[80.647,19.3163],[80.6366,19.3131],[80.6326,19.3076],[80.6234,19.3055],[80.6126,19.3094],[80.608,19.318],[80.6078,19.326],[80.598,19.3391],[80.59,19.3518],[80.5907,19.3587],[80.5884,19.3708],[80.5918,19.3759],[80.5844,19.3916],[80.5785,19.4009],[80.5732,19.4023],[80.5626,19.3989],[80.5494,19.3861],[80.5443,19.3837],[80.5385,19.3776],[80.529,19.3629],[80.5204,19.3476],[80.5069,19.3422],[80.4958,19.343],[80.4856,19.3406],[80.4771,19.3297],[80.4704,19.3116],[80.463,19.3007],[80.4574,19.2882],[80.4538,19.2729],[80.4461,19.264],[80.4378,19.2577],[80.43,19.2539],[80.4194,19.2508],[80.3958,19.2463],[80.3851,19.2357],[80.3866,19.2271],[80.3841,19.2148],[80.3751,19.2044],[80.374,19.2003],[80.3842,19.1827],[80.3826,19.1774],[80.3689,19.1711],[80.3587,19.1648],[80.3481,19.1599],[80.3479,19.1522],[80.34,19.1456],[80.3338,19.1459],[80.3275,19.1353],[80.3314,19.1278],[80.3308,19.1203],[80.336,19.1123],[80.3397,19.0999],[80.328,19.0949],[80.331,19.0806],[80.3296,19.0698],[80.32,19.0657],[80.2965,19.0475],[80.3052,19.0272],[80.3031,19.022],[80.291,19.0085],[80.2739,18.9945],[80.2729,18.9808],[80.274,18.9685],[80.2718,18.9561],[80.2694,18.9501],[80.2698,18.9413],[80.2743,18.9318],[80.2856,18.9219],[80.2999,18.911],[80.3023,18.9062],[80.3165,18.8884],[80.3263,18.8809],[80.3354,18.8686],[80.344,18.8544],[80.3489,18.849],[80.3565,18.8499],[80.386,18.8612],[80.4159,18.8346],[80.4406,18.8288],[80.4689,18.816],[80.5001,18.7991],[80.521,18.7867],[80.5409,18.7721],[80.5497,18.7707],[80.5657,18.7647],[80.5749,18.7631],[80.6063,18.7496],[80.6215,18.7455],[80.6424,18.7359],[80.6553,18.7341],[80.6721,18.7363],[80.6793,18.7383],[80.6985,18.748],[80.7149,18.7536],[80.7247,18.7617],[80.7441,18.7662],[80.7503,18.7692],[80.7582,18.7773],[80.7741,18.7813],[80.785,18.7779],[80.8033,18.7761],[80.8152,18.7775],[80.8178,18.7797],[80.8197,18.7885],[80.8157,18.7975],[80.8043,18.8054],[80.7974,18.8133],[80.7957,18.82],[80.8024,18.8344],[80.8029,18.8434],[80.8081,18.8544],[80.8228,18.8742],[80.8231,18.8868],[80.825,18.8893],[80.8373,18.896],[80.848,18.9111],[80.8589,18.921],[80.8705,18.9359],[80.8716,18.9387],[80.8608,18.9456],[80.8629,18.9516],[80.8622,18.9583],[80.8552,18.9703],[80.8573,18.975],[80.8663,18.9721],[80.863,18.9794],[80.8659,18.9808],[80.8719,18.9766],[80.8731,18.9792],[80.8673,18.9899],[80.8727,18.995],[80.8771,19.0056],[80.8688,19.0104],[80.8673,19.0183],[80.8775,19.0265],[80.8847,19.0343],[80.8719,19.0453],[80.8732,19.0494],[80.8666,19.0585],[80.8649,19.0674],[80.8674,19.0714],[80.8633,19.0758],[80.8582,19.0902],[80.8528,19.0954],[80.8536,19.1001],[80.8491,19.1061],[80.8442,19.1082],[80.8406,19.1134],[80.8402,19.1183],[80.8333,19.1214],[80.8332,19.1244],[80.8235,19.127],[80.8148,19.1331],[80.8164,19.1396],[80.8098,19.1426],[80.7991,19.1411],[80.7929,19.1442],[80.7874,19.1433],[80.7815,19.1394],[80.7688,19.1416],[80.7655,19.1481],[80.7559,19.1575],[80.756,19.1615],[80.7459,19.1838],[80.7487,19.1905],[80.7454,19.1967],[80.7488,19.202],[80.7503,19.2194],[80.7468,19.2258],[80.7283,19.2391],[80.7239,19.2559],[80.7081,19.2705],[80.692,19.2767],[80.6882,19.2826],[80.6895,19.2881]]]},"properties":{"id":"indravati-tr","name":"Indravati Tiger Reserve","category":"tr","area_km2":1258.4}}]}