{"type":"FeatureCollection","features":[{"type":"Feature","geometry":{"type":"Polygon","coordinates":[[[93.5729,25.6439],[93.579,25.6414],[93.5859,25.6353],[93.5897,25.6371],[93.5948,25.6503],[93.5874,25.6563],[93.59,25.6667],[93.5774,25.6654],[93.5732,25.6724],[93.5689,25.6741],[93.5601,25.6712],[93.5502,25.6828],[93.5476,25.6915],[93.5423,25.6991],[93.535,25.6968],[93.5311,25.6925],[93.5236,25.6924],[93.5223,25.6958],[93.5132,25.6833],[93.5166,25.6834],[93.5173,25.6784],[93.5124,25.6767],[93.5095,25.6697],[93.5059,25.668],[93.4986,25.6569],[93.4911,25.6537],[93.4851,25.6486],[93.4812,25.6512],[93.4822,25.6449],[93.4776,25.6485],[93.472,25.6426],[93.4638,25.6448],[93.4564,25.638],[93.4606,25.6373],[93.4611,25.6324],[93.4551,25.6341],[93.4506,25.6393],[93.4469,25.6348],[93.4444,25.6398],[93.4422,25.6348],[93.439,25.6358],[93.4336,25.6295],[93.4276,25.6328],[93.4241,25.6301],[93.4243,25.6253],[93.4197,25.6237],[93.4219,25.6187],[93.4144,25.6211],[93.4069,25.6116],[93.4023,25.6114],[93.4029,25.6017],[93.3947,25.5945],[93.3862,25.5929],[93.386,25.5867],[93.3781,25.5821],[93.3817,25.5811],[93.375,25.5764],[93.376,25.5732],[93.3711,25.5718],[93.3653,25.5651],[93.3642,25.5607],[93.359,25.555],[93.3524,25.5565],[93.3518,25.5608],[93.343,25.5603],[93.337,25.5562],[93.3374,25.5528],[93.3267,25.5461],[93.3364,25.5391],[93.335,25.5354],[93.35,25.5326],[93.3536,25.5274],[93.3569,25.5136],[93.3608,25.5132],[93.3643,25.5037],[93.3689,25.504],[93.3669,25.4997],[93.3779,25.4955],[93.3768,25.4924],[93.3854,25.4909],[93.3857,25.4832],[93.3921,25.4821],[93.401,25.4851],[93.4041,25.4913],[93.4085,25.4876],[93.4153,25.4938],[93.4214,25.49],[93.4328,25.4917],[93.4345,25.4884],[93.4415,25.491],[93.4468,25.4892],[93.455,25.4997],[93.4701,25.4959],[93.4808,25.5063],[93.4833,25.5112],[93.4937,25.5229],[93.4949,25.5269],[93.4879,25.5356],[93.4885,25.5421],[93.5072,25.5654],[93.5117,25.5633],[93.5164,25.5683],[93.5169,25.573],[93.5224,25.5751],[93.5253,25.5807],[93.5191,25.5915],[93.5109,25.601],[93.5252,25.6049],[93.5321,25.6123],[93.537,25.6211],[93.5434,25.6212],[93.5445,25.626],[93.5394,25.6304],[93.5444,25.6415],[93.5431,25.6475],[93.5524,25.6487],[93.563,25.648],[93.5729,25.6439]]]},"properties":{"id":"intanki-np","name":"Intanki National Park","category":"np","area_km2":202}}]}