{"type":"FeatureCollection","features":[{"type":"Feature","geometry":{"type":"Polygon","coordinates":[[[92.6966,12.9911],[92.6914,12.9927],[92.6844,12.9877],[92.6796,12.9763],[92.6753,12.9714],[92.673,12.9647],[92.6702,12.9645],[92.668,12.9504],[92.675,12.9506],[92.6793,12.9468],[92.6797,12.9426],[92.6743,12.9347],[92.674,12.9287],[92.6708,12.9234],[92.6703,12.9047],[92.6654,12.903],[92.6671,12.8956],[92.6651,12.8822],[92.6571,12.8703],[92.6514,12.8678],[92.6483,12.8622],[92.651,12.8526],[92.651,12.8461],[92.657,12.8326],[92.661,12.8284],[92.6613,12.819],[92.6657,12.8117],[92.6662,12.803],[92.6631,12.7962],[92.6598,12.7969],[92.6698,12.7887],[92.6777,12.8094],[92.6828,12.809],[92.6892,12.8177],[92.6874,12.8266],[92.6834,12.8299],[92.6767,12.8247],[92.6792,12.8382],[92.6884,12.8344],[92.6923,12.835],[92.7017,12.8416],[92.7042,12.8461],[92.7031,12.8518],[92.7088,12.8558],[92.7144,12.8627],[92.7196,12.8743],[92.7191,12.8779],[92.7133,12.8781],[92.7114,12.8833],[92.7194,12.8816],[92.7215,12.889],[92.7227,12.9054],[92.7205,12.9079],[92.7201,12.9206],[92.7165,12.9231],[92.7211,12.9247],[92.7214,12.9468],[92.7149,12.943],[92.7179,12.9502],[92.7202,12.9626],[92.7206,12.9759],[92.7189,12.9813],[92.7156,12.9819],[92.7094,12.9895],[92.7012,12.989],[92.6966,12.9911]]]},"properties":{"id":"interview-island-wls","name":"Interview Island Wildlife Sanctuary","category":"wls","area_km2":133.9}}]}