{"type":"FeatureCollection","features":[{"type":"Feature","geometry":{"type":"Polygon","coordinates":[[[93.6788,27.2035],[93.6833,27.2111],[93.6824,27.2135],[93.6595,27.2109],[93.6535,27.2079],[93.6423,27.2095],[93.6229,27.204],[93.6158,27.2029],[93.6024,27.2064],[93.5956,27.2053],[93.5757,27.1868],[93.5653,27.1802],[93.5436,27.1768],[93.5383,27.1723],[93.5335,27.1569],[93.5311,27.1448],[93.5338,27.1282],[93.5561,27.1151],[93.573,27.1148],[93.6269,27.1218],[93.679,27.1328],[93.6986,27.1444],[93.7158,27.1664],[93.7237,27.1804],[93.7226,27.2165],[93.6828,27.204],[93.6788,27.2035]]]},"properties":{"id":"itanagar-wls","name":"Itanagar Wildlife Sanctuary","category":"wls","area_km2":140.3}}]}