{"type":"FeatureCollection","features":[{"type":"Feature","geometry":{"type":"Polygon","coordinates":[[[84.1485,25.8598],[84.1394,25.8468],[84.1366,25.8328],[84.1399,25.8238],[84.1402,25.8139],[84.1477,25.8137],[84.1572,25.8105],[84.1612,25.8171],[84.1717,25.8169],[84.1722,25.819],[84.1891,25.8173],[84.1958,25.8146],[84.1978,25.8216],[84.2011,25.8204],[84.2112,25.8316],[84.212,25.8376],[84.2038,25.8426],[84.2055,25.846],[84.201,25.8516],[84.2027,25.8545],[84.1891,25.8621],[84.1898,25.8647],[84.1743,25.8686],[84.1622,25.8681],[84.1485,25.8598]]]},"properties":{"id":"jai-prakash-narayan-bird-sanctuary-ramsar","name":"Jai Prakash Narayan Bird Sanctuary","category":"ramsar","area_km2":34.3}}]}