{"type":"FeatureCollection","features":[{"type":"Feature","geometry":{"type":"Polygon","coordinates":[[[75.3546,19.4318],[75.3657,19.4765],[75.3716,19.488],[75.3767,19.4912],[75.3747,19.4998],[75.3775,19.5074],[75.3748,19.5204],[75.3676,19.5376],[75.3489,19.554],[75.3445,19.5622],[75.3294,19.5612],[75.3146,19.5579],[75.3109,19.5543],[75.3144,19.546],[75.3092,19.5403],[75.2992,19.54],[75.2944,19.547],[75.2909,19.5472],[75.2863,19.5417],[75.2885,19.5287],[75.2823,19.5288],[75.2738,19.5344],[75.2758,19.5407],[75.268,19.5465],[75.2654,19.5521],[75.2596,19.5522],[75.259,19.5612],[75.2554,19.5694],[75.2574,19.5759],[75.2545,19.578],[75.237,19.5784],[75.2349,19.5827],[75.2357,19.5953],[75.2325,19.6001],[75.2404,19.6038],[75.2414,19.6103],[75.2357,19.6142],[75.2358,19.6225],[75.2382,19.6335],[75.2331,19.6516],[75.2339,19.6665],[75.2301,19.6679],[75.2263,19.6626],[75.2264,19.6552],[75.2289,19.6405],[75.2236,19.6432],[75.2175,19.6352],[75.2084,19.6336],[75.2036,19.6242],[75.1994,19.6275],[75.1893,19.6298],[75.1733,19.6292],[75.1626,19.6371],[75.1541,19.6336],[75.1526,19.6214],[75.1452,19.6214],[75.1464,19.6271],[75.146,19.6444],[75.14,19.6603],[75.1413,19.6736],[75.1373,19.6752],[75.1321,19.6602],[75.1324,19.6506],[75.1257,19.6508],[75.1246,19.6671],[75.1212,19.6765],[75.1149,19.6839],[75.1136,19.6954],[75.105,19.6929],[75.1108,19.6785],[75.1169,19.6723],[75.1139,19.6643],[75.1166,19.6552],[75.1153,19.6477],[75.1176,19.644],[75.127,19.6362],[75.1371,19.6309],[75.1369,19.6195],[75.1303,19.6138],[75.128,19.6062],[75.1241,19.6063],[75.1217,19.6121],[75.1137,19.6184],[75.1126,19.6143],[75.108,19.615],[75.1047,19.6218],[75.0923,19.6228],[75.0869,19.6323],[75.0856,19.6453],[75.0816,19.6448],[75.0767,19.6387],[75.0577,19.6392],[75.07,19.6316],[75.0715,19.6187],[75.0619,19.6187],[75.0615,19.6122],[75.0584,19.6101],[75.0562,19.6163],[75.0486,19.6192],[75.0475,19.6219],[75.0526,19.6241],[75.0438,19.63],[75.0307,19.6333],[75.013,19.6283],[74.9994,19.63],[74.9917,19.6344],[74.9895,19.6392],[74.9903,19.6454],[74.9863,19.6468],[74.9807,19.6436],[74.9667,19.6494],[74.9506,19.6483],[74.9393,19.6486],[74.9319,19.6469],[74.9276,19.649],[74.9103,19.6499],[74.8877,19.6406],[74.8887,19.638],[74.901,19.6406],[74.9076,19.6454],[74.9165,19.6464],[74.9195,19.6444],[74.928,19.6441],[74.9291,19.6361],[74.9326,19.6349],[74.9452,19.6427],[74.9616,19.6434],[74.9704,19.642],[74.9813,19.6372],[74.9867,19.6298],[74.9954,19.6246],[75.0096,19.6213],[75.0188,19.6205],[75.0355,19.6216],[75.0303,19.6121],[75.0314,19.6072],[75.0362,19.6089],[75.0457,19.6075],[75.0437,19.6026],[75.0504,19.6016],[75.0543,19.6048],[75.0661,19.6025],[75.0785,19.6036],[75.0892,19.6],[75.1079,19.6002],[75.1105,19.5923],[75.1052,19.5905],[75.1041,19.587],[75.1111,19.5765],[75.1269,19.5775],[75.1314,19.5792],[75.141,19.5789],[75.1498,19.5809],[75.1605,19.5809],[75.1731,19.5833],[75.177,19.5775],[75.1664,19.5621],[75.1614,19.5569],[75.1559,19.5475],[75.1568,19.5423],[75.1689,19.5438],[75.1743,19.539],[75.1764,19.5336],[75.176,19.5258],[75.1812,19.5129],[75.1895,19.5103],[75.1946,19.5117],[75.1992,19.5169],[75.2084,19.5228],[75.2163,19.5186],[75.2207,19.5115],[75.2209,19.5032],[75.2145,19.5038],[75.2091,19.5014],[75.2061,19.4903],[75.2013,19.4846],[75.1958,19.4816],[75.1926,19.4755],[75.1954,19.4716],[75.1961,19.4623],[75.1901,19.4566],[75.1927,19.4485],[75.1846,19.435],[75.1808,19.4242],[75.1806,19.4165],[75.1862,19.4166],[75.1918,19.4122],[75.1907,19.4065],[75.1905,19.3896],[75.1963,19.3869],[75.2061,19.3918],[75.2083,19.4007],[75.2165,19.4108],[75.2177,19.4195],[75.2213,19.429],[75.2298,19.4289],[75.234,19.4339],[75.232,19.4436],[75.2386,19.4477],[75.2397,19.4537],[75.2436,19.4581],[75.2492,19.4591],[75.2499,19.4517],[75.2534,19.4499],[75.2617,19.4509],[75.2747,19.4559],[75.278,19.4605],[75.2764,19.4696],[75.2854,19.4714],[75.2876,19.466],[75.3091,19.4672],[75.3162,19.4575],[75.3139,19.4488],[75.3142,19.4403],[75.3043,19.4304],[75.3047,19.4239],[75.311,19.4258],[75.3315,19.4244],[75.3546,19.4318]]]},"properties":{"id":"jaikwadi-wls","name":"Jaikwadi Wildlife Sanctuary","category":"wls","area_km2":341.1}}]}