{"type":"FeatureCollection","features":[{"type":"Feature","geometry":{"type":"Polygon","coordinates":[[[73.878,24.2669],[73.8891,24.2609],[73.9106,24.2575],[73.9449,24.2464],[73.9517,24.243],[73.9551,24.2488],[73.9554,24.2566],[73.9484,24.2605],[73.9399,24.2693],[73.9339,24.2785],[73.9342,24.2828],[73.9259,24.2835],[73.9205,24.2889],[73.9203,24.2972],[73.9116,24.3018],[73.8971,24.3058],[73.8818,24.3121],[73.8735,24.3172],[73.8683,24.3269],[73.8616,24.3296],[73.8647,24.3243],[73.8663,24.3159],[73.8603,24.3126],[73.8587,24.3226],[73.8545,24.3272],[73.8591,24.3318],[73.8537,24.3356],[73.8555,24.3396],[73.8516,24.3453],[73.8394,24.3573],[73.8341,24.3598],[73.8164,24.375],[73.8103,24.375],[73.8097,24.3717],[73.7909,24.3706],[73.7912,24.3561],[73.7968,24.3535],[73.8009,24.3419],[73.8092,24.3348],[73.8122,24.339],[73.8189,24.3318],[73.817,24.328],[73.8217,24.3213],[73.8264,24.3224],[73.8254,24.3181],[73.835,24.3107],[73.837,24.315],[73.8474,24.3074],[73.8482,24.3026],[73.8424,24.3014],[73.8432,24.2972],[73.8529,24.2858],[73.8622,24.2795],[73.8711,24.2756],[73.873,24.2693],[73.878,24.2669]]]},"properties":{"id":"jaisamand-wls","name":"Jaisamand Wildlife Sanctuary","category":"wls","area_km2":52}}]}