{"type":"FeatureCollection","features":[{"type":"Feature","geometry":{"type":"Polygon","coordinates":[[[89.2977,26.8289],[89.2875,26.8342],[89.2811,26.831],[89.2795,26.8272],[89.2731,26.8273],[89.2642,26.8181],[89.2624,26.8138],[89.2552,26.8154],[89.2537,26.8069],[89.2576,26.7968],[89.2567,26.7866],[89.2606,26.771],[89.2681,26.7565],[89.2752,26.7502],[89.2833,26.7481],[89.2917,26.7414],[89.2976,26.7289],[89.2924,26.7234],[89.2948,26.7116],[89.2933,26.7071],[89.2838,26.6975],[89.2849,26.6915],[89.2819,26.688],[89.2795,26.6788],[89.2839,26.6771],[89.2804,26.6738],[89.2835,26.67],[89.2778,26.6653],[89.2796,26.6585],[89.2745,26.6514],[89.2778,26.6498],[89.277,26.6298],[89.2786,26.622],[89.2761,26.6037],[89.2716,26.6003],[89.2704,26.5917],[89.2758,26.5856],[89.2753,26.5815],[89.2679,26.5767],[89.2701,26.5726],[89.2684,26.5614],[89.2626,26.5584],[89.2609,26.5618],[89.2545,26.5624],[89.25,26.5508],[89.2491,26.5435],[89.2669,26.536],[89.2727,26.5384],[89.2788,26.5452],[89.2819,26.5543],[89.2942,26.5592],[89.2856,26.5651],[89.2818,26.5776],[89.2893,26.6063],[89.2899,26.6208],[89.2925,26.6337],[89.2927,26.6429],[89.2949,26.6519],[89.3029,26.6625],[89.3044,26.6797],[89.3135,26.6904],[89.3179,26.6912],[89.3161,26.6803],[89.3193,26.6723],[89.3232,26.669],[89.3181,26.6567],[89.3222,26.645],[89.3058,26.6442],[89.3022,26.6362],[89.3094,26.6292],[89.3207,26.6264],[89.3236,26.6237],[89.321,26.6096],[89.3231,26.6044],[89.3224,26.5973],[89.3389,26.5885],[89.3387,26.5736],[89.3364,26.5676],[89.3377,26.5531],[89.3318,26.5486],[89.3312,26.5444],[89.3209,26.5335],[89.3206,26.5297],[89.326,26.5184],[89.3347,26.5274],[89.3377,26.5373],[89.337,26.5417],[89.3505,26.5478],[89.3537,26.546],[89.382,26.547],[89.3906,26.5559],[89.3955,26.5503],[89.4074,26.5552],[89.4065,26.5646],[89.4099,26.5727],[89.4069,26.5769],[89.4119,26.5806],[89.4136,26.5869],[89.408,26.5985],[89.4088,26.6042],[89.4036,26.6068],[89.4073,26.6111],[89.4058,26.6204],[89.4096,26.6238],[89.4046,26.6351],[89.3997,26.637],[89.3945,26.645],[89.3779,26.6577],[89.3673,26.662],[89.3671,26.6651],[89.3603,26.668],[89.3571,26.6508],[89.3519,26.6493],[89.3472,26.6435],[89.3357,26.6532],[89.335,26.6654],[89.3316,26.6715],[89.3331,26.676],[89.3233,26.6879],[89.3239,26.6973],[89.3295,26.7004],[89.3323,26.7104],[89.3313,26.7171],[89.326,26.7204],[89.3253,26.7274],[89.3265,26.7472],[89.3314,26.7534],[89.3325,26.7583],[89.3298,26.7636],[89.3329,26.7673],[89.3428,26.7927],[89.3437,26.8006],[89.3393,26.8082],[89.3475,26.8155],[89.3581,26.8369],[89.3627,26.8399],[89.3649,26.8482],[89.363,26.8533],[89.3679,26.8582],[89.3259,26.843],[89.3269,26.8387],[89.3226,26.8235],[89.3204,26.821],[89.3128,26.8203],[89.3072,26.822],[89.2977,26.8289]],[[89.285,26.7599],[89.2901,26.7762],[89.2965,26.7843],[89.2993,26.7933],[89.3115,26.8002],[89.3158,26.8007],[89.3047,26.7826],[89.2972,26.7749],[89.3,26.7676],[89.2939,26.7563],[89.285,26.7599]]]},"properties":{"id":"jaldapara-np","name":"Jaldapara National Park","category":"np","area_km2":216.3}}]}