{"type":"FeatureCollection","features":[{"type":"Feature","geometry":{"type":"Polygon","coordinates":[[[73.7144,22.4707],[73.7073,22.4731],[73.7012,22.4704],[73.6783,22.4722],[73.6712,22.4681],[73.6704,22.4621],[73.6669,22.4594],[73.6584,22.4603],[73.6535,22.4633],[73.6433,22.4647],[73.6367,22.4635],[73.6248,22.4568],[73.6199,22.4585],[73.6114,22.4512],[73.6136,22.4456],[73.6187,22.4436],[73.6202,22.4384],[73.6179,22.4223],[73.624,22.4225],[73.6245,22.4183],[73.6296,22.4197],[73.6318,22.4268],[73.6393,22.4217],[73.639,22.4182],[73.6331,22.4171],[73.6311,22.4125],[73.6228,22.409],[73.6246,22.4029],[73.6189,22.4007],[73.6194,22.4129],[73.6219,22.4204],[73.6135,22.418],[73.6046,22.4075],[73.5938,22.4175],[73.5912,22.4136],[73.6009,22.4008],[73.5944,22.4001],[73.5711,22.4011],[73.5664,22.3948],[73.5868,22.3918],[73.585,22.385],[73.5802,22.3822],[73.5838,22.3779],[73.5943,22.3807],[73.5945,22.3857],[73.6109,22.3877],[73.6116,22.3827],[73.5983,22.3777],[73.6119,22.375],[73.6225,22.3712],[73.631,22.3646],[73.6383,22.3445],[73.6441,22.347],[73.6548,22.3412],[73.6658,22.3417],[73.6659,22.3395],[73.6549,22.3379],[73.6505,22.3333],[73.6557,22.33],[73.6761,22.3362],[73.6788,22.3385],[73.6918,22.335],[73.6909,22.3335],[73.6785,22.3354],[73.6761,22.3294],[73.6685,22.3277],[73.6777,22.321],[73.6814,22.3219],[73.7104,22.3125],[73.7167,22.3165],[73.723,22.3167],[73.7208,22.3205],[73.7152,22.3217],[73.7141,22.3267],[73.7163,22.3332],[73.7197,22.3302],[73.7293,22.3319],[73.7306,22.3433],[73.7249,22.3509],[73.7218,22.3466],[73.7164,22.3443],[73.7098,22.3455],[73.6977,22.3446],[73.6755,22.3405],[73.6697,22.3441],[73.6726,22.3482],[73.6848,22.3559],[73.6765,22.3566],[73.6814,22.3602],[73.6817,22.3641],[73.6882,22.3632],[73.6827,22.3583],[73.686,22.3567],[73.6935,22.3613],[73.7073,22.3534],[73.7115,22.3536],[73.7151,22.3579],[73.7143,22.3661],[73.7111,22.3698],[73.7062,22.3645],[73.7048,22.3692],[73.6973,22.3675],[73.6964,22.3747],[73.7018,22.3765],[73.7022,22.3713],[73.7087,22.3746],[73.7072,22.3802],[73.7001,22.3794],[73.6788,22.3812],[73.6777,22.3848],[73.658,22.3936],[73.6493,22.3992],[73.6452,22.4041],[73.6486,22.4125],[73.6585,22.4059],[73.662,22.3958],[73.6705,22.393],[73.7061,22.3902],[73.7091,22.3938],[73.7057,22.399],[73.6898,22.4042],[73.6768,22.4126],[73.6796,22.4146],[73.6927,22.4079],[73.6925,22.4113],[73.7067,22.4078],[73.7176,22.4152],[73.7144,22.4196],[73.7056,22.4152],[73.7007,22.4176],[73.6986,22.4261],[73.6872,22.4381],[73.6918,22.4406],[73.6916,22.4455],[73.6976,22.4443],[73.7108,22.4372],[73.7162,22.4329],[73.7289,22.4334],[73.7307,22.4369],[73.7355,22.4336],[73.7463,22.436],[73.7496,22.4403],[73.7525,22.4354],[73.7568,22.4393],[73.7636,22.4403],[73.7675,22.4372],[73.7683,22.4434],[73.7728,22.4489],[73.7764,22.4495],[73.7698,22.4534],[73.7636,22.4516],[73.7548,22.454],[73.7441,22.4532],[73.7358,22.4478],[73.7299,22.4471],[73.7232,22.4432],[73.7118,22.4458],[73.7102,22.4538],[73.7129,22.4563],[73.7222,22.4575],[73.7113,22.4585],[73.7048,22.463],[73.7095,22.4657],[73.7247,22.4671],[73.741,22.465],[73.7526,22.4655],[73.7572,22.4697],[73.7522,22.4721],[73.7272,22.4707],[73.7225,22.4685],[73.7144,22.4707]],[[73.6676,22.4443],[73.6718,22.4411],[73.6701,22.4343],[73.6799,22.4308],[73.6792,22.4263],[73.6727,22.4279],[73.6689,22.4362],[73.6628,22.4438],[73.6676,22.4443]],[[73.6612,22.3838],[73.6653,22.3854],[73.6708,22.3801],[73.6612,22.3838]],[[73.6508,22.3686],[73.6499,22.3736],[73.668,22.3715],[73.6786,22.3642],[73.6727,22.3636],[73.6668,22.3666],[73.6662,22.3709],[73.6588,22.3716],[73.6508,22.3686]]]},"properties":{"id":"jambugodha-wls","name":"Jambugodha Wildlife Sanctuary","category":"wls","area_km2":130.4}}]}