{"type":"FeatureCollection","features":[{"type":"Feature","geometry":{"type":"MultiPolygon","coordinates":[[[[76.1145,27.0957],[76.1128,27.0962],[76.1144,27.1114],[76.1175,27.1247],[76.1201,27.1292],[76.1194,27.1418],[76.1158,27.1467],[76.1078,27.1374],[76.105,27.1296],[76.1065,27.113],[76.0942,27.0964],[76.0877,27.0897],[76.0711,27.0608],[76.0697,27.0549],[76.063,27.0462],[76.0599,27.0452],[76.048,27.0486],[76.0327,27.051],[76.0322,27.0542],[76.0369,27.067],[76.0444,27.0822],[76.052,27.0836],[76.0587,27.0872],[76.069,27.0974],[76.0756,27.1058],[76.074,27.1141],[76.0682,27.1155],[76.0626,27.1119],[76.0609,27.1072],[76.0561,27.1065],[76.0539,27.111],[76.0443,27.1083],[76.0382,27.1043],[76.0367,27.098],[76.0425,27.096],[76.0432,27.09],[76.0319,27.0675],[76.025,27.0628],[76.0267,27.0596],[76.0178,27.056],[76.013,27.0597],[76.01,27.0661],[76.0126,27.0705],[76.0185,27.0707],[76.0193,27.0755],[76.0247,27.0776],[76.0289,27.075],[76.0343,27.0834],[76.0328,27.0852],[76.0257,27.0803],[76.0194,27.0802],[76.0162,27.0841],[76.0212,27.0864],[76.0328,27.0982],[76.0355,27.1116],[76.0324,27.1075],[76.0277,27.1108],[76.0291,27.1225],[76.0204,27.1166],[76.0078,27.1155],[76.0064,27.0973],[76.009,27.0838],[76.0027,27.0753],[75.9994,27.068],[75.992,27.0651],[75.9937,27.0576],[75.9864,27.0533],[75.9872,27.0499],[75.9824,27.0433],[75.9775,27.0406],[75.9769,27.0342],[75.9792,27.0305],[75.9928,27.0241],[76.0024,27.0236],[76.0122,27.0325],[76.0185,27.035],[76.0242,27.0445],[76.0322,27.0487],[76.0407,27.0478],[76.0581,27.0431],[76.0476,27.0325],[76.0365,27.026],[76.0299,27.0199],[76.0311,27.0091],[76.0371,27.0055],[76.0533,27.0091],[76.0604,27.0085],[76.0618,27.0021],[76.0574,27.0029],[76.0556,26.9948],[76.0604,26.9888],[76.0564,26.9801],[76.0477,26.9779],[76.046,26.9831],[76.0485,26.987],[76.0467,26.9936],[76.0504,26.9948],[76.0478,27.0003],[76.0346,27.0002],[76.0362,27.0022],[76.0247,27.0056],[76.021,27.001],[76.0164,26.9892],[76.0215,26.9823],[76.0234,26.964],[76.0279,26.9546],[76.0253,26.9507],[76.0268,26.9462],[76.0246,26.9403],[76.0149,26.9405],[76.006,26.9382],[76.008,26.9336],[76.0225,26.9344],[76.0318,26.9323],[76.0519,26.9236],[76.0607,26.9251],[76.0602,26.9281],[76.054,26.9282],[76.055,26.9315],[76.0618,26.9303],[76.0707,26.9314],[76.0736,26.9377],[76.0699,26.9433],[76.073,26.9626],[76.0796,26.9894],[76.0869,27.0032],[76.0857,27.0054],[76.0795,27.002],[76.0779,27.007],[76.0797,27.0191],[76.0766,27.0241],[76.0663,27.0282],[76.0668,27.0315],[76.0752,27.0316],[76.0813,27.0273],[76.0864,27.0359],[76.0946,27.0395],[76.0988,27.0455],[76.0994,27.052],[76.0949,27.0616],[76.0979,27.0655],[76.104,27.0577],[76.1072,27.0599],[76.1077,27.0672],[76.1017,27.071],[76.1047,27.0726],[76.1093,27.068],[76.114,27.0711],[76.1241,27.0888],[76.1312,27.0936],[76.1269,27.1051],[76.1243,27.1059],[76.1145,27.0957]]],[[[76.1834,27.1526],[76.1833,27.1718],[76.1872,27.1847],[76.1846,27.1881],[76.1859,27.2007],[76.1814,27.2078],[76.1835,27.2199],[76.1891,27.2256],[76.1904,27.2323],[76.1814,27.2476],[76.1769,27.2457],[76.1751,27.2399],[76.1752,27.2248],[76.1731,27.2183],[76.1752,27.2125],[76.1729,27.2086],[76.1746,27.2008],[76.1691,27.1958],[76.169,27.1851],[76.1655,27.1713],[76.1724,27.1671],[76.1758,27.1491],[76.176,27.1403],[76.1727,27.1352],[76.1664,27.1356],[76.1668,27.1261],[76.1552,27.1195],[76.1519,27.1255],[76.134,27.1223],[76.134,27.1101],[76.1419,27.1081],[76.145,27.1122],[76.1432,27.1177],[76.1479,27.1196],[76.1536,27.1162],[76.1538,27.1094],[76.1487,27.1072],[76.1459,27.0986],[76.1516,27.0926],[76.1573,27.0967],[76.1676,27.09],[76.1712,27.0918],[76.1822,27.0875],[76.1882,27.0889],[76.1918,27.0751],[76.2052,27.0797],[76.207,27.0863],[76.2052,27.0918],[76.2173,27.0914],[76.2096,27.1],[76.2081,27.1049],[76.2132,27.1058],[76.2229,27.0957],[76.2228,27.0894],[76.2276,27.0857],[76.2342,27.0889],[76.2365,27.0934],[76.2368,27.1016],[76.2404,27.1113],[76.2484,27.1089],[76.2501,27.1038],[76.2467,27.1004],[76.2544,27.0908],[76.2623,27.0865],[76.2629,27.0817],[76.2669,27.0814],[76.2701,27.0917],[76.2674,27.0936],[76.2703,27.1024],[76.2695,27.1063],[76.2624,27.1126],[76.2592,27.1245],[76.2633,27.1318],[76.2711,27.1335],[76.2706,27.1379],[76.2592,27.1403],[76.2552,27.1355],[76.2564,27.1285],[76.2504,27.1328],[76.2375,27.1348],[76.2377,27.147],[76.2296,27.1413],[76.2141,27.1384],[76.2067,27.1352],[76.2044,27.1211],[76.2089,27.1222],[76.21,27.1168],[76.2057,27.1119],[76.2028,27.1129],[76.2037,27.1188],[76.2013,27.1242],[76.1963,27.1228],[76.1919,27.1173],[76.1929,27.1144],[76.1861,27.113],[76.1885,27.1171],[76.1765,27.1252],[76.1835,27.1365],[76.1818,27.1483],[76.1834,27.1526]]],[[[76.1526,27.2469],[76.1535,27.2494],[76.1455,27.248],[76.1384,27.2444],[76.1327,27.2387],[76.1283,27.2292],[76.1234,27.2282],[76.1177,27.2228],[76.1191,27.2099],[76.1137,27.2092],[76.1161,27.2037],[76.1161,27.1941],[76.1101,27.1811],[76.1117,27.1692],[76.1176,27.1688],[76.1177,27.1818],[76.1204,27.1854],[76.1283,27.1839],[76.1361,27.175],[76.1238,27.1406],[76.1268,27.1384],[76.1376,27.1465],[76.1494,27.1447],[76.1516,27.153],[76.1589,27.1532],[76.166,27.1479],[76.153,27.167],[76.1563,27.1755],[76.1592,27.2035],[76.1666,27.212],[76.1694,27.222],[76.1689,27.2321],[76.165,27.237],[76.1631,27.2472],[76.1591,27.2469],[76.1578,27.2424],[76.1602,27.2295],[76.155,27.2326],[76.1503,27.2201],[76.1507,27.2073],[76.1437,27.2013],[76.142,27.211],[76.1463,27.2146],[76.1484,27.2257],[76.1368,27.2229],[76.1408,27.2295],[76.1462,27.2334],[76.1475,27.2391],[76.1526,27.2469]]]]},"properties":{"id":"jamwa-ramgarh-wls","name":"Jamwa Ramgarh Wildlife Sanctuary","category":"wls","area_km2":300}}]}