{"type":"FeatureCollection","features":[{"type":"Feature","geometry":{"type":"Polygon","coordinates":[[[75.3543,32.5028],[75.3598,32.5081],[75.3517,32.5193],[75.3466,32.5156],[75.3469,32.5101],[75.3401,32.5091],[75.3429,32.5061],[75.3372,32.504],[75.3354,32.4968],[75.341,32.4954],[75.3409,32.485],[75.3592,32.4878],[75.3585,32.4841],[75.3665,32.4893],[75.3659,32.4848],[75.37,32.4837],[75.3715,32.4885],[75.3796,32.4938],[75.3765,32.4871],[75.3745,32.4891],[75.3707,32.4829],[75.3743,32.474],[75.3822,32.4759],[75.3836,32.48],[75.3885,32.4766],[75.3965,32.4747],[75.3982,32.4665],[75.4078,32.4643],[75.4112,32.4676],[75.4126,32.4774],[75.417,32.494],[75.4117,32.498],[75.4157,32.5015],[75.4029,32.5014],[75.3972,32.4948],[75.394,32.5014],[75.3854,32.5002],[75.3813,32.4958],[75.3773,32.4987],[75.3734,32.5107],[75.3662,32.507],[75.3631,32.5101],[75.3605,32.5056],[75.3543,32.5028]]]},"properties":{"id":"jasrota-wls","name":"Jasrota Wildlife Sanctuary","category":"wls","area_km2":10}}]}