{"type":"FeatureCollection","features":[{"type":"Feature","geometry":{"type":"Polygon","coordinates":[[[75.6921,25.0123],[75.6909,25.0209],[75.6934,25.0264],[75.7069,25.038],[75.7174,25.0421],[75.7212,25.0469],[75.728,25.0609],[75.7448,25.0699],[75.7518,25.0769],[75.756,25.0848],[75.7438,25.0866],[75.7497,25.0912],[75.7617,25.0947],[75.7672,25.1014],[75.7659,25.1069],[75.7507,25.1139],[75.7489,25.1165],[75.7493,25.1281],[75.7474,25.1287],[75.7301,25.1241],[75.7276,25.1176],[75.7193,25.1213],[75.7109,25.122],[75.706,25.1169],[75.7018,25.0996],[75.6944,25.091],[75.6866,25.0852],[75.6755,25.0816],[75.6626,25.0821],[75.6518,25.0769],[75.6423,25.0771],[75.6273,25.0838],[75.6212,25.0824],[75.6206,25.0657],[75.6185,25.0604],[75.6221,25.0577],[75.6242,25.0447],[75.6226,25.0416],[75.612,25.0419],[75.5961,25.051],[75.576,25.0593],[75.5666,25.058],[75.5685,25.0494],[75.5664,25.0449],[75.552,25.0383],[75.5399,25.0281],[75.5303,25.0225],[75.5255,25.0219],[75.5107,25.0238],[75.4989,25.024],[75.4968,25.0222],[75.4886,25.0058],[75.4863,24.9975],[75.4819,24.9929],[75.4752,24.9904],[75.4703,24.9931],[75.4675,24.9994],[75.4505,24.9987],[75.4396,24.9914],[75.4386,24.9882],[75.45,24.9668],[75.4446,24.9605],[75.4491,24.9523],[75.4551,24.9508],[75.4652,24.9627],[75.4703,24.9635],[75.4758,24.9546],[75.4834,24.953],[75.5014,24.9564],[75.505,24.9615],[75.5033,24.9646],[75.4911,24.9656],[75.4874,24.9596],[75.4833,24.9583],[75.4758,24.9634],[75.4756,24.969],[75.4678,24.9692],[75.455,24.9675],[75.4574,24.9725],[75.4693,24.9717],[75.4779,24.9791],[75.4848,24.9824],[75.4947,24.9809],[75.4971,24.9727],[75.5101,24.9721],[75.523,24.9781],[75.5286,24.9774],[75.5364,24.9723],[75.5315,24.9859],[75.537,24.9858],[75.5449,24.9791],[75.5518,24.9783],[75.5664,24.9824],[75.566,24.9763],[75.584,24.98],[75.5831,24.9848],[75.5759,24.9858],[75.5726,24.9914],[75.5753,24.9945],[75.5849,24.9953],[75.5875,24.9904],[75.5961,24.9971],[75.6039,24.9975],[75.606,25.0016],[75.6145,24.9983],[75.6182,24.9938],[75.6242,24.9949],[75.6348,25.0086],[75.6519,25.0292],[75.659,25.0319],[75.6696,25.032],[75.6788,25.0356],[75.6766,25.0288],[75.653,25.0247],[75.6235,24.9908],[75.6197,24.9889],[75.6138,24.9788],[75.6138,24.9754],[75.6239,24.9728],[75.6286,24.9665],[75.637,24.9672],[75.6463,24.973],[75.6538,24.9847],[75.6595,24.9908],[75.6788,25.0015],[75.6921,25.0123]]]},"properties":{"id":"jawahar-sagar-wls","name":"Jawahar Sagar Wildlife Sanctuary","category":"wls","area_km2":153.4}}]}