{"type":"FeatureCollection","features":[{"type":"Feature","geometry":{"type":"Polygon","coordinates":[[[72.5675,24.4873],[72.5651,24.4836],[72.5573,24.4846],[72.5582,24.478],[72.5642,24.4754],[72.5652,24.4679],[72.5543,24.4638],[72.5536,24.4699],[72.5443,24.4779],[72.5478,24.4822],[72.5436,24.4893],[72.5396,24.4859],[72.5318,24.4864],[72.5317,24.477],[72.5269,24.4739],[72.5048,24.4716],[72.5044,24.4584],[72.4932,24.4591],[72.4941,24.4503],[72.5003,24.417],[72.475,24.4144],[72.4573,24.4148],[72.4582,24.4254],[72.4549,24.43],[72.444,24.4253],[72.4352,24.4274],[72.4354,24.4349],[72.4509,24.4431],[72.4338,24.4601],[72.4302,24.4802],[72.4426,24.5036],[72.4379,24.5047],[72.4323,24.4973],[72.4275,24.4989],[72.4168,24.4969],[72.4129,24.4923],[72.3886,24.4902],[72.3909,24.48],[72.4002,24.4739],[72.4096,24.4707],[72.417,24.4759],[72.4202,24.4587],[72.4168,24.4569],[72.4166,24.4513],[72.4073,24.4385],[72.4091,24.4305],[72.4135,24.443],[72.4182,24.4473],[72.4245,24.4488],[72.424,24.4411],[72.4282,24.4403],[72.4264,24.4332],[72.429,24.4308],[72.4243,24.4277],[72.4266,24.4165],[72.4234,24.4195],[72.4146,24.4106],[72.4147,24.4083],[72.4072,24.4034],[72.3927,24.3894],[72.3969,24.381],[72.3947,24.3764],[72.3994,24.3698],[72.3982,24.3603],[72.4024,24.3565],[72.4112,24.3551],[72.4107,24.352],[72.4184,24.3514],[72.419,24.3457],[72.4271,24.3438],[72.4327,24.3452],[72.446,24.3397],[72.452,24.3402],[72.4523,24.3323],[72.468,24.3354],[72.47,24.3436],[72.4763,24.3468],[72.4774,24.3544],[72.4747,24.3566],[72.4832,24.3615],[72.488,24.3731],[72.4983,24.3695],[72.4992,24.3647],[72.5084,24.3668],[72.513,24.371],[72.5135,24.3785],[72.519,24.3767],[72.5233,24.3812],[72.5319,24.3764],[72.5382,24.384],[72.5309,24.3865],[72.5294,24.3896],[72.5194,24.392],[72.5344,24.3959],[72.5408,24.3908],[72.5466,24.3907],[72.5441,24.3979],[72.5489,24.3992],[72.5486,24.4103],[72.5419,24.4128],[72.5463,24.4184],[72.5469,24.4237],[72.5525,24.4245],[72.5525,24.4188],[72.5693,24.4096],[72.5819,24.4145],[72.5814,24.4191],[72.5769,24.4246],[72.567,24.4248],[72.5692,24.4289],[72.5776,24.4269],[72.5816,24.423],[72.5868,24.4226],[72.5904,24.4169],[72.6037,24.4195],[72.6107,24.4294],[72.6081,24.4343],[72.6166,24.4404],[72.613,24.445],[72.6142,24.4535],[72.609,24.4551],[72.6163,24.4627],[72.612,24.4704],[72.5976,24.4751],[72.5759,24.4789],[72.5675,24.4873]],[[72.4517,24.3939],[72.454,24.3969],[72.4621,24.3908],[72.4661,24.3913],[72.4787,24.3842],[72.4808,24.3809],[72.4791,24.371],[72.4742,24.3661],[72.4675,24.3659],[72.4611,24.3697],[72.4554,24.3675],[72.4455,24.369],[72.4451,24.3626],[72.45,24.3591],[72.4434,24.3552],[72.4338,24.3628],[72.44,24.3648],[72.4403,24.3702],[72.4231,24.3815],[72.4275,24.3844],[72.4253,24.392],[72.4359,24.3938],[72.4479,24.3879],[72.4517,24.3939]]]},"properties":{"id":"jessore-wls","name":"Jessore Wildlife Sanctuary","category":"wls","area_km2":180.7}}]}