{"type":"FeatureCollection","features":[{"type":"Feature","geometry":{"type":"Polygon","coordinates":[[[93.3773,25.1167],[93.3912,25.1229],[93.4021,25.1246],[93.412,25.1174],[93.4287,25.1186],[93.4331,25.1227],[93.4376,25.1398],[93.4361,25.1604],[93.4372,25.1806],[93.4401,25.1871],[93.4494,25.1918],[93.4509,25.1967],[93.4598,25.1979],[93.4633,25.2056],[93.4703,25.2046],[93.4789,25.2096],[93.4899,25.2279],[93.5015,25.2407],[93.5005,25.2499],[93.5071,25.2721],[93.5007,25.2723],[93.4913,25.2753],[93.4839,25.2725],[93.4731,25.2756],[93.469,25.282],[93.4716,25.2963],[93.4704,25.305],[93.4633,25.3015],[93.4586,25.2958],[93.4527,25.2922],[93.4475,25.2921],[93.436,25.2878],[93.4268,25.2797],[93.4207,25.2776],[93.4164,25.2649],[93.4064,25.2607],[93.402,25.2611],[93.3937,25.2547],[93.393,25.251],[93.3865,25.2427],[93.3809,25.2385],[93.3845,25.2307],[93.3815,25.2225],[93.3756,25.2199],[93.3738,25.2119],[93.369,25.211],[93.3663,25.2064],[93.3654,25.1978],[93.3593,25.1951],[93.3575,25.1881],[93.3516,25.1836],[93.3458,25.1695],[93.344,25.1591],[93.3474,25.1384],[93.3435,25.1382],[93.3452,25.1293],[93.3418,25.1264],[93.3404,25.118],[93.3515,25.1201],[93.3663,25.1167],[93.3773,25.1167]]]},"properties":{"id":"jiri-makru-wls","name":"Jiri-Makru Wildlife Sanctuary","category":"wls","area_km2":198}}]}