{"type":"FeatureCollection","features":[{"type":"Feature","geometry":{"type":"Polygon","coordinates":[[[76.3722,14.1521],[76.3737,14.1565],[76.3789,14.1585],[76.3878,14.1472],[76.3953,14.1419],[76.4057,14.1458],[76.4069,14.1404],[76.4003,14.1369],[76.3919,14.126],[76.3908,14.117],[76.3809,14.1155],[76.3795,14.107],[76.3674,14.0984],[76.3532,14.101],[76.3531,14.0977],[76.362,14.0933],[76.377,14.0915],[76.3895,14.0977],[76.394,14.0981],[76.3973,14.0914],[76.3952,14.0817],[76.3635,14.0781],[76.3557,14.0805],[76.354,14.0759],[76.3558,14.0701],[76.3593,14.0678],[76.3629,14.0578],[76.3688,14.0477],[76.3765,14.0454],[76.3763,14.0412],[76.3814,14.0409],[76.3898,14.0518],[76.388,14.0554],[76.3951,14.0566],[76.3983,14.0488],[76.3963,14.0443],[76.4047,14.0384],[76.4095,14.0391],[76.4085,14.0462],[76.4145,14.0459],[76.4173,14.043],[76.4159,14.0374],[76.4205,14.0415],[76.4279,14.043],[76.4294,14.0402],[76.4327,14.0503],[76.4267,14.0475],[76.4237,14.0537],[76.4089,14.0639],[76.4131,14.0652],[76.415,14.0606],[76.42,14.0591],[76.4246,14.0701],[76.4218,14.0732],[76.4227,14.0839],[76.4271,14.0886],[76.4244,14.1002],[76.427,14.1053],[76.4173,14.1018],[76.4166,14.0979],[76.412,14.0998],[76.4031,14.0992],[76.3997,14.1047],[76.4053,14.1181],[76.4147,14.1168],[76.4207,14.1126],[76.4291,14.1233],[76.431,14.1173],[76.4382,14.1245],[76.4451,14.1265],[76.4472,14.1241],[76.452,14.1296],[76.4555,14.1266],[76.455,14.1327],[76.459,14.1406],[76.4564,14.146],[76.4495,14.1491],[76.4419,14.1413],[76.439,14.1325],[76.4316,14.1381],[76.4186,14.1422],[76.4093,14.1498],[76.4185,14.1612],[76.4157,14.1671],[76.4272,14.1765],[76.4242,14.1845],[76.4327,14.1895],[76.4301,14.1948],[76.4314,14.1984],[76.4259,14.2043],[76.4192,14.2025],[76.4171,14.2053],[76.4122,14.2045],[76.4106,14.1996],[76.404,14.2047],[76.403,14.2109],[76.4002,14.2109],[76.3979,14.2178],[76.3945,14.2185],[76.3888,14.2108],[76.3833,14.2067],[76.3797,14.2111],[76.3658,14.1951],[76.3696,14.1884],[76.3588,14.1816],[76.3555,14.1771],[76.3525,14.1784],[76.3499,14.1675],[76.3459,14.168],[76.3424,14.1635],[76.3424,14.157],[76.3455,14.1523],[76.3581,14.1508],[76.3604,14.1559],[76.3649,14.1554],[76.3662,14.1505],[76.3722,14.1521]]]},"properties":{"id":"jogimatti-wls","name":"Jogimatti Wildlife Sanctuary","category":"wls","area_km2":100.5}}]}