{"type":"FeatureCollection","features":[{"type":"Feature","geometry":{"type":"Polygon","coordinates":[[[86.1227,25.6555],[86.119,25.6547],[86.1171,25.6478],[86.1266,25.6429],[86.1204,25.6332],[86.1195,25.6366],[86.1237,25.6417],[86.1149,25.6482],[86.115,25.6534],[86.1108,25.6502],[86.1109,25.6439],[86.115,25.6416],[86.1052,25.638],[86.0986,25.6419],[86.0922,25.6412],[86.0849,25.6446],[86.0831,25.641],[86.0922,25.6372],[86.1009,25.64],[86.106,25.6363],[86.115,25.64],[86.1173,25.6298],[86.1104,25.6291],[86.1227,25.6211],[86.1447,25.6186],[86.1401,25.616],[86.1319,25.619],[86.1244,25.6178],[86.1146,25.625],[86.1151,25.6169],[86.1204,25.6096],[86.1435,25.6056],[86.1338,25.6041],[86.1325,25.6019],[86.1249,25.6027],[86.1403,25.5981],[86.1329,25.5979],[86.1265,25.5946],[86.129,25.59],[86.1364,25.5852],[86.1461,25.5831],[86.1546,25.5854],[86.1443,25.5908],[86.1674,25.5879],[86.1702,25.5947],[86.1611,25.5906],[86.154,25.5929],[86.153,25.5982],[86.1656,25.5955],[86.1715,25.599],[86.1694,25.6037],[86.1607,25.6062],[86.1726,25.6085],[86.1711,25.6121],[86.1629,25.6146],[86.1668,25.6185],[86.1562,25.624],[86.1561,25.6281],[86.1641,25.6278],[86.1634,25.6322],[86.1589,25.6332],[86.1582,25.6383],[86.1446,25.6327],[86.1433,25.6379],[86.1321,25.6437],[86.1301,25.6487],[86.1343,25.652],[86.1281,25.6525],[86.1265,25.6482],[86.1227,25.6555]]]},"properties":{"id":"kabartal-wetland-ramsar","name":"Kabartal Wetland","category":"ramsar","area_km2":26.2}}]}