{"type":"FeatureCollection","features":[{"type":"Feature","geometry":{"type":"Polygon","coordinates":[[[70.5731,24.4224],[70.5578,24.4198],[70.5497,24.4144],[70.5348,24.4079],[70.5153,24.4041],[70.4934,24.397],[70.4761,24.3898],[70.4661,24.3874],[70.4387,24.3833],[70.4117,24.3756],[70.3984,24.3671],[70.392,24.3606],[70.3764,24.3555],[70.3685,24.3508],[70.3631,24.3506],[70.3542,24.3541],[70.3456,24.3516],[70.3267,24.352],[70.3052,24.3468],[70.2845,24.3404],[70.2595,24.331],[70.2507,24.3244],[70.2312,24.3236],[70.2121,24.3204],[70.1991,24.3145],[70.166,24.3035],[70.1394,24.3029],[70.121,24.2986],[70.1099,24.295],[70.0992,24.272],[70.0831,24.2348],[70.0668,24.1992],[70.051,24.1896],[70.0387,24.1765],[70.0251,24.1713],[69.9664,24.171],[69.898,24.1714],[69.8456,24.1713],[69.8408,24.1491],[69.8416,24.1394],[69.8406,24.1257],[69.8307,24.1153],[69.8059,24.1058],[69.7879,24.1056],[69.7614,24.1038],[69.7305,24.1037],[69.7165,24.093],[69.7092,24.0778],[69.7089,24.0544],[69.7151,24.0431],[69.731,24.0304],[69.753,24.0212],[69.7732,24.0079],[69.7794,23.9838],[69.8174,23.9583],[69.849,23.9483],[69.9211,23.9219],[69.9589,23.8962],[69.9651,23.8836],[69.9561,23.867],[69.9427,23.8353],[69.9355,23.8133],[69.9451,23.7841],[69.9544,23.7662],[69.9575,23.7502],[69.9527,23.7401],[69.9403,23.7326],[69.9252,23.7247],[69.9194,23.7118],[69.9342,23.6659],[69.9177,23.5985],[69.9293,23.5883],[69.9534,23.5782],[70.0008,23.5686],[70.0368,23.569],[70.0737,23.5714],[70.1225,23.5716],[70.151,23.5725],[70.1758,23.5858],[70.2313,23.5882],[70.2569,23.5916],[70.2896,23.5968],[70.3146,23.6087],[70.3357,23.6095],[70.3546,23.6143],[70.3859,23.6297],[70.415,23.6389],[70.4329,23.6479],[70.4574,23.6751],[70.4805,23.6863],[70.5128,23.6969],[70.527,23.7026],[70.5375,23.7131],[70.5407,23.7236],[70.5336,23.7482],[70.5362,23.7582],[70.5448,23.7672],[70.5547,23.7685],[70.5856,23.7533],[70.5935,23.7544],[70.6057,23.7698],[70.6093,23.784],[70.6101,23.8006],[70.6081,23.8187],[70.5956,23.8357],[70.5728,23.8563],[70.5558,23.8894],[70.5462,23.9022],[70.5385,23.9176],[70.5384,23.9274],[70.552,23.9417],[70.5757,23.9541],[70.6033,23.9576],[70.6287,23.9555],[70.6591,23.9397],[70.7064,23.9279],[70.7531,23.9155],[70.7949,23.9064],[70.8331,23.9014],[70.8641,23.8947],[70.897,23.8808],[70.9129,23.8719],[70.9286,23.8552],[70.94,23.8449],[70.9553,23.8439],[70.9732,23.8542],[71.0028,23.8933],[71.0648,23.9206],[71.1695,23.9523],[71.27,23.9593],[71.3202,23.9829],[71.3299,23.9962],[71.3299,24.0072],[71.321,24.0305],[71.3158,24.0485],[71.3129,24.0618],[71.3132,24.0868],[71.3247,24.1039],[71.3343,24.11],[71.3324,24.1172],[71.3222,24.1209],[71.2946,24.126],[71.2745,24.1389],[71.2676,24.1513],[71.266,24.1659],[71.2688,24.1734],[71.2753,24.175],[71.2891,24.1684],[71.3027,24.1637],[71.3231,24.1673],[71.3326,24.1746],[71.3273,24.184],[71.3145,24.1955],[71.2705,24.2467],[71.2613,24.2541],[71.2379,24.2601],[71.2026,24.2707],[71.1934,24.2787],[71.1702,24.291],[71.1391,24.3087],[71.0898,24.3283],[71.0638,24.3503],[71.0421,24.3513],[71.0399,24.3533],[71.0202,24.3474],[71.0035,24.351],[70.9865,24.3647],[70.9637,24.3536],[70.9554,24.3486],[70.9477,24.3481],[70.9237,24.3277],[70.9248,24.3259],[70.8871,24.3053],[70.8787,24.3014],[70.8826,24.2998],[70.8745,24.2945],[70.8757,24.2802],[70.8829,24.2728],[70.9092,24.2628],[70.9073,24.2588],[70.8831,24.2499],[70.8766,24.2457],[70.8591,24.246],[70.8509,24.2444],[70.8362,24.2315],[70.8265,24.2268],[70.8055,24.2209],[70.7749,24.2203],[70.7581,24.2186],[70.7402,24.219],[70.7139,24.2157],[70.6996,24.2187],[70.6984,24.2203],[70.6678,24.2195],[70.6435,24.2249],[70.596,24.2433],[70.5712,24.2517],[70.5744,24.2641],[70.5848,24.278],[70.5845,24.2904],[70.5794,24.2953],[70.5818,24.3045],[70.5739,24.322],[70.5621,24.3519],[70.5636,24.3563],[70.5805,24.3633],[70.5983,24.4028],[70.6025,24.4081],[70.5731,24.4224]],[[70.3534,23.7815],[70.3288,23.7916],[70.2607,23.8147],[70.1906,23.8554],[70.1737,23.8849],[70.1675,23.9254],[70.176,23.9339],[70.1823,23.9373],[70.1942,23.9387],[70.2294,23.9299],[70.2536,23.9266],[70.2824,23.9236],[70.3054,23.9256],[70.3312,23.937],[70.3428,23.9408],[70.3509,23.9401],[70.3592,23.9351],[70.379,23.9278],[70.3978,23.9247],[70.4553,23.9283],[70.4826,23.9276],[70.4851,23.921],[70.4817,23.9135],[70.4701,23.8987],[70.4551,23.8868],[70.4417,23.8793],[70.4268,23.8557],[70.4131,23.8268],[70.4029,23.8115],[70.3863,23.8123],[70.3772,23.8093],[70.3755,23.797],[70.3698,23.7844],[70.3627,23.7809],[70.3534,23.7815]],[[70.4813,23.7169],[70.4757,23.7165],[70.4672,23.7241],[70.4654,23.7379],[70.475,23.7564],[70.4911,23.7666],[70.5054,23.7675],[70.5182,23.7661],[70.5254,23.7438],[70.5168,23.7316],[70.5039,23.7227],[70.4813,23.7169]]]},"properties":{"id":"kachchh-desert-wls","name":"Kachchh Desert Wildlife Sanctuary","category":"wls","area_km2":7506.2}}]}