{"type":"FeatureCollection","features":[{"type":"Feature","geometry":{"type":"Polygon","coordinates":[[[93.3339,24.2431],[93.335,24.2391],[93.3468,24.2362],[93.3523,24.2368],[93.3609,24.2445],[93.376,24.2333],[93.3894,24.2266],[93.3975,24.2166],[93.4045,24.215],[93.4074,24.2112],[93.4144,24.2091],[93.426,24.2007],[93.438,24.2058],[93.4421,24.2122],[93.4504,24.2174],[93.4557,24.2245],[93.462,24.2232],[93.4642,24.2272],[93.4562,24.2344],[93.4665,24.2448],[93.4661,24.249],[93.4588,24.2554],[93.4612,24.266],[93.4653,24.2705],[93.471,24.283],[93.4768,24.2994],[93.48,24.3039],[93.4778,24.3107],[93.485,24.3206],[93.4839,24.3254],[93.4857,24.3396],[93.4777,24.3453],[93.4804,24.3473],[93.4891,24.3435],[93.5034,24.3705],[93.4973,24.3714],[93.4956,24.3683],[93.4881,24.3677],[93.4856,24.3736],[93.4745,24.3854],[93.4729,24.3922],[93.4599,24.3963],[93.4554,24.3927],[93.4494,24.3958],[93.4463,24.3911],[93.4455,24.3832],[93.4337,24.3844],[93.4171,24.3706],[93.4092,24.3575],[93.3969,24.3425],[93.3841,24.3417],[93.3705,24.3377],[93.3592,24.3374],[93.3507,24.3397],[93.3417,24.3529],[93.3353,24.3531],[93.3358,24.343],[93.3302,24.3372],[93.3332,24.3322],[93.3301,24.3294],[93.3247,24.3307],[93.3225,24.3222],[93.3368,24.3116],[93.3376,24.3063],[93.3331,24.2753],[93.331,24.253],[93.3339,24.2431]]]},"properties":{"id":"kailam-wls","name":"Kailam Wildlife Sanctuary","category":"wls","area_km2":187.5}}]}