{"type":"FeatureCollection","features":[{"type":"Feature","geometry":{"type":"MultiPolygon","coordinates":[[[[82.4294,24.8639],[82.424,24.8654],[82.4157,24.8726],[82.4049,24.8749],[82.3977,24.8687],[82.3892,24.864],[82.3916,24.8596],[82.3881,24.8542],[82.3878,24.8471],[82.3927,24.8417],[82.4031,24.8375],[82.4097,24.83],[82.4183,24.8249],[82.4214,24.8205],[82.4262,24.8069],[82.4296,24.8041],[82.4416,24.8058],[82.4489,24.8018],[82.4523,24.7958],[82.452,24.7895],[82.4482,24.7856],[82.4455,24.776],[82.4383,24.7691],[82.443,24.7659],[82.4456,24.759],[82.4571,24.7523],[82.4749,24.7531],[82.4966,24.7495],[82.5069,24.7527],[82.5101,24.7563],[82.5195,24.7565],[82.5251,24.7459],[82.5248,24.742],[82.5281,24.731],[82.5282,24.7221],[82.5223,24.7122],[82.5294,24.7095],[82.5264,24.7047],[82.5305,24.6969],[82.5235,24.6968],[82.5148,24.7054],[82.5089,24.7057],[82.4985,24.7013],[82.4925,24.6935],[82.4844,24.6863],[82.4839,24.6765],[82.4916,24.6729],[82.4989,24.6672],[82.5105,24.6666],[82.5153,24.6636],[82.5216,24.6517],[82.5263,24.6464],[82.5414,24.6377],[82.5481,24.6387],[82.5538,24.6448],[82.5512,24.6487],[82.565,24.6508],[82.5837,24.6583],[82.5878,24.6623],[82.5961,24.6636],[82.6054,24.6697],[82.6135,24.6679],[82.6141,24.6743],[82.6266,24.6771],[82.6351,24.6759],[82.6413,24.6817],[82.6489,24.6803],[82.6621,24.6833],[82.667,24.6801],[82.6704,24.673],[82.6828,24.6707],[82.6844,24.6758],[82.6905,24.6754],[82.6939,24.6705],[82.6926,24.6586],[82.6899,24.6508],[82.6959,24.6463],[82.692,24.634],[82.6965,24.631],[82.707,24.6373],[82.7187,24.6318],[82.7306,24.633],[82.7338,24.638],[82.7458,24.6393],[82.7523,24.6351],[82.7615,24.6379],[82.7674,24.6356],[82.7742,24.6364],[82.7806,24.6404],[82.7846,24.6375],[82.7934,24.639],[82.8018,24.636],[82.8115,24.6407],[82.8137,24.6349],[82.8339,24.6312],[82.8515,24.6307],[82.8609,24.6325],[82.8646,24.6374],[82.8714,24.6277],[82.8815,24.6304],[82.8831,24.6185],[82.8853,24.6158],[82.8963,24.6155],[82.9063,24.6134],[82.9155,24.6201],[82.9274,24.6143],[82.9452,24.6117],[82.9474,24.6082],[82.9612,24.6065],[82.9868,24.6117],[82.9937,24.611],[83.0124,24.6134],[83.0211,24.6174],[83.0233,24.6157],[83.0376,24.6164],[83.043,24.6193],[83.0524,24.6186],[83.0542,24.615],[83.0635,24.6166],[83.072,24.6132],[83.074,24.61],[83.0854,24.6051],[83.0908,24.6009],[83.094,24.5887],[83.0975,24.5873],[83.0991,24.5813],[83.1106,24.5716],[83.1078,24.5639],[83.0961,24.5599],[83.088,24.5587],[83.0822,24.555],[83.0604,24.5344],[83.0612,24.5276],[83.077,24.5075],[83.0713,24.5048],[83.0708,24.5003],[83.0848,24.4896],[83.0969,24.4852],[83.0964,24.4775],[83.1048,24.4775],[83.1069,24.4808],[83.1167,24.4845],[83.1177,24.481],[83.1247,24.4799],[83.1402,24.4747],[83.1482,24.4733],[83.1563,24.4748],[83.1654,24.4742],[83.1753,24.4822],[83.1757,24.4851],[83.1569,24.4936],[83.1641,24.4977],[83.1804,24.4939],[83.1887,24.4976],[83.1885,24.5004],[83.1613,24.5115],[83.1366,24.511],[83.1212,24.5126],[83.1105,24.515],[83.1048,24.5178],[83.0994,24.5255],[83.1013,24.5343],[83.1098,24.5413],[83.1017,24.5466],[83.1023,24.55],[83.1119,24.5468],[83.1254,24.5527],[83.1278,24.5691],[83.1426,24.5728],[83.1507,24.5774],[83.1515,24.5855],[83.1551,24.5941],[83.1488,24.6028],[83.1501,24.6074],[83.1473,24.6115],[83.1323,24.6165],[83.1254,24.6172],[83.1194,24.6216],[83.1091,24.6336],[83.0917,24.6347],[83.0782,24.6328],[83.0743,24.6385],[83.0523,24.6457],[83.0472,24.6453],[83.0414,24.6505],[83.0267,24.646],[83.0242,24.642],[83.009,24.6341],[83.0027,24.6356],[82.9944,24.6336],[82.9905,24.6424],[82.9818,24.6541],[82.9746,24.653],[82.9688,24.6582],[82.9674,24.6636],[82.9594,24.6587],[82.9493,24.6587],[82.9436,24.6666],[82.9369,24.663],[82.9328,24.6634],[82.925,24.66],[82.9232,24.6629],[82.9247,24.6719],[82.916,24.6763],[82.9084,24.6771],[82.8917,24.6727],[82.8848,24.6754],[82.8821,24.6701],[82.8779,24.6697],[82.8708,24.6649],[82.8617,24.6628],[82.8558,24.6634],[82.8483,24.6699],[82.8379,24.6735],[82.835,24.6727],[82.8307,24.6798],[82.8244,24.6783],[82.8193,24.6834],[82.814,24.6816],[82.808,24.6763],[82.8009,24.6663],[82.797,24.6637],[82.7816,24.6601],[82.7741,24.6616],[82.7651,24.6546],[82.7532,24.6558],[82.7549,24.6595],[82.7457,24.656],[82.7525,24.6532],[82.7428,24.6516],[82.7387,24.6543],[82.7309,24.6537],[82.7183,24.6498],[82.7079,24.6589],[82.7056,24.6646],[82.7075,24.677],[82.7022,24.6819],[82.6979,24.6895],[82.6909,24.6878],[82.6835,24.6903],[82.6823,24.6938],[82.6877,24.6989],[82.6847,24.7016],[82.6882,24.7081],[82.7071,24.7058],[82.7182,24.7136],[82.7263,24.7162],[82.724,24.7232],[82.712,24.7281],[82.7105,24.7356],[82.7018,24.7348],[82.7004,24.7309],[82.6959,24.7307],[82.6918,24.7228],[82.6885,24.7221],[82.676,24.7291],[82.6724,24.7236],[82.6681,24.7224],[82.6656,24.7169],[82.6622,24.7167],[82.6581,24.6992],[82.6463,24.6949],[82.6427,24.6986],[82.646,24.7047],[82.6445,24.7081],[82.638,24.7056],[82.6359,24.6982],[82.6276,24.691],[82.6162,24.6894],[82.6004,24.6905],[82.5926,24.7016],[82.5919,24.7096],[82.5952,24.7149],[82.5864,24.7168],[82.5795,24.7152],[82.5743,24.71],[82.5703,24.7144],[82.5723,24.7215],[82.5687,24.7257],[82.5808,24.7316],[82.5824,24.7417],[82.5674,24.7473],[82.5682,24.7536],[82.5716,24.76],[82.5666,24.7621],[82.5708,24.7761],[82.5708,24.7883],[82.5894,24.7987],[82.6003,24.8016],[82.6194,24.8044],[82.6258,24.8103],[82.6325,24.8112],[82.6437,24.8173],[82.6459,24.8219],[82.6547,24.8226],[82.6617,24.8266],[82.6656,24.8323],[82.6634,24.8348],[82.6512,24.8365],[82.6517,24.8473],[82.6445,24.8508],[82.6307,24.8498],[82.6261,24.8444],[82.625,24.8359],[82.6156,24.8316],[82.6148,24.8281],[82.6187,24.824],[82.6204,24.8154],[82.6108,24.8129],[82.6064,24.8205],[82.607,24.8251],[82.6129,24.8273],[82.6086,24.8326],[82.6069,24.8388],[82.5974,24.8446],[82.5898,24.8451],[82.5885,24.8404],[82.5823,24.8396],[82.5805,24.8353],[82.5738,24.8335],[82.5738,24.8242],[82.5827,24.8213],[82.5899,24.8145],[82.5798,24.8012],[82.5709,24.7972],[82.5649,24.7907],[82.5471,24.7896],[82.5437,24.7927],[82.5219,24.7852],[82.4991,24.7802],[82.4912,24.7828],[82.4902,24.7908],[82.4948,24.7997],[82.489,24.817],[82.484,24.8226],[82.4872,24.8262],[82.4887,24.8407],[82.4873,24.8513],[82.4786,24.8552],[82.4703,24.856],[82.4605,24.8548],[82.4456,24.8595],[82.4395,24.8642],[82.4294,24.8639]],[[82.5366,24.6715],[82.5338,24.6768],[82.5368,24.6804],[82.5561,24.6858],[82.5576,24.68],[82.5716,24.6775],[82.5719,24.6657],[82.5558,24.6582],[82.5487,24.6586],[82.5491,24.669],[82.5454,24.6726],[82.5366,24.6715]]],[[[83.5232,24.5565],[83.5216,24.5379],[83.5369,24.5375],[83.5663,24.5389],[83.5916,24.538],[83.6098,24.5385],[83.6274,24.5332],[83.644,24.5358],[83.6688,24.538],[83.6822,24.541],[83.6981,24.5413],[83.7105,24.5449],[83.7293,24.5548],[83.7409,24.5553],[83.7509,24.5603],[83.7562,24.5663],[83.7811,24.5779],[83.7962,24.581],[83.8084,24.5903],[83.8386,24.6025],[83.8519,24.6021],[83.856,24.6075],[83.8654,24.6064],[83.8756,24.5999],[83.8828,24.597],[83.8988,24.5961],[83.9009,24.6007],[83.908,24.6032],[83.9245,24.6139],[83.9322,24.613],[83.9356,24.6212],[83.9484,24.6262],[83.9489,24.6303],[83.9467,24.6473],[83.9374,24.6568],[83.9347,24.663],[83.928,24.6642],[83.9192,24.671],[83.9065,24.6738],[83.9004,24.6788],[83.8946,24.694],[83.8895,24.6981],[83.8863,24.7059],[83.8914,24.7059],[83.9025,24.6998],[83.907,24.6944],[83.9135,24.6928],[83.9198,24.6877],[83.9303,24.6855],[83.9347,24.6822],[83.9379,24.6731],[83.9462,24.6681],[83.9615,24.6767],[83.9652,24.6711],[83.9767,24.6717],[83.983,24.6752],[83.987,24.6885],[83.9923,24.6968],[83.9874,24.7082],[83.9845,24.7228],[83.9944,24.7309],[84.0038,24.7333],[84.0064,24.7379],[84.0137,24.7662],[84.0155,24.7792],[84.0153,24.7913],[84.013,24.7952],[83.9958,24.7941],[84.0078,24.7996],[84.0165,24.8081],[84.0185,24.814],[84.0191,24.8253],[84.0115,24.8311],[84.0117,24.8431],[84.01,24.8496],[84.0168,24.8487],[84.0237,24.8526],[84.0564,24.8655],[84.0755,24.8667],[84.0797,24.8701],[84.0779,24.8831],[84.0464,24.8903],[84.0429,24.8941],[84.0443,24.903],[84.049,24.9171],[84.0276,24.9129],[84.0196,24.9012],[84.0175,24.896],[84.0104,24.8894],[83.989,24.875],[83.9774,24.864],[83.9676,24.8529],[83.9573,24.8442],[83.9365,24.8286],[83.9287,24.8142],[83.9313,24.7987],[83.9243,24.7965],[83.9172,24.8003],[83.9002,24.8218],[83.8882,24.8293],[83.8787,24.8315],[83.8729,24.8269],[83.8662,24.8255],[83.8571,24.8287],[83.8502,24.8336],[83.8233,24.8383],[83.8087,24.838],[83.79,24.8318],[83.7617,24.8329],[83.7538,24.835],[83.7325,24.8307],[83.7332,24.8188],[83.7215,24.8098],[83.707,24.8272],[83.6944,24.8377],[83.6903,24.8438],[83.6959,24.851],[83.7092,24.8565],[83.7108,24.8614],[83.6957,24.8705],[83.6863,24.8776],[83.6711,24.8723],[83.6579,24.8624],[83.6327,24.8449],[83.6253,24.8467],[83.6198,24.8515],[83.6112,24.8765],[83.6123,24.8825],[83.6177,24.8868],[83.6278,24.8874],[83.6386,24.8924],[83.6449,24.8996],[83.643,24.9052],[83.6334,24.9057],[83.6264,24.9105],[83.6102,24.9129],[83.6042,24.9098],[83.6062,24.8899],[83.601,24.8857],[83.5955,24.8848],[83.5896,24.8909],[83.5862,24.8972],[83.5811,24.9008],[83.5687,24.9013],[83.5628,24.9031],[83.5587,24.9099],[83.5648,24.915],[83.5651,24.9211],[83.5588,24.9268],[83.5548,24.927],[83.5351,24.921],[83.5194,24.9215],[83.5103,24.9204],[83.5068,24.912],[83.5097,24.903],[83.5112,24.8873],[83.5099,24.8835],[83.4967,24.8834],[83.5027,24.8975],[83.4989,24.9015],[83.4989,24.9117],[83.5024,24.9169],[83.4976,24.9194],[83.5084,24.9232],[83.5005,24.9282],[83.4906,24.9306],[83.4691,24.9316],[83.4674,24.937],[83.4793,24.9447],[83.4879,24.9526],[83.4865,24.9563],[83.4752,24.9647],[83.4721,24.9698],[83.4577,24.9798],[83.4425,24.9806],[83.4315,24.9799],[83.4292,24.9836],[83.4349,24.9876],[83.4332,24.9933],[83.4234,24.9956],[83.4171,24.9893],[83.4123,24.9892],[83.4037,24.9971],[83.3974,24.9977],[83.3962,24.9938],[83.3878,24.9927],[83.3792,24.9969],[83.372,24.9973],[83.3552,24.9888],[83.3478,24.9881],[83.3434,24.9808],[83.3452,24.9724],[83.3433,24.9633],[83.3519,24.9616],[83.3556,24.9563],[83.3617,24.9536],[83.3615,24.9419],[83.365,24.938],[83.3611,24.9321],[83.3631,24.9279],[83.3628,24.9093],[83.3547,24.9054],[83.3576,24.9007],[83.366,24.8931],[83.358,24.8903],[83.3605,24.8856],[83.3696,24.8801],[83.3684,24.8769],[83.3577,24.8714],[83.3697,24.8622],[83.377,24.86],[83.3807,24.8536],[83.3807,24.8477],[83.3869,24.8398],[83.3927,24.8406],[83.3969,24.8324],[83.3953,24.8263],[83.4014,24.8193],[83.4,24.8096],[83.394,24.8051],[83.3996,24.7965],[83.3913,24.7891],[83.397,24.7787],[83.4083,24.7741],[83.4127,24.775],[83.4217,24.7696],[83.4281,24.7682],[83.4281,24.763],[83.4414,24.7568],[83.4418,24.7517],[83.4488,24.7385],[83.4514,24.7385],[83.4583,24.7315],[83.4711,24.7324],[83.4894,24.7364],[83.4887,24.7247],[83.4856,24.7157],[83.4851,24.7016],[83.4903,24.7004],[83.4953,24.7046],[83.4986,24.7033],[83.4989,24.6951],[83.507,24.6928],[83.5108,24.6859],[83.518,24.6826],[83.5204,24.6775],[83.5092,24.6712],[83.504,24.6663],[83.502,24.6485],[83.5099,24.6483],[83.5207,24.6409],[83.5299,24.6418],[83.5268,24.63],[83.5316,24.6269],[83.5437,24.6283],[83.5479,24.6234],[83.5416,24.6125],[83.5302,24.612],[83.5239,24.6035],[83.5227,24.5985],[83.5248,24.5881],[83.5302,24.582],[83.5288,24.5746],[83.5304,24.5694],[83.5283,24.5616],[83.5232,24.5565]]]]},"properties":{"id":"kaimur-wls","name":"Kaimur Wildlife Sanctuary","category":"wls","area_km2":500.7}}]}