{"type":"FeatureCollection","features":[{"type":"Feature","geometry":{"type":"Polygon","coordinates":[[[77.1445,32.0105],[77.1414,32.0057],[77.148,32.0035],[77.1417,32.0018],[77.1408,31.9987],[77.1577,31.9976],[77.1647,32.0011],[77.1664,31.9962],[77.178,31.9965],[77.1844,32.0075],[77.1957,32.0188],[77.1945,32.0276],[77.1967,32.037],[77.2086,32.0428],[77.2037,32.0487],[77.1939,32.0462],[77.1824,32.0389],[77.1762,32.0373],[77.1659,32.0278],[77.1632,32.0225],[77.1666,32.015],[77.1631,32.0147],[77.1558,32.0197],[77.1414,32.0232],[77.1373,32.0205],[77.1446,32.019],[77.1561,32.0127],[77.1589,32.0083],[77.1445,32.0105]]]},"properties":{"id":"kais-wls","name":"Kais Wildlife Sanctuary","category":"wls","area_km2":12.6}}]}