{"type":"FeatureCollection","features":[{"type":"Feature","geometry":{"type":"Polygon","coordinates":[[[76.0551,32.5451],[76.0606,32.554],[76.053,32.5502],[76.0487,32.5518],[76.0453,32.5636],[76.0378,32.5712],[76.0525,32.5774],[76.0324,32.5791],[76.0261,32.5771],[76.0144,32.5678],[76.0109,32.5618],[75.9996,32.5618],[76.0038,32.5601],[76.0004,32.5558],[76.0031,32.5463],[75.9978,32.547],[75.9931,32.5419],[75.9898,32.5285],[75.9745,32.5284],[75.9697,32.5245],[75.9724,32.519],[75.9859,32.5119],[75.9981,32.519],[76.0122,32.5188],[76.0289,32.5236],[76.0327,32.5205],[76.0354,32.5245],[76.0449,32.528],[76.0618,32.5312],[76.0716,32.5372],[76.0806,32.539],[76.0881,32.5346],[76.0938,32.534],[76.1006,32.5369],[76.115,32.538],[76.1146,32.5426],[76.1099,32.5505],[76.1131,32.5576],[76.11,32.5623],[76.1109,32.568],[76.089,32.5665],[76.0762,32.5566],[76.0726,32.547],[76.0584,32.5418],[76.0551,32.5451]]]},"properties":{"id":"kalatop-khajjiar-wls","name":"Kalatop-Khajjiar Wildlife Sanctuary","category":"wls","area_km2":17.2}}]}