{"type":"FeatureCollection","features":[{"type":"Feature","geometry":{"type":"Polygon","coordinates":[[[77.4184,8.645],[77.3998,8.6598],[77.3989,8.6657],[77.4037,8.6691],[77.4007,8.6763],[77.4007,8.6821],[77.3896,8.6952],[77.3732,8.7027],[77.3582,8.7152],[77.3562,8.7235],[77.3469,8.7324],[77.3517,8.7395],[77.3597,8.7372],[77.3622,8.7397],[77.3619,8.7488],[77.3599,8.7526],[77.3499,8.7604],[77.3331,8.7642],[77.3306,8.7679],[77.3206,8.7755],[77.3204,8.7801],[77.3143,8.7849],[77.3059,8.788],[77.3076,8.8037],[77.3188,8.806],[77.3214,8.8109],[77.3204,8.8189],[77.323,8.8285],[77.3149,8.843],[77.3098,8.8477],[77.3123,8.8549],[77.3181,8.8532],[77.324,8.8548],[77.3242,8.8587],[77.3193,8.8629],[77.3196,8.8696],[77.3129,8.8707],[77.301,8.8782],[77.2928,8.88],[77.2886,8.8771],[77.2729,8.8748],[77.2641,8.8791],[77.2574,8.8766],[77.26,8.8652],[77.2572,8.8616],[77.2624,8.8552],[77.2597,8.8513],[77.2639,8.842],[77.253,8.8277],[77.247,8.8236],[77.2466,8.8142],[77.2422,8.8093],[77.2319,8.8071],[77.2304,8.7978],[77.2311,8.7908],[77.2291,8.7839],[77.2239,8.7831],[77.2195,8.7785],[77.2129,8.7785],[77.2183,8.7688],[77.2093,8.7648],[77.2037,8.7689],[77.1968,8.7682],[77.2,8.7627],[77.1968,8.7495],[77.191,8.7415],[77.1831,8.7414],[77.1703,8.747],[77.1699,8.7418],[77.1789,8.7306],[77.1772,8.7257],[77.1847,8.7134],[77.1898,8.7124],[77.1949,8.7078],[77.1956,8.7029],[77.2067,8.6844],[77.2071,8.6808],[77.2008,8.669],[77.2082,8.6637],[77.2122,8.6569],[77.2143,8.649],[77.2247,8.6391],[77.2287,8.6403],[77.232,8.6357],[77.2345,8.6269],[77.2439,8.6218],[77.2489,8.6238],[77.2514,8.6202],[77.2519,8.6082],[77.2464,8.6036],[77.2543,8.5978],[77.2568,8.591],[77.2634,8.5886],[77.2693,8.5767],[77.282,8.5668],[77.3006,8.5646],[77.3095,8.5585],[77.3204,8.5569],[77.3404,8.5483],[77.3499,8.5422],[77.3538,8.5376],[77.3612,8.5376],[77.3634,8.5289],[77.3709,8.5198],[77.3767,8.5163],[77.3804,8.5198],[77.3891,8.5201],[77.3995,8.5187],[77.4077,8.5137],[77.4175,8.5132],[77.43,8.5078],[77.445,8.4982],[77.4483,8.4853],[77.4459,8.4791],[77.4462,8.4722],[77.46,8.4662],[77.4659,8.4665],[77.4658,8.4603],[77.4714,8.4539],[77.4716,8.4486],[77.4643,8.439],[77.4667,8.4199],[77.4738,8.4098],[77.4728,8.4051],[77.4754,8.3954],[77.487,8.388],[77.4909,8.3798],[77.5008,8.3791],[77.5081,8.3839],[77.5237,8.3829],[77.532,8.3911],[77.5407,8.3844],[77.5427,8.3767],[77.5384,8.373],[77.5357,8.3625],[77.5408,8.3625],[77.5467,8.3823],[77.5472,8.3905],[77.5592,8.3941],[77.562,8.3971],[77.5613,8.4101],[77.5533,8.4176],[77.5481,8.4183],[77.5334,8.4239],[77.5237,8.4205],[77.5271,8.4133],[77.5234,8.4124],[77.5133,8.4189],[77.5145,8.4224],[77.528,8.4252],[77.5313,8.4323],[77.5258,8.4358],[77.5249,8.442],[77.5363,8.4449],[77.5448,8.4575],[77.5512,8.4533],[77.5539,8.4577],[77.5464,8.4608],[77.5493,8.4668],[77.5423,8.4731],[77.5365,8.4731],[77.5307,8.4844],[77.5228,8.4941],[77.5126,8.5126],[77.5115,8.5175],[77.5155,8.5241],[77.5101,8.5266],[77.5123,8.5333],[77.5092,8.5378],[77.5179,8.5436],[77.527,8.5545],[77.5512,8.5516],[77.5592,8.5555],[77.5617,8.5663],[77.5588,8.5692],[77.5534,8.5689],[77.5488,8.5748],[77.5499,8.5859],[77.5467,8.5967],[77.5365,8.6022],[77.5331,8.6077],[77.5239,8.6112],[77.5075,8.6103],[77.4989,8.6052],[77.4928,8.6052],[77.4802,8.6159],[77.4702,8.6215],[77.4606,8.6232],[77.4567,8.6346],[77.4496,8.6463],[77.4448,8.6478],[77.43,8.6419],[77.4214,8.6422],[77.4184,8.645]]]},"properties":{"id":"kalakad-mundanthurai-tr","name":"Kalakad-Mundanthurai Tiger Reserve","category":"tr","area_km2":805.7}}]}