{"type":"FeatureCollection","features":[{"type":"Feature","geometry":{"type":"Polygon","coordinates":[[[77.4234,8.642],[77.4214,8.6422],[77.4105,8.6511],[77.4065,8.6475],[77.4042,8.6351],[77.4041,8.627],[77.4117,8.6206],[77.4146,8.6143],[77.4216,8.6128],[77.4282,8.6068],[77.4356,8.5916],[77.4384,8.591],[77.4367,8.5776],[77.4333,8.5693],[77.4281,8.562],[77.4063,8.5404],[77.4067,8.5347],[77.4135,8.5281],[77.4191,8.5256],[77.4175,8.5132],[77.43,8.5078],[77.445,8.4982],[77.4483,8.4853],[77.4459,8.4791],[77.4462,8.4722],[77.46,8.4662],[77.4659,8.4665],[77.4658,8.4603],[77.4714,8.4539],[77.4716,8.4486],[77.4643,8.439],[77.4667,8.4199],[77.4738,8.4098],[77.4728,8.4051],[77.4754,8.3954],[77.487,8.388],[77.4909,8.3798],[77.5008,8.3791],[77.5081,8.3839],[77.5237,8.3829],[77.532,8.3911],[77.5407,8.3844],[77.5427,8.3767],[77.5384,8.373],[77.5357,8.3625],[77.5408,8.3625],[77.5467,8.3823],[77.5472,8.3905],[77.5592,8.3941],[77.562,8.3971],[77.5613,8.4101],[77.5533,8.4176],[77.5481,8.4183],[77.5334,8.4239],[77.5237,8.4205],[77.5271,8.4133],[77.5234,8.4124],[77.5133,8.4189],[77.5145,8.4224],[77.528,8.4252],[77.5313,8.4323],[77.5258,8.4358],[77.5249,8.442],[77.5363,8.4449],[77.5448,8.4575],[77.5512,8.4533],[77.5539,8.4577],[77.5464,8.4608],[77.5493,8.4668],[77.5423,8.4731],[77.5365,8.4731],[77.5307,8.4844],[77.5228,8.4941],[77.5126,8.5126],[77.5115,8.5175],[77.5155,8.5241],[77.5101,8.5266],[77.5123,8.5333],[77.5092,8.5378],[77.5179,8.5436],[77.527,8.5545],[77.5512,8.5516],[77.5592,8.5555],[77.5617,8.5663],[77.5588,8.5692],[77.5534,8.5689],[77.5488,8.5748],[77.5499,8.5859],[77.5467,8.5967],[77.5365,8.6022],[77.5331,8.6077],[77.5239,8.6112],[77.5075,8.6103],[77.4989,8.6052],[77.4928,8.6052],[77.4802,8.6159],[77.4702,8.6215],[77.4606,8.6232],[77.4567,8.6346],[77.4496,8.6463],[77.4448,8.6478],[77.43,8.6419],[77.4234,8.642]]]},"properties":{"id":"kalakad-wls","name":"Kalakad Wildlife Sanctuary","category":"wls","area_km2":223.6}}]}