{"type":"FeatureCollection","features":[{"type":"Feature","geometry":{"type":"Polygon","coordinates":[[[77.5181,30.4491],[77.514,30.4485],[77.4962,30.4376],[77.4911,30.4305],[77.4853,30.427],[77.4844,30.4211],[77.4903,30.4168],[77.4956,30.4093],[77.5087,30.3942],[77.521,30.3726],[77.5251,30.3673],[77.5401,30.3526],[77.5497,30.346],[77.5675,30.3396],[77.5706,30.3354],[77.5772,30.3349],[77.5833,30.3398],[77.573,30.3581],[77.5769,30.3675],[77.5841,30.3787],[77.581,30.3777],[77.5558,30.3901],[77.5498,30.3959],[77.5517,30.399],[77.5436,30.4062],[77.5323,30.4205],[77.5287,30.4312],[77.5293,30.4366],[77.5181,30.4491]]]},"properties":{"id":"kalesar-np","name":"Kalesar National Park","category":"np","area_km2":46.8}}]}