{"type":"FeatureCollection","features":[{"type":"Feature","geometry":{"type":"Polygon","coordinates":[[[77.4928,30.4131],[77.4887,30.4164],[77.4821,30.4099],[77.4757,30.4099],[77.4721,30.4047],[77.4597,30.4052],[77.4511,30.4007],[77.4492,30.3966],[77.4521,30.3926],[77.4523,30.3852],[77.4495,30.3813],[77.445,30.3816],[77.4375,30.3778],[77.4372,30.3731],[77.4287,30.3702],[77.4226,30.3637],[77.4196,30.3688],[77.4175,30.3538],[77.4231,30.352],[77.4292,30.3553],[77.4305,30.361],[77.4474,30.3645],[77.4474,30.3702],[77.4532,30.3797],[77.4574,30.3833],[77.4613,30.3803],[77.4663,30.3866],[77.4721,30.3801],[77.4674,30.377],[77.4723,30.3754],[77.465,30.3703],[77.463,30.363],[77.4579,30.3576],[77.4615,30.3544],[77.4696,30.3551],[77.4691,30.3492],[77.4779,30.3631],[77.4824,30.3589],[77.4828,30.3521],[77.4795,30.3493],[77.5002,30.3397],[77.4976,30.3369],[77.4994,30.3281],[77.5068,30.3275],[77.5133,30.3295],[77.5361,30.3176],[77.5378,30.3129],[77.5576,30.3077],[77.5696,30.3098],[77.575,30.3135],[77.5677,30.3241],[77.5701,30.3318],[77.574,30.334],[77.5675,30.3396],[77.5497,30.346],[77.5401,30.3526],[77.5251,30.3673],[77.521,30.3726],[77.5087,30.3942],[77.4928,30.4131]]]},"properties":{"id":"kalesar-wls","name":"Kalesar Wildlife Sanctuary","category":"wls","area_km2":54.4}}]}