{"type":"FeatureCollection","features":[{"type":"Feature","geometry":{"type":"MultiPolygon","coordinates":[[[[74.3327,15.1108],[74.3287,15.1134],[74.3249,15.1203],[74.3203,15.121],[74.307,15.1181],[74.297,15.1075],[74.2855,15.0991],[74.2751,15.0961],[74.2797,15.0881],[74.2807,15.0689],[74.2895,15.0649],[74.2902,15.0537],[74.2946,15.0492],[74.2965,15.0413],[74.2882,15.0368],[74.2832,15.0316],[74.2834,15.0236],[74.2724,15.0143],[74.2664,15.0069],[74.2679,15.002],[74.2536,14.9982],[74.2518,14.9936],[74.2582,14.9877],[74.2643,14.9786],[74.2601,14.9736],[74.2723,14.9633],[74.2843,14.9631],[74.2874,14.9573],[74.2927,14.953],[74.2941,14.9477],[74.2919,14.9438],[74.3069,14.9402],[74.3258,14.9261],[74.3323,14.9257],[74.3367,14.9204],[74.3377,14.9139],[74.3474,14.9082],[74.35,14.9196],[74.3606,14.9332],[74.3613,14.9418],[74.3637,14.9436],[74.3723,14.9341],[74.3892,14.9303],[74.3936,14.9124],[74.3984,14.904],[74.4051,14.9151],[74.4237,14.9343],[74.4326,14.946],[74.4348,14.9512],[74.4345,14.9583],[74.432,14.965],[74.4349,14.9764],[74.4439,14.9815],[74.4461,14.9804],[74.4441,14.9726],[74.4568,14.9567],[74.4571,14.9523],[74.4616,14.9465],[74.4784,14.9381],[74.4833,14.9341],[74.4888,14.9334],[74.4906,14.9393],[74.4788,14.959],[74.4808,14.9678],[74.4748,14.9778],[74.4748,14.9843],[74.4822,14.9868],[74.4822,14.9929],[74.4898,14.9977],[74.4905,15.0061],[74.4799,15.0166],[74.468,15.0202],[74.4583,15.0294],[74.4489,15.0339],[74.4291,15.0471],[74.429,15.0412],[74.4254,15.0418],[74.4232,15.0484],[74.4139,15.061],[74.4078,15.0647],[74.4077,15.0687],[74.3911,15.0901],[74.3869,15.0918],[74.3878,15.0984],[74.3765,15.1074],[74.3646,15.1072],[74.3561,15.1126],[74.3429,15.1183],[74.3366,15.1159],[74.3327,15.1108]]],[[[74.513,15.0252],[74.5274,15.024],[74.5309,15.0293],[74.5375,15.0321],[74.5404,15.0248],[74.5398,15.0202],[74.5431,15.0174],[74.5522,14.9951],[74.5571,14.9921],[74.5549,14.987],[74.56,14.9854],[74.5609,14.9794],[74.5662,14.9779],[74.5683,14.9737],[74.5771,14.9735],[74.5799,14.9779],[74.5874,14.9798],[74.5991,14.9853],[74.6029,14.9908],[74.6066,15.0016],[74.6162,15.0142],[74.6226,15.0196],[74.6236,15.0279],[74.63,15.0302],[74.6309,15.0254],[74.6354,15.0257],[74.6418,15.0313],[74.6503,15.0321],[74.6565,15.0359],[74.6534,15.0404],[74.6545,15.0504],[74.6622,15.0573],[74.6814,15.0685],[74.6864,15.0778],[74.6942,15.0844],[74.703,15.1049],[74.7129,15.086],[74.7189,15.0806],[74.7258,15.0846],[74.73,15.0834],[74.7324,15.089],[74.7317,15.0945],[74.7278,15.0968],[74.7301,15.1124],[74.7273,15.1243],[74.7221,15.1306],[74.716,15.1458],[74.7184,15.1499],[74.7143,15.153],[74.7131,15.1582],[74.7084,15.1601],[74.7036,15.1583],[74.687,15.1585],[74.6749,15.1668],[74.6671,15.1663],[74.6591,15.1679],[74.6417,15.1652],[74.6296,15.1664],[74.6095,15.1551],[74.6011,15.1525],[74.5914,15.1545],[74.5787,15.1605],[74.57,15.1707],[74.5689,15.1765],[74.5612,15.1837],[74.5581,15.184],[74.5575,15.1782],[74.5598,15.167],[74.5511,15.1586],[74.5378,15.154],[74.528,15.1541],[74.5231,15.1498],[74.5171,15.1514],[74.4989,15.149],[74.4953,15.1371],[74.5047,15.133],[74.5103,15.124],[74.5034,15.1122],[74.5036,15.1023],[74.5057,15.0928],[74.5124,15.0837],[74.5136,15.0792],[74.5019,15.0738],[74.5022,15.0669],[74.5064,15.0464],[74.513,15.0252]]]]},"properties":{"id":"kali-anshi-dandeli-tr","name":"Kali (Anshi-Dandeli) Tiger Reserve","category":"tr","area_km2":1303.8}}]}