{"type":"FeatureCollection","features":[{"type":"Feature","geometry":{"type":"Polygon","coordinates":[[[73.6235,19.5502],[73.6146,19.5422],[73.6046,19.5375],[73.6039,19.5323],[73.6148,19.533],[73.6195,19.5348],[73.6245,19.5294],[73.626,19.5231],[73.6348,19.5236],[73.6443,19.5308],[73.6454,19.534],[73.6533,19.5365],[73.6572,19.53],[73.6536,19.524],[73.6579,19.5179],[73.6617,19.5057],[73.6604,19.4982],[73.6566,19.4915],[73.6539,19.4824],[73.6423,19.48],[73.6357,19.4709],[73.644,19.4553],[73.6566,19.4483],[73.6612,19.4415],[73.6663,19.4406],[73.6684,19.4365],[73.6779,19.4322],[73.6883,19.4216],[73.6925,19.4191],[73.6988,19.4196],[73.7049,19.4153],[73.7104,19.4205],[73.7163,19.4198],[73.714,19.408],[73.7228,19.4046],[73.7201,19.3933],[73.7268,19.3898],[73.7382,19.4013],[73.742,19.3985],[73.7433,19.3859],[73.7553,19.3843],[73.7528,19.3766],[73.7566,19.3698],[73.7638,19.366],[73.7768,19.3674],[73.7863,19.3656],[73.7897,19.3603],[73.8023,19.3848],[73.8158,19.3781],[73.8204,19.3812],[73.8395,19.3722],[73.845,19.3644],[73.8442,19.3713],[73.8475,19.3794],[73.8493,19.3951],[73.8541,19.3996],[73.8481,19.4026],[73.8466,19.4084],[73.8517,19.4113],[73.8514,19.4222],[73.8578,19.4287],[73.8566,19.4391],[73.8591,19.4438],[73.8549,19.4506],[73.8514,19.4518],[73.8466,19.4587],[73.8406,19.4622],[73.8399,19.4658],[73.828,19.4686],[73.8117,19.4818],[73.8059,19.4919],[73.7964,19.5012],[73.7849,19.5071],[73.7844,19.5169],[73.7812,19.5181],[73.7758,19.515],[73.765,19.5228],[73.7652,19.538],[73.7587,19.545],[73.75,19.5609],[73.7437,19.5662],[73.7413,19.5777],[73.7452,19.5818],[73.7377,19.592],[73.7332,19.5953],[73.7277,19.6048],[73.731,19.6126],[73.7293,19.6205],[73.725,19.6227],[73.7109,19.6172],[73.7059,19.6111],[73.7046,19.6056],[73.6998,19.5994],[73.686,19.6003],[73.6795,19.5984],[73.6733,19.6],[73.6609,19.5976],[73.6499,19.5984],[73.6446,19.6008],[73.6256,19.601],[73.6209,19.5979],[73.6156,19.5877],[73.6164,19.582],[73.6243,19.5717],[73.6258,19.5541],[73.6235,19.5502]]]},"properties":{"id":"kalsubai-wls","name":"kalsubai Wildlife Sanctuary","category":"wls","area_km2":361.7}}]}