{"type":"FeatureCollection","features":[{"type":"Feature","geometry":{"type":"MultiPolygon","coordinates":[[[[78.2432,12.7808],[78.2456,12.7883],[78.2466,12.802],[78.2417,12.8043],[78.2428,12.7943],[78.2406,12.7873],[78.2305,12.781],[78.2271,12.7886],[78.2195,12.7916],[78.2168,12.7814],[78.2103,12.7744],[78.2075,12.7685],[78.2128,12.765],[78.2219,12.7663],[78.2309,12.7607],[78.2389,12.7684],[78.2432,12.7808]]],[[[78.2101,12.7795],[78.2072,12.7862],[78.2094,12.8061],[78.2032,12.8145],[78.1932,12.8165],[78.1897,12.8137],[78.2017,12.7978],[78.1966,12.7921],[78.1933,12.7853],[78.1814,12.7865],[78.1775,12.7759],[78.1842,12.7762],[78.1889,12.7719],[78.1962,12.7735],[78.2003,12.7817],[78.2101,12.7795]]],[[[78.1791,12.8814],[78.1775,12.8886],[78.1708,12.8897],[78.1566,12.8891],[78.1614,12.8827],[78.1665,12.8806],[78.1728,12.8813],[78.175,12.872],[78.184,12.8545],[78.1802,12.8414],[78.1702,12.835],[78.1679,12.8304],[78.1654,12.8404],[78.1574,12.8469],[78.1561,12.8517],[78.151,12.8495],[78.1525,12.8404],[78.1579,12.8379],[78.1524,12.8271],[78.1409,12.8193],[78.1373,12.82],[78.1362,12.8296],[78.1282,12.8309],[78.1211,12.8422],[78.1195,12.8333],[78.1126,12.8274],[78.1034,12.8369],[78.1034,12.8444],[78.1104,12.8453],[78.1107,12.8524],[78.1006,12.8537],[78.1016,12.8619],[78.1128,12.8798],[78.1115,12.8847],[78.0994,12.8856],[78.0955,12.8809],[78.0807,12.8806],[78.0832,12.8758],[78.0895,12.8725],[78.091,12.8601],[78.0958,12.8533],[78.0927,12.8489],[78.0859,12.8493],[78.0895,12.8447],[78.0874,12.8388],[78.0799,12.8376],[78.0761,12.8443],[78.0753,12.8552],[78.0698,12.8557],[78.0664,12.8486],[78.0686,12.8428],[78.0765,12.8396],[78.0738,12.8305],[78.086,12.832],[78.0875,12.8249],[78.09,12.8236],[78.0901,12.8174],[78.1047,12.8091],[78.1094,12.8045],[78.1203,12.8016],[78.1246,12.7983],[78.1247,12.8023],[78.1352,12.8046],[78.1453,12.8053],[78.1528,12.804],[78.1589,12.8],[78.1651,12.7904],[78.1699,12.7864],[78.171,12.7918],[78.1667,12.7964],[78.1691,12.802],[78.1694,12.8104],[78.1788,12.8105],[78.1764,12.8132],[78.1845,12.8181],[78.1808,12.8245],[78.1757,12.826],[78.1746,12.8321],[78.1822,12.8317],[78.1794,12.8344],[78.1854,12.8468],[78.1915,12.8554],[78.1861,12.8574],[78.1791,12.8814]],[[78.1548,12.825],[78.1607,12.8219],[78.1667,12.8251],[78.1725,12.8232],[78.1758,12.8148],[78.1721,12.8173],[78.1651,12.8099],[78.1485,12.8148],[78.1553,12.8228],[78.1548,12.825]]]]},"properties":{"id":"kamasandra-wls","name":"Kamasandra Wildlife Sanctuary","category":"wls","area_km2":78.6}}]}