{"type":"FeatureCollection","features":[{"type":"Feature","geometry":{"type":"Polygon","coordinates":[[[83.3254,17.8768],[83.3219,17.8834],[83.3142,17.876],[83.3131,17.8687],[83.3064,17.8671],[83.3007,17.8588],[83.2992,17.8508],[83.2872,17.8385],[83.2876,17.8503],[83.2822,17.8503],[83.2768,17.8461],[83.2695,17.8457],[83.2648,17.8352],[83.265,17.8249],[83.2597,17.8208],[83.256,17.8121],[83.2562,17.8002],[83.2528,17.7893],[83.2525,17.7826],[83.2735,17.7817],[83.2748,17.7789],[83.2988,17.7701],[83.3187,17.7709],[83.3315,17.7655],[83.3388,17.765],[83.3499,17.7743],[83.3514,17.7784],[83.358,17.7804],[83.353,17.7884],[83.3528,17.7928],[83.3304,17.8101],[83.3336,17.8199],[83.3312,17.8224],[83.3216,17.8215],[83.3284,17.8257],[83.3243,17.8327],[83.3274,17.8382],[83.3334,17.8396],[83.3391,17.8378],[83.3457,17.8427],[83.3632,17.8587],[83.3642,17.8634],[83.356,17.8737],[83.3445,17.8756],[83.3432,17.8804],[83.3363,17.8788],[83.3319,17.8749],[83.3247,17.874],[83.3254,17.8768]],[[83.2645,17.8093],[83.2731,17.8172],[83.2726,17.8224],[83.2756,17.824],[83.2786,17.8312],[83.2826,17.8347],[83.2888,17.822],[83.2897,17.8172],[83.2976,17.8132],[83.2948,17.811],[83.2893,17.8133],[83.2809,17.8095],[83.276,17.812],[83.2645,17.8093]],[[83.3039,17.7893],[83.3068,17.7953],[83.3022,17.8006],[83.3072,17.8025],[83.3158,17.8001],[83.3131,17.797],[83.3151,17.7933],[83.3039,17.7893]]]},"properties":{"id":"kambalkonda-wls","name":"Kambalkonda Wildlife Sanctuary","category":"wls","area_km2":71.4}}]}