{"type":"FeatureCollection","features":[{"type":"Feature","geometry":{"type":"Polygon","coordinates":[[[96.5039,27.903],[96.4987,27.9057],[96.4821,27.9029],[96.4721,27.9058],[96.4614,27.9028],[96.4555,27.9081],[96.4473,27.9092],[96.4489,27.9047],[96.4557,27.8996],[96.4522,27.8826],[96.4546,27.8776],[96.46,27.8759],[96.4574,27.8714],[96.4658,27.8683],[96.4702,27.8585],[96.4606,27.84],[96.4622,27.8358],[96.468,27.8372],[96.4753,27.8271],[96.4739,27.8164],[96.4644,27.8093],[96.4582,27.8013],[96.4508,27.7984],[96.4492,27.7832],[96.4449,27.7777],[96.4365,27.7712],[96.4207,27.7616],[96.4135,27.7676],[96.4058,27.7644],[96.4022,27.7589],[96.3925,27.7525],[96.3838,27.7433],[96.39,27.7409],[96.3946,27.7337],[96.401,27.7334],[96.4007,27.7284],[96.4044,27.7246],[96.4046,27.7195],[96.4131,27.7105],[96.4118,27.6983],[96.4093,27.691],[96.4116,27.6797],[96.4092,27.674],[96.4125,27.6714],[96.4155,27.6566],[96.4225,27.6553],[96.4332,27.658],[96.4442,27.6574],[96.451,27.6487],[96.4651,27.6458],[96.4717,27.648],[96.4788,27.6557],[96.4968,27.6527],[96.5138,27.652],[96.5245,27.6458],[96.5315,27.6548],[96.5358,27.6562],[96.5539,27.6553],[96.5729,27.6648],[96.59,27.6648],[96.5973,27.6608],[96.6037,27.6602],[96.6126,27.6552],[96.619,27.6448],[96.6263,27.6403],[96.649,27.6342],[96.6649,27.639],[96.6724,27.6444],[96.677,27.651],[96.6885,27.6571],[96.7015,27.6621],[96.7105,27.6631],[96.7128,27.6569],[96.7199,27.6518],[96.7312,27.6514],[96.7376,27.6496],[96.7559,27.6358],[96.7671,27.6229],[96.7808,27.6207],[96.7851,27.6297],[96.784,27.6358],[96.787,27.6411],[96.7935,27.6447],[96.7992,27.643],[96.8108,27.6349],[96.8232,27.6362],[96.8327,27.6356],[96.8385,27.6307],[96.8448,27.6298],[96.8318,27.6405],[96.8212,27.6454],[96.8143,27.6532],[96.8162,27.6595],[96.81,27.6615],[96.804,27.668],[96.8013,27.6755],[96.7919,27.6827],[96.7816,27.694],[96.7722,27.7024],[96.764,27.7033],[96.7611,27.7059],[96.7614,27.7229],[96.7541,27.7292],[96.7503,27.7355],[96.7486,27.7522],[96.7576,27.7652],[96.7616,27.7673],[96.7671,27.7757],[96.7743,27.7796],[96.78,27.7861],[96.7798,27.7914],[96.7731,27.798],[96.7496,27.7942],[96.7427,27.7965],[96.7366,27.8012],[96.7359,27.8062],[96.7301,27.8143],[96.7266,27.8145],[96.7162,27.8211],[96.7149,27.8264],[96.7048,27.8265],[96.6783,27.8309],[96.6745,27.8471],[96.6651,27.8553],[96.6366,27.8567],[96.6264,27.8555],[96.615,27.8571],[96.6074,27.8528],[96.5947,27.8538],[96.5882,27.852],[96.5774,27.8549],[96.5761,27.8574],[96.5683,27.8581],[96.5622,27.8668],[96.5578,27.8698],[96.5465,27.8826],[96.5423,27.8838],[96.538,27.8901],[96.5294,27.8919],[96.526,27.8959],[96.517,27.8955],[96.515,27.8987],[96.5039,27.903]]]},"properties":{"id":"kamlang-wls","name":"Kamlang Wildlife Sanctuary","category":"wls","area_km2":783}}]}