{"type":"FeatureCollection","features":[{"type":"Feature","geometry":{"type":"Polygon","coordinates":[[[77.3548,32.027],[77.3455,32.027],[77.3389,32.0228],[77.3313,32.0208],[77.3227,32.0155],[77.3192,32.0093],[77.3248,32.0006],[77.3286,31.9822],[77.3279,31.9768],[77.3219,31.9627],[77.3058,31.9509],[77.2937,31.9517],[77.2837,31.9486],[77.281,31.9436],[77.2471,31.9595],[77.2411,31.9489],[77.2402,31.9394],[77.235,31.9363],[77.24,31.9303],[77.2473,31.9307],[77.2592,31.9174],[77.2706,31.918],[77.2844,31.9146],[77.292,31.915],[77.2987,31.9244],[77.3041,31.9261],[77.3189,31.9353],[77.3282,31.9341],[77.3322,31.9308],[77.3434,31.9361],[77.3529,31.9288],[77.3667,31.9212],[77.3722,31.9208],[77.3843,31.9272],[77.4024,31.931],[77.4121,31.9298],[77.4147,31.9254],[77.4095,31.9212],[77.3919,31.9155],[77.3857,31.9115],[77.3783,31.8986],[77.3795,31.8857],[77.3845,31.8802],[77.3868,31.8736],[77.3894,31.8785],[77.3965,31.8844],[77.4067,31.8881],[77.4183,31.8972],[77.4259,31.9005],[77.4309,31.9073],[77.4374,31.9098],[77.4299,31.921],[77.4325,31.9407],[77.4329,31.9569],[77.436,31.9651],[77.437,31.9821],[77.4425,31.9877],[77.4424,31.9988],[77.4202,32.0004],[77.4114,32.0042],[77.3952,32.005],[77.3803,32.0083],[77.3738,32.0115],[77.3696,32.0169],[77.3619,32.0206],[77.3548,32.027]]]},"properties":{"id":"kanawar-wls","name":"Kanawar Wildlife Sanctuary","category":"wls","area_km2":107.3}}]}