{"type":"FeatureCollection","features":[{"type":"Feature","geometry":{"type":"Polygon","coordinates":[[[94.6107,27.7009],[94.6141,27.693],[94.6076,27.6752],[94.607,27.6687],[94.5994,27.662],[94.5898,27.6586],[94.5872,27.6553],[94.5806,27.6558],[94.5816,27.64],[94.6379,27.6612],[94.6455,27.656],[94.6839,27.6703],[94.6779,27.6834],[94.6736,27.6881],[94.66,27.6917],[94.6546,27.6903],[94.6495,27.6966],[94.6426,27.6964],[94.6372,27.6989],[94.6107,27.7009]]]},"properties":{"id":"kane-wls","name":"Kane Wildlife Sanctuary","category":"wls","area_km2":31}}]}