{"type":"FeatureCollection","features":[{"type":"Feature","geometry":{"type":"Polygon","coordinates":[[[82.1433,18.8163],[82.1276,18.8129],[82.1213,18.8156],[82.1156,18.814],[82.1097,18.8052],[82.1038,18.8036],[82.1034,18.8115],[82.1056,18.8197],[82.1043,18.8243],[82.0877,18.8259],[82.0748,18.8183],[82.0681,18.8187],[82.0653,18.8368],[82.0657,18.844],[82.0629,18.8479],[82.0567,18.8502],[82.0558,18.8565],[82.057,18.8672],[82.0534,18.8699],[82.0349,18.8621],[82.0184,18.8491],[82.0124,18.8511],[82.0112,18.8593],[82.0057,18.8604],[82.0015,18.8668],[81.9943,18.8674],[81.9867,18.8617],[81.9825,18.8617],[81.9751,18.8658],[81.9759,18.871],[81.985,18.8849],[81.9825,18.8896],[81.9776,18.8919],[81.978,18.8973],[81.9867,18.9011],[81.9871,18.9065],[81.9842,18.9128],[81.9751,18.9192],[81.9694,18.9263],[81.9689,18.9362],[81.9668,18.9366],[81.9553,18.9269],[81.9529,18.9223],[81.9553,18.9104],[81.9515,18.9053],[81.9457,18.9073],[81.9408,18.9056],[81.9335,18.9088],[81.9266,18.9157],[81.9241,18.9205],[81.89,18.928],[81.8812,18.928],[81.8786,18.9448],[81.8688,18.9409],[81.8667,18.9366],[81.8706,18.9317],[81.8701,18.9246],[81.8629,18.9293],[81.8585,18.9297],[81.8591,18.9205],[81.8666,18.9135],[81.8627,18.9071],[81.8646,18.9018],[81.8751,18.8964],[81.885,18.8944],[81.8955,18.8892],[81.9,18.8899],[81.9025,18.894],[81.9114,18.8918],[81.916,18.8849],[81.921,18.8955],[81.9326,18.8931],[81.9346,18.8903],[81.9264,18.8783],[81.9234,18.87],[81.9127,18.8716],[81.909,18.8675],[81.9179,18.8635],[81.9191,18.8433],[81.9168,18.8319],[81.9235,18.8302],[81.9261,18.8349],[81.9415,18.8375],[81.9487,18.8363],[81.9664,18.8382],[81.975,18.8336],[81.9772,18.826],[81.9937,18.8209],[81.9892,18.8156],[81.9928,18.8137],[81.9998,18.8153],[82.005,18.8121],[81.9996,18.8076],[82.0015,18.8029],[82.0107,18.8048],[82.0169,18.8035],[82.0173,18.7977],[82.0284,18.7923],[82.0368,18.7858],[82.0405,18.7783],[82.0612,18.7751],[82.0616,18.7692],[82.0586,18.7625],[82.0576,18.7499],[82.0538,18.7434],[82.0529,18.7375],[82.0553,18.7324],[82.0609,18.7291],[82.0746,18.7245],[82.0839,18.7188],[82.0871,18.7235],[82.0861,18.7279],[82.0913,18.7385],[82.0935,18.7468],[82.0891,18.7618],[82.092,18.7656],[82.0977,18.7638],[82.1044,18.7668],[82.111,18.7659],[82.1207,18.7697],[82.1333,18.7654],[82.1314,18.7702],[82.1335,18.7804],[82.1384,18.7783],[82.1485,18.7816],[82.1516,18.7849],[82.1574,18.7855],[82.1608,18.7902],[82.1598,18.7942],[82.1656,18.7989],[82.1645,18.8019],[82.1571,18.8035],[82.1621,18.8128],[82.166,18.8147],[82.1567,18.8205],[82.1508,18.821],[82.1433,18.8163]]]},"properties":{"id":"kanger-ghati-np","name":"Kanger Ghati National Park","category":"np","area_km2":200}}]}