{"type":"FeatureCollection","features":[{"type":"Feature","geometry":{"type":"Polygon","coordinates":[[[80.4982,22.4178],[80.4869,22.4181],[80.482,22.4138],[80.4793,22.3974],[80.4976,22.3913],[80.5139,22.3929],[80.5142,22.3811],[80.5183,22.3798],[80.5173,22.373],[80.5101,22.3706],[80.5085,22.3654],[80.5149,22.3344],[80.5172,22.3276],[80.5241,22.3264],[80.5231,22.3234],[80.5263,22.316],[80.5194,22.298],[80.5067,22.2945],[80.5136,22.2702],[80.5187,22.2563],[80.5106,22.2406],[80.5275,22.241],[80.5288,22.2382],[80.5473,22.2289],[80.568,22.216],[80.5731,22.2167],[80.579,22.2129],[80.5769,22.2056],[80.5789,22.1954],[80.5923,22.1873],[80.5934,22.1739],[80.5975,22.164],[80.6073,22.163],[80.6147,22.1597],[80.6183,22.1468],[80.6415,22.1361],[80.6495,22.1389],[80.6538,22.1453],[80.6606,22.1498],[80.6633,22.1412],[80.6739,22.1351],[80.6956,22.1382],[80.7145,22.148],[80.7194,22.1477],[80.7263,22.1396],[80.7248,22.1301],[80.7277,22.124],[80.7354,22.1208],[80.7422,22.1133],[80.7554,22.1136],[80.773,22.1011],[80.7877,22.097],[80.8051,22.0968],[80.8147,22.0941],[80.8281,22.0844],[80.8418,22.0729],[80.8478,22.0728],[80.8416,22.0959],[80.8596,22.1086],[80.8728,22.1014],[80.884,22.1034],[80.911,22.1193],[80.9255,22.1204],[80.9494,22.1172],[80.9569,22.1105],[80.9611,22.1023],[80.9665,22.096],[80.972,22.084],[80.9692,22.0666],[80.97,22.0574],[80.9805,22.0547],[80.9834,22.0487],[80.9901,22.0514],[80.9949,22.0497],[80.9949,22.0585],[81.0026,22.0583],[81.009,22.0699],[81.0046,22.0754],[81.0015,22.0835],[81.0063,22.0923],[81.0112,22.0954],[80.9916,22.1115],[80.9836,22.1142],[80.9796,22.1125],[80.978,22.1226],[80.9823,22.1281],[80.9937,22.1352],[80.9986,22.1317],[81.0137,22.1337],[81.0215,22.1328],[81.0238,22.1487],[81.0225,22.1585],[81.0268,22.1663],[81.0173,22.1795],[81.0169,22.1861],[81.0224,22.1894],[81.0307,22.1876],[81.029,22.1925],[81.0313,22.2015],[81.0218,22.2121],[81.0194,22.221],[81.0223,22.2254],[81.0166,22.2373],[81.0147,22.2458],[81.0209,22.2621],[81.0176,22.2689],[80.998,22.2779],[80.9855,22.2795],[80.9754,22.2759],[80.9605,22.2761],[80.9483,22.2793],[80.9416,22.2857],[80.9381,22.2825],[80.939,22.2707],[80.9309,22.272],[80.9181,22.2582],[80.9112,22.2458],[80.8934,22.2384],[80.8961,22.2331],[80.8915,22.2252],[80.8754,22.2234],[80.8715,22.2193],[80.869,22.212],[80.8518,22.2166],[80.8513,22.219],[80.8422,22.2262],[80.8351,22.237],[80.8228,22.235],[80.822,22.2324],[80.8288,22.2124],[80.8176,22.2106],[80.8094,22.2052],[80.8094,22.1986],[80.8131,22.1889],[80.8087,22.1831],[80.8036,22.1829],[80.799,22.1794],[80.7982,22.187],[80.802,22.1923],[80.7937,22.1982],[80.7937,22.203],[80.7878,22.2053],[80.7859,22.1846],[80.782,22.1733],[80.7781,22.1669],[80.7777,22.1579],[80.7731,22.1527],[80.7679,22.1532],[80.7619,22.1613],[80.7572,22.1734],[80.7655,22.1921],[80.7636,22.1949],[80.7393,22.1924],[80.73,22.197],[80.7457,22.2194],[80.7426,22.2319],[80.7357,22.2412],[80.7395,22.2553],[80.7396,22.2662],[80.7292,22.2692],[80.7212,22.2488],[80.7127,22.2544],[80.7192,22.2856],[80.7245,22.2947],[80.7312,22.311],[80.7378,22.3155],[80.7407,22.3225],[80.7405,22.3312],[80.7335,22.3364],[80.7199,22.3404],[80.7229,22.3545],[80.7216,22.3603],[80.7155,22.3603],[80.7072,22.3431],[80.6836,22.3478],[80.6724,22.3531],[80.6775,22.3596],[80.6794,22.3666],[80.675,22.3724],[80.679,22.3775],[80.6823,22.3897],[80.69,22.4017],[80.6878,22.4057],[80.6694,22.4063],[80.6432,22.409],[80.6328,22.4109],[80.6081,22.4129],[80.5876,22.4132],[80.5748,22.4104],[80.5458,22.417],[80.5083,22.4167],[80.4982,22.4178]]]},"properties":{"id":"kanha-np","name":"Kanha National Park","category":"np","area_km2":941.8}}]}