{"type":"FeatureCollection","features":[{"type":"Feature","geometry":{"type":"Polygon","coordinates":[[[86.1535,25.5892],[86.1597,25.5885],[86.1552,25.593],[86.1535,25.5987],[86.1703,25.5965],[86.174,25.6018],[86.1664,25.6209],[86.166,25.6302],[86.1435,25.6449],[86.1368,25.6537],[86.1217,25.6596],[86.1109,25.6573],[86.1095,25.6401],[86.1094,25.6209],[86.1188,25.6076],[86.1276,25.591],[86.1401,25.5838],[86.1535,25.5892]]]},"properties":{"id":"kanwarjheel-wls","name":"Kanwarjheel Wildlife Sanctuary","category":"wls","area_km2":63.1}}]}