{"type":"FeatureCollection","features":[{"type":"Feature","geometry":{"type":"Polygon","coordinates":[[[77.282,8.5668],[77.2693,8.5767],[77.2749,8.5657],[77.2741,8.5597],[77.2822,8.5505],[77.2837,8.5467],[77.275,8.5385],[77.2667,8.5199],[77.2652,8.512],[77.262,8.5066],[77.2511,8.5054],[77.2436,8.4969],[77.2386,8.4959],[77.2309,8.5068],[77.2204,8.5117],[77.2134,8.5119],[77.2102,8.506],[77.2012,8.5009],[77.201,8.4976],[77.2103,8.4918],[77.2116,8.4882],[77.2178,8.4876],[77.2291,8.4806],[77.2398,8.4769],[77.2522,8.4666],[77.2541,8.4591],[77.2587,8.46],[77.2675,8.4535],[77.2772,8.4513],[77.2815,8.4414],[77.2921,8.4399],[77.2952,8.4426],[77.2977,8.4581],[77.3067,8.4546],[77.309,8.4494],[77.317,8.4453],[77.3149,8.4416],[77.3165,8.4367],[77.3091,8.4371],[77.3089,8.4222],[77.316,8.4238],[77.3176,8.4168],[77.3092,8.4152],[77.3058,8.4126],[77.3038,8.4045],[77.3163,8.4073],[77.3219,8.3987],[77.3069,8.3929],[77.3119,8.3836],[77.3162,8.3815],[77.318,8.3758],[77.3345,8.3694],[77.3456,8.3624],[77.3533,8.364],[77.3565,8.3617],[77.3512,8.3542],[77.3599,8.3478],[77.3725,8.3452],[77.3878,8.3453],[77.3944,8.3399],[77.3996,8.3396],[77.4058,8.3346],[77.4166,8.3359],[77.413,8.3524],[77.4089,8.3595],[77.4024,8.3649],[77.3955,8.3679],[77.3931,8.3716],[77.3989,8.3758],[77.4096,8.3778],[77.4168,8.3717],[77.4272,8.3719],[77.4337,8.3682],[77.4402,8.3681],[77.4472,8.3608],[77.4459,8.3575],[77.4522,8.355],[77.4525,8.3499],[77.4434,8.3525],[77.4405,8.3513],[77.4395,8.344],[77.4328,8.3445],[77.4315,8.3387],[77.4191,8.3375],[77.4233,8.3217],[77.4295,8.3201],[77.4363,8.3249],[77.4394,8.3313],[77.4495,8.3334],[77.4581,8.3273],[77.4635,8.32],[77.4722,8.313],[77.4816,8.3139],[77.4913,8.3104],[77.4948,8.3047],[77.4931,8.3009],[77.4844,8.2963],[77.4768,8.2968],[77.4732,8.2937],[77.4749,8.289],[77.4681,8.2907],[77.4606,8.2883],[77.4558,8.2742],[77.4563,8.2632],[77.461,8.2599],[77.4684,8.2624],[77.4755,8.261],[77.4796,8.2561],[77.4876,8.2592],[77.4986,8.2589],[77.5033,8.265],[77.5119,8.27],[77.5185,8.2664],[77.5259,8.2695],[77.5318,8.2681],[77.5358,8.2703],[77.5428,8.2672],[77.5507,8.2703],[77.5507,8.28],[77.5458,8.2835],[77.5454,8.2879],[77.5394,8.2904],[77.5374,8.2942],[77.5392,8.2992],[77.5434,8.2995],[77.5446,8.3035],[77.5421,8.3107],[77.5308,8.3193],[77.5346,8.3253],[77.5324,8.3263],[77.5338,8.3334],[77.5397,8.3343],[77.5393,8.3473],[77.5354,8.352],[77.5341,8.3587],[77.5156,8.3739],[77.5003,8.379],[77.4909,8.3798],[77.487,8.388],[77.4754,8.3954],[77.4728,8.4051],[77.4738,8.4098],[77.4667,8.4199],[77.4643,8.439],[77.4716,8.4486],[77.4714,8.4539],[77.4658,8.4603],[77.4659,8.4665],[77.46,8.4662],[77.4462,8.4722],[77.4459,8.4791],[77.4483,8.4853],[77.445,8.4982],[77.43,8.5078],[77.4175,8.5132],[77.4077,8.5137],[77.3995,8.5187],[77.3891,8.5201],[77.3804,8.5198],[77.3767,8.5163],[77.3709,8.5198],[77.3634,8.5289],[77.3612,8.5376],[77.3538,8.5376],[77.3499,8.5422],[77.3404,8.5483],[77.3204,8.5569],[77.3095,8.5585],[77.3006,8.5646],[77.282,8.5668]],[[77.3907,8.4633],[77.3925,8.4681],[77.3938,8.4568],[77.3898,8.4528],[77.3907,8.4633]],[[77.4041,8.4553],[77.4042,8.4618],[77.4091,8.4624],[77.415,8.4534],[77.407,8.4481],[77.4273,8.4359],[77.4208,8.4359],[77.4298,8.4285],[77.4243,8.4262],[77.4244,8.4304],[77.4196,8.4311],[77.4073,8.4407],[77.404,8.4416],[77.4045,8.4479],[77.4018,8.4502],[77.4041,8.4553]],[[77.5092,8.3649],[77.514,8.365],[77.5134,8.3593],[77.5059,8.3616],[77.5092,8.3649]]]},"properties":{"id":"kanyakumari-wls","name":"Kanyakumari Wildlife Sanctuary","category":"wls","area_km2":402.4}}]}