{"type":"FeatureCollection","features":[{"type":"Feature","geometry":{"type":"Polygon","coordinates":[[[85.8595,20.6903],[85.8539,20.6892],[85.8441,20.6937],[85.8386,20.7081],[85.8412,20.715],[85.8175,20.7185],[85.8096,20.7234],[85.7994,20.7228],[85.794,20.7192],[85.7929,20.7107],[85.7982,20.7091],[85.8143,20.7073],[85.8208,20.7054],[85.8185,20.6964],[85.8116,20.6942],[85.8033,20.7047],[85.7861,20.7075],[85.7716,20.7108],[85.7597,20.6999],[85.7557,20.6934],[85.7219,20.678],[85.7231,20.6722],[85.7152,20.6694],[85.7152,20.6636],[85.7058,20.6671],[85.6983,20.666],[85.694,20.6629],[85.6842,20.6605],[85.6818,20.6566],[85.6876,20.6535],[85.6901,20.6418],[85.6808,20.645],[85.6772,20.6425],[85.6786,20.6373],[85.6653,20.6382],[85.658,20.6332],[85.6577,20.6293],[85.6517,20.6194],[85.6607,20.6155],[85.6683,20.622],[85.6782,20.6199],[85.6845,20.622],[85.6899,20.6301],[85.6946,20.6298],[85.6926,20.6254],[85.6982,20.6176],[85.6968,20.608],[85.7061,20.6082],[85.7093,20.6116],[85.718,20.627],[85.7204,20.6288],[85.7319,20.6271],[85.7297,20.6169],[85.7323,20.6094],[85.7524,20.608],[85.7563,20.6163],[85.7627,20.6123],[85.7727,20.6094],[85.777,20.6135],[85.7863,20.6162],[85.791,20.6158],[85.7977,20.6105],[85.7979,20.6073],[85.8134,20.5941],[85.8178,20.5946],[85.8206,20.6101],[85.8255,20.6211],[85.8332,20.6249],[85.8595,20.6271],[85.8626,20.6199],[85.8704,20.6177],[85.8866,20.6238],[85.8893,20.6294],[85.9016,20.6286],[85.905,20.6353],[85.9016,20.6387],[85.916,20.6527],[85.9149,20.6568],[85.9065,20.6624],[85.9156,20.6753],[85.9237,20.6724],[85.926,20.6778],[85.9248,20.6831],[85.9166,20.6869],[85.9103,20.686],[85.9058,20.6892],[85.8979,20.6907],[85.8975,20.6973],[85.9001,20.6988],[85.9172,20.6956],[85.9184,20.6987],[85.9273,20.6987],[85.9301,20.7017],[85.9251,20.7092],[85.93,20.7127],[85.9282,20.7227],[85.9248,20.7258],[85.9088,20.7355],[85.9066,20.74],[85.9132,20.7465],[85.9185,20.7464],[85.9205,20.7612],[85.9108,20.7622],[85.9019,20.7667],[85.8855,20.763],[85.8742,20.7615],[85.868,20.7591],[85.8667,20.7535],[85.8775,20.7396],[85.8767,20.7354],[85.8805,20.7298],[85.8806,20.7187],[85.8766,20.7157],[85.8764,20.7081],[85.8717,20.7017],[85.8595,20.6903]]]},"properties":{"id":"kapilash-wls","name":"Kapilash Wildlife Sanctuary","category":"wls","area_km2":125.5}}]}