{"type":"FeatureCollection","features":[{"type":"Feature","geometry":{"type":"MultiPolygon","coordinates":[[[[75.855,15.109],[75.8642,15.1113],[75.8577,15.1131],[75.855,15.109]]],[[[75.7434,15.2749],[75.7396,15.2873],[75.7365,15.2869],[75.7336,15.2766],[75.7215,15.2806],[75.7151,15.2769],[75.7132,15.28],[75.7045,15.2788],[75.6986,15.2837],[75.6931,15.2806],[75.6912,15.2736],[75.6935,15.2678],[75.6983,15.2686],[75.6914,15.2622],[75.6885,15.2645],[75.6792,15.2636],[75.6766,15.2712],[75.6682,15.2705],[75.6683,15.2663],[75.6623,15.2679],[75.6589,15.2649],[75.6625,15.2601],[75.6585,15.2568],[75.6518,15.2604],[75.6454,15.2608],[75.6378,15.2576],[75.6356,15.2506],[75.6381,15.2451],[75.6331,15.2398],[75.6372,15.2337],[75.6335,15.232],[75.6333,15.225],[75.6403,15.2292],[75.6399,15.2405],[75.6425,15.2432],[75.6513,15.2447],[75.6511,15.2513],[75.6608,15.2524],[75.661,15.2488],[75.6658,15.2487],[75.6719,15.2402],[75.6703,15.2317],[75.6707,15.2233],[75.6655,15.2187],[75.6654,15.2098],[75.6722,15.2091],[75.6747,15.2165],[75.6843,15.2168],[75.6835,15.2101],[75.6784,15.2093],[75.681,15.205],[75.6851,15.2095],[75.6853,15.2033],[75.6882,15.2051],[75.6915,15.2153],[75.6968,15.211],[75.7007,15.2049],[75.6999,15.1944],[75.7037,15.1894],[75.7048,15.2002],[75.7105,15.1993],[75.7116,15.1948],[75.7172,15.1891],[75.7167,15.1926],[75.7256,15.1886],[75.7337,15.1877],[75.7369,15.1791],[75.7434,15.1786],[75.7425,15.1725],[75.7368,15.1773],[75.7339,15.1745],[75.7381,15.1719],[75.7525,15.1693],[75.7512,15.162],[75.7477,15.1609],[75.7472,15.1558],[75.7527,15.1569],[75.7593,15.1661],[75.7647,15.159],[75.7728,15.1554],[75.7736,15.1497],[75.7791,15.1402],[75.7714,15.1412],[75.7701,15.1368],[75.7762,15.1342],[75.7792,15.1225],[75.7899,15.1243],[75.7948,15.1217],[75.7836,15.1173],[75.7849,15.1117],[75.7882,15.1138],[75.7965,15.1079],[75.8008,15.1098],[75.801,15.1156],[75.8059,15.1131],[75.806,15.1075],[75.81,15.0967],[75.8039,15.0961],[75.7984,15.0911],[75.7975,15.0852],[75.7895,15.0897],[75.7863,15.081],[75.7872,15.0731],[75.7979,15.0748],[75.8024,15.0717],[75.8071,15.0725],[75.8028,15.0799],[75.8072,15.0819],[75.8198,15.0709],[75.8214,15.0666],[75.8278,15.0672],[75.8381,15.0707],[75.8423,15.0677],[75.8437,15.0593],[75.8506,15.0586],[75.8497,15.0548],[75.8637,15.0518],[75.8668,15.0468],[75.8714,15.048],[75.8732,15.0428],[75.8765,15.0431],[75.8767,15.0479],[75.8722,15.05],[75.8735,15.0569],[75.8725,15.0658],[75.8692,15.0689],[75.8644,15.0798],[75.8571,15.082],[75.8611,15.0853],[75.8553,15.0894],[75.8561,15.096],[75.8653,15.1021],[75.8606,15.1058],[75.8522,15.102],[75.8513,15.1108],[75.8482,15.1094],[75.8494,15.1152],[75.843,15.1138],[75.8404,15.1181],[75.8277,15.1201],[75.8256,15.1241],[75.8213,15.123],[75.8192,15.1303],[75.8215,15.1309],[75.8163,15.1393],[75.813,15.1507],[75.808,15.1525],[75.815,15.1553],[75.8122,15.1601],[75.8068,15.1582],[75.7987,15.1695],[75.7869,15.1778],[75.7771,15.1926],[75.7655,15.2039],[75.7578,15.2134],[75.7564,15.2319],[75.7554,15.2607],[75.7546,15.2674],[75.7516,15.2714],[75.7513,15.2812],[75.7484,15.2811],[75.7462,15.2708],[75.7383,15.2667],[75.736,15.2689],[75.742,15.2711],[75.7434,15.2749]]],[[[75.6495,15.337],[75.6491,15.3401],[75.6391,15.3366],[75.6372,15.3309],[75.6411,15.3323],[75.6497,15.3174],[75.6675,15.3076],[75.6704,15.3025],[75.6761,15.3009],[75.6766,15.2977],[75.6853,15.2941],[75.692,15.2934],[75.6905,15.2901],[75.6998,15.2862],[75.6974,15.2944],[75.6936,15.2963],[75.6926,15.3053],[75.6841,15.3103],[75.6765,15.3094],[75.6685,15.3166],[75.6687,15.3204],[75.6586,15.3272],[75.6612,15.3297],[75.6771,15.3316],[75.673,15.333],[75.6742,15.3392],[75.6648,15.3362],[75.6642,15.3389],[75.6566,15.3367],[75.6495,15.337]]]]},"properties":{"id":"kappathagudda-wls","name":"Kappatagudda Wildlife Sanctuary","category":"wls","area_km2":244.2}}]}