{"type":"FeatureCollection","features":[{"type":"Feature","geometry":{"type":"Polygon","coordinates":[[[77.4921,20.4313],[77.488,20.4335],[77.4835,20.4287],[77.4924,20.4191],[77.498,20.4185],[77.5036,20.4133],[77.5114,20.4161],[77.5213,20.4171],[77.5334,20.4164],[77.5382,20.4126],[77.5355,20.4018],[77.5406,20.3987],[77.5549,20.4097],[77.5599,20.4078],[77.5653,20.409],[77.5593,20.4215],[77.5536,20.4241],[77.5519,20.4281],[77.5557,20.4311],[77.5627,20.4303],[77.574,20.4233],[77.5805,20.4226],[77.5864,20.4289],[77.5751,20.4378],[77.565,20.4423],[77.5659,20.4456],[77.5429,20.4517],[77.5337,20.4577],[77.531,20.4545],[77.5398,20.445],[77.5337,20.4331],[77.5326,20.4226],[77.5118,20.4182],[77.509,20.421],[77.5127,20.4247],[77.5108,20.4329],[77.505,20.4328],[77.5017,20.4271],[77.4987,20.4323],[77.4921,20.4313]]]},"properties":{"id":"karanja-sohol-blackbuck-wls","name":"Karanja Sohol Blackbuck Wildlife Sanctuary","category":"wls","area_km2":18.3}}]}