{"type":"FeatureCollection","features":[{"type":"Feature","geometry":{"type":"Polygon","coordinates":[[[77.6774,35.3323],[77.6546,35.3382],[77.6032,35.3545],[77.5833,35.3451],[77.5533,35.3347],[77.5077,35.3277],[77.4478,35.3277],[77.3936,35.3323],[77.3622,35.3347],[77.3365,35.3312],[77.2952,35.3091],[77.2895,35.2846],[77.2752,35.2683],[77.2167,35.2497],[77.1939,35.2485],[77.1854,35.2311],[77.1897,35.2124],[77.2053,35.1938],[77.2239,35.174],[77.2324,35.1448],[77.2282,35.1238],[77.2182,35.0947],[77.1982,35.0655],[77.1811,35.0456],[77.1626,35.041],[77.1178,35.0544],[77.1104,35.0489],[77.0911,35.0454],[77.0881,35.0433],[77.0828,35.0463],[77.0778,35.0547],[77.0724,35.0507],[77.0671,35.0529],[77.0468,35.0515],[77.0406,35.0413],[77.0349,35.0373],[77.0275,35.0381],[77.0152,35.0357],[77.0102,35.0253],[76.9982,35.0199],[76.9807,35.0166],[76.9727,35.0186],[76.9609,35.0176],[76.9574,35.0123],[76.9503,35.0089],[76.9425,35.0092],[76.9334,35.0047],[76.941,34.9948],[76.9409,34.9872],[76.9372,34.9807],[76.9278,34.9759],[76.9311,34.9706],[76.925,34.9582],[76.9156,34.9458],[76.9084,34.9446],[76.9076,34.9355],[76.8979,34.926],[76.8899,34.9276],[76.8866,34.933],[76.8817,34.9334],[76.8757,34.9408],[76.8676,34.9411],[76.8613,34.9483],[76.8556,34.9473],[76.85,34.9502],[76.8452,34.9469],[76.8392,34.9473],[76.8303,34.9549],[76.8077,34.9491],[76.8003,34.95],[76.7922,34.9538],[76.777,34.9421],[76.7759,34.9335],[76.7961,34.9288],[76.7961,34.923],[76.7904,34.9148],[76.7889,34.9043],[76.8046,34.8949],[76.816,34.882],[76.816,34.8703],[76.8217,34.8528],[76.8403,34.8504],[76.8659,34.8446],[76.893,34.834],[76.913,34.827],[76.9358,34.8177],[76.9501,34.8153],[76.9686,34.8153],[76.9829,34.8024],[77.0014,34.7942],[77.0285,34.8013],[77.0684,34.806],[77.0884,34.8177],[77.1069,34.8141],[77.1098,34.8036],[77.1098,34.779],[77.1226,34.772],[77.1397,34.772],[77.1526,34.7685],[77.1768,34.7556],[77.1982,34.7368],[77.231,34.7181],[77.2695,34.6923],[77.2952,34.6829],[77.3066,34.6806],[77.3537,34.6735],[77.4064,34.6559],[77.4307,34.6454],[77.462,34.6254],[77.4763,34.609],[77.5105,34.5832],[77.5619,34.5691],[77.5818,34.562],[77.6189,34.5479],[77.6816,34.5303],[77.6945,34.5221],[77.7458,34.4645],[77.7558,34.4422],[77.7701,34.4151],[77.8014,34.3692],[77.8171,34.348],[77.8285,34.3362],[77.8821,34.3225],[77.9391,34.3199],[77.9569,34.3091],[77.9686,34.3111],[77.9816,34.3213],[78.0129,34.3312],[78.0297,34.3171],[78.051,34.3057],[78.0637,34.2825],[78.1087,34.2623],[78.121,34.2365],[78.1512,34.2135],[78.1614,34.1973],[78.182,34.1685],[78.1943,34.1502],[78.2063,34.1404],[78.2146,34.1428],[78.2223,34.1561],[78.2409,34.1611],[78.2532,34.1711],[78.2585,34.1823],[78.2663,34.2104],[78.275,34.2479],[78.2779,34.2652],[78.2757,34.2845],[78.2788,34.3036],[78.2906,34.3243],[78.2925,34.339],[78.2891,34.3539],[78.287,34.3719],[78.2941,34.3844],[78.3071,34.3919],[78.315,34.3991],[78.3179,34.4073],[78.3162,34.4165],[78.3177,34.4304],[78.3034,34.4469],[78.2877,34.4563],[78.2335,34.4915],[78.225,34.5115],[78.2164,34.5432],[78.2007,34.5773],[78.1879,34.602],[78.1865,34.6243],[78.1922,34.6489],[78.1751,34.6841],[78.1665,34.704],[78.1594,34.738],[78.148,34.779],[78.1423,34.7966],[78.1423,34.8329],[78.1252,34.868],[78.1023,34.8832],[78.0667,34.8972],[78.0453,34.9241],[78.0196,34.9534],[78.0054,34.9674],[77.9811,34.9674],[77.9469,34.9686],[77.9041,34.9849],[77.8742,35.0013],[77.8571,35.0118],[77.8442,35.0141],[77.82,35.0351],[77.7872,35.062],[77.7729,35.0807],[77.7729,35.1075],[77.7487,35.1273],[77.7259,35.1425],[77.7045,35.1728],[77.7059,35.1938],[77.7259,35.2159],[77.7358,35.2346],[77.7401,35.2625],[77.7344,35.2893],[77.7187,35.3056],[77.7002,35.3195],[77.6774,35.3323]]]},"properties":{"id":"karakoram-nubra-shyok-wls","name":"Karakoram (Nubra Shyok) Wildlife Sanctuary","category":"wls","area_km2":5000}}]}