{"type":"FeatureCollection","features":[{"type":"Feature","geometry":{"type":"Polygon","coordinates":[[[78.1649,25.726],[78.1618,25.7143],[78.1557,25.712],[78.1495,25.7006],[78.1435,25.6952],[78.1412,25.688],[78.133,25.6777],[78.1361,25.6722],[78.1357,25.6653],[78.1318,25.6614],[78.1214,25.6587],[78.1221,25.6457],[78.1142,25.6363],[78.1029,25.6378],[78.0948,25.6342],[78.0732,25.6385],[78.0656,25.6327],[78.0289,25.6219],[78.0139,25.5999],[78.0223,25.5829],[78.0501,25.5818],[78.0658,25.579],[78.0776,25.552],[78.1169,25.4814],[78.1355,25.4789],[78.1423,25.5068],[78.1518,25.5138],[78.1584,25.5332],[78.1688,25.5472],[78.1791,25.5583],[78.1799,25.5701],[78.1884,25.5908],[78.1904,25.5979],[78.2073,25.6054],[78.2098,25.6082],[78.2077,25.6129],[78.197,25.62],[78.1983,25.6298],[78.2056,25.6475],[78.2112,25.6537],[78.2224,25.6562],[78.2258,25.6594],[78.2303,25.6693],[78.2397,25.677],[78.2426,25.6841],[78.2498,25.6905],[78.2478,25.7011],[78.24,25.7009],[78.2367,25.7086],[78.2378,25.7129],[78.2313,25.7181],[78.2121,25.7196],[78.1818,25.724],[78.166,25.7269],[78.1649,25.726]]]},"properties":{"id":"karera-wls","name":"Karera Wildlife Sanctuary","category":"wls","area_km2":202.2}}]}