{"type":"FeatureCollection","features":[{"type":"Feature","geometry":{"type":"Polygon","coordinates":[[[76.4813,11.382],[76.4765,11.3849],[76.4659,11.3875],[76.4608,11.385],[76.4472,11.3745],[76.4427,11.369],[76.4382,11.3574],[76.4237,11.3381],[76.4163,11.3352],[76.405,11.3204],[76.3995,11.3038],[76.3907,11.294],[76.3877,11.2882],[76.3877,11.2722],[76.3907,11.264],[76.3868,11.2567],[76.3743,11.2465],[76.3708,11.2413],[76.3705,11.2282],[76.3838,11.2209],[76.3883,11.2104],[76.4017,11.2075],[76.408,11.2017],[76.4135,11.2073],[76.4204,11.2092],[76.4306,11.2073],[76.433,11.2041],[76.4392,11.203],[76.4489,11.2055],[76.453,11.2394],[76.4662,11.2452],[76.487,11.2583],[76.5125,11.2683],[76.5216,11.2706],[76.5267,11.2886],[76.5421,11.2967],[76.5456,11.3003],[76.5392,11.3047],[76.5372,11.3141],[76.5499,11.331],[76.5473,11.3455],[76.5478,11.3589],[76.5081,11.3542],[76.515,11.3597],[76.5176,11.3716],[76.4813,11.382]]]},"properties":{"id":"karimpuzha-wls","name":"Karimpuzha Wildlife Sanctuary","category":"wls","area_km2":228}}]}