{"type":"FeatureCollection","features":[{"type":"Feature","geometry":{"type":"Polygon","coordinates":[[[83.0677,19.7735],[83.0755,19.7718],[83.076,19.7684],[83.0639,19.7594],[83.0556,19.7586],[83.0494,19.7552],[83.042,19.7483],[83.0366,19.7467],[83.0335,19.7422],[83.0625,19.744],[83.0651,19.742],[83.0665,19.7228],[83.0651,19.7194],[83.0528,19.7155],[83.0539,19.7114],[83.0651,19.7036],[83.0629,19.6855],[83.059,19.6832],[83.0536,19.6876],[83.0513,19.6854],[83.0504,19.6758],[83.0442,19.6654],[83.0335,19.6602],[83.0318,19.6564],[83.033,19.6471],[83.0289,19.6412],[83.0368,19.6354],[83.0561,19.6417],[83.0584,19.644],[83.0657,19.6406],[83.0687,19.6427],[83.0664,19.6494],[83.0555,19.6504],[83.0507,19.6527],[83.0503,19.6575],[83.0556,19.6694],[83.0625,19.671],[83.0682,19.6754],[83.0693,19.6867],[83.0725,19.7022],[83.0813,19.6988],[83.088,19.6916],[83.0925,19.6752],[83.0983,19.6713],[83.1047,19.6641],[83.1094,19.6621],[83.118,19.6531],[83.1371,19.6546],[83.1447,19.6573],[83.1456,19.66],[83.1413,19.667],[83.1437,19.672],[83.1426,19.6817],[83.1381,19.6865],[83.1382,19.6921],[83.1297,19.7064],[83.1338,19.712],[83.1413,19.7127],[83.1383,19.7207],[83.1514,19.7275],[83.1521,19.7331],[83.1473,19.7413],[83.1518,19.7445],[83.168,19.7353],[83.1716,19.7369],[83.1735,19.7431],[83.1723,19.7521],[83.1578,19.7653],[83.1506,19.7738],[83.153,19.7836],[83.1511,19.7914],[83.1435,19.804],[83.1366,19.8006],[83.1319,19.8048],[83.1333,19.7975],[83.1297,19.7981],[83.1243,19.8064],[83.1107,19.8071],[83.1019,19.8163],[83.1076,19.8232],[83.1057,19.8259],[83.095,19.8272],[83.0827,19.8214],[83.0762,19.8156],[83.0768,19.8031],[83.0748,19.8006],[83.0641,19.7981],[83.0575,19.7932],[83.0549,19.7885],[83.0565,19.78],[83.0677,19.7735]]]},"properties":{"id":"karlapat-wls","name":"Karlapat Wildlife Sanctuary","category":"wls","area_km2":147.7}}]}