{"type":"FeatureCollection","features":[{"type":"Feature","geometry":{"type":"Polygon","coordinates":[[[73.1288,18.9014],[73.1311,18.9076],[73.1264,18.9088],[73.1173,18.8962],[73.1068,18.8843],[73.1061,18.8784],[73.1097,18.8773],[73.1103,18.8683],[73.1134,18.863],[73.1081,18.8542],[73.1179,18.8488],[73.1228,18.8506],[73.1275,18.8615],[73.1356,18.8597],[73.1369,18.8666],[73.1272,18.8757],[73.1236,18.8843],[73.1297,18.8997],[73.1288,18.9014]]]},"properties":{"id":"karnala-wls","name":"Karnala Wildlife Sanctuary","category":"wls","area_km2":4.5}}]}