{"type":"FeatureCollection","features":[{"type":"Feature","geometry":{"type":"Polygon","coordinates":[[[77.1223,20.3884],[77.1253,20.3837],[77.132,20.386],[77.135,20.3715],[77.1398,20.3697],[77.1409,20.363],[77.1546,20.3631],[77.1557,20.3601],[77.1464,20.3558],[77.1502,20.3523],[77.1562,20.352],[77.1655,20.3574],[77.1698,20.3618],[77.1692,20.369],[77.1761,20.3721],[77.1811,20.3704],[77.1864,20.3612],[77.2021,20.3615],[77.2087,20.3717],[77.1979,20.3732],[77.1936,20.3842],[77.2,20.389],[77.1993,20.3949],[77.1921,20.4021],[77.1932,20.4098],[77.2044,20.4113],[77.2082,20.4138],[77.2133,20.4127],[77.2167,20.4165],[77.2163,20.4254],[77.2104,20.429],[77.2097,20.4333],[77.2138,20.4373],[77.2086,20.4431],[77.2061,20.4428],[77.2057,20.4357],[77.2005,20.4409],[77.2005,20.4471],[77.1959,20.4546],[77.1935,20.4547],[77.1907,20.4465],[77.1961,20.4398],[77.1984,20.4236],[77.1903,20.4245],[77.189,20.4308],[77.1814,20.4315],[77.1808,20.4431],[77.1782,20.4502],[77.1741,20.4536],[77.1741,20.4652],[77.1769,20.472],[77.1687,20.4744],[77.146,20.487],[77.1367,20.478],[77.1327,20.4723],[77.1347,20.4669],[77.1462,20.4703],[77.144,20.4547],[77.1478,20.4504],[77.1576,20.4496],[77.1612,20.4453],[77.1618,20.4392],[77.1587,20.4346],[77.152,20.441],[77.1488,20.4375],[77.1449,20.4228],[77.1479,20.4076],[77.142,20.3997],[77.1372,20.4009],[77.137,20.4053],[77.1315,20.4014],[77.1263,20.4071],[77.1209,20.406],[77.1161,20.399],[77.1217,20.3951],[77.1223,20.3884]]]},"properties":{"id":"katepurna-wls","name":"Katepurna Wildlife Sanctuary","category":"wls","area_km2":73.6}}]}