{"type":"FeatureCollection","features":[{"type":"Feature","geometry":{"type":"Polygon","coordinates":[[[81.2191,28.3455],[81.2133,28.3585],[81.2106,28.3608],[81.172,28.3682],[81.1412,28.3726],[81.0891,28.3823],[81.0797,28.3851],[81.0576,28.4012],[81.0503,28.3935],[81.0482,28.3846],[81.0518,28.3658],[81.0571,28.3545],[81.0738,28.3386],[81.0759,28.3315],[81.0759,28.3156],[81.0779,28.2944],[81.0827,28.286],[81.0872,28.2726],[81.0993,28.2687],[81.1068,28.258],[81.1151,28.2572],[81.1279,28.2692],[81.1374,28.2685],[81.1436,28.2865],[81.1549,28.2868],[81.1602,28.2849],[81.1656,28.27],[81.1706,28.2622],[81.1825,28.2562],[81.1902,28.2491],[81.1998,28.247],[81.2075,28.2397],[81.2206,28.2376],[81.2208,28.2287],[81.2179,28.2242],[81.2104,28.2203],[81.1902,28.2195],[81.1787,28.2145],[81.1656,28.2072],[81.1561,28.1873],[81.1427,28.1747],[81.1409,28.1708],[81.1427,28.153],[81.1377,28.1339],[81.1377,28.1242],[81.1421,28.1119],[81.1519,28.098],[81.1763,28.0678],[81.1766,28.0576],[81.1798,28.0479],[81.1917,28.0366],[81.2006,28.0361],[81.2259,28.0553],[81.2324,28.0571],[81.2416,28.056],[81.247,28.045],[81.2601,28.0429],[81.2636,28.0492],[81.2571,28.0532],[81.2452,28.0568],[81.2354,28.0684],[81.2348,28.0712],[81.2425,28.077],[81.2431,28.0849],[81.2289,28.0857],[81.2173,28.0804],[81.214,28.0864],[81.2033,28.0904],[81.1861,28.1093],[81.1736,28.1268],[81.165,28.1294],[81.1599,28.1331],[81.1591,28.1396],[81.1635,28.1415],[81.1706,28.1378],[81.187,28.1334],[81.1911,28.1365],[81.1947,28.1488],[81.206,28.1512],[81.2081,28.163],[81.2158,28.1682],[81.2327,28.1928],[81.2396,28.1912],[81.2532,28.1805],[81.2589,28.1737],[81.2627,28.1465],[81.2693,28.1399],[81.2794,28.1368],[81.2856,28.1213],[81.2963,28.12],[81.3017,28.1124],[81.3135,28.1087],[81.3198,28.1106],[81.3236,28.1155],[81.3239,28.1242],[81.3154,28.1372],[81.3182,28.1451],[81.328,28.1481],[81.3204,28.1603],[81.3121,28.1559],[81.3101,28.1604],[81.3036,28.163],[81.3027,28.1677],[81.3213,28.1689],[81.3247,28.1753],[81.3184,28.1825],[81.3209,28.1975],[81.2995,28.2201],[81.292,28.2229],[81.286,28.2287],[81.2557,28.2619],[81.2327,28.2891],[81.2345,28.3247],[81.2191,28.3455]],[[81.204,28.2992],[81.1878,28.3042],[81.1852,28.3117],[81.1863,28.3187],[81.2077,28.3304],[81.2146,28.3302],[81.2297,28.3202],[81.2287,28.3136],[81.2152,28.3013],[81.204,28.2992]]]},"properties":{"id":"katerniaghat-wls","name":"Katerniaghat Wildlife Sanctuary","category":"wls","area_km2":400.1}}]}