{"type":"FeatureCollection","features":[{"type":"Feature","geometry":{"type":"Polygon","coordinates":[[[78.73,13.2864],[78.7367,13.2733],[78.7456,13.2696],[78.7443,13.2649],[78.7483,13.2593],[78.7523,13.2595],[78.7571,13.2708],[78.761,13.2729],[78.7678,13.2721],[78.7731,13.267],[78.7829,13.2638],[78.7935,13.2478],[78.7975,13.2399],[78.7979,13.2269],[78.7955,13.2192],[78.791,13.2145],[78.7768,13.2062],[78.7691,13.1957],[78.7648,13.1823],[78.7659,13.1698],[78.7722,13.1591],[78.7848,13.1551],[78.7862,13.1516],[78.7819,13.1491],[78.7593,13.1505],[78.7583,13.1442],[78.7612,13.1391],[78.7566,13.1381],[78.7431,13.1391],[78.7388,13.1361],[78.7387,13.1302],[78.7434,13.1261],[78.7522,13.1275],[78.7613,13.1271],[78.7661,13.1226],[78.7776,13.1199],[78.7853,13.1153],[78.7822,13.1055],[78.7712,13.0994],[78.7565,13.0933],[78.7515,13.0935],[78.7416,13.0993],[78.7338,13.1138],[78.7268,13.1431],[78.718,13.1544],[78.7211,13.1617],[78.7129,13.1619],[78.7013,13.1584],[78.6919,13.1447],[78.6928,13.1315],[78.6919,13.1258],[78.6855,13.123],[78.6831,13.1278],[78.6565,13.1376],[78.6505,13.1478],[78.6443,13.1476],[78.6393,13.1401],[78.6386,13.129],[78.6428,13.1223],[78.6503,13.1174],[78.6727,13.1083],[78.6839,13.0979],[78.6913,13.0878],[78.6976,13.0732],[78.6958,13.0618],[78.6906,13.0568],[78.6791,13.0551],[78.6689,13.0572],[78.6652,13.0628],[78.663,13.0751],[78.6535,13.079],[78.6463,13.0746],[78.6402,13.0773],[78.6371,13.0711],[78.6371,13.0608],[78.6347,13.0546],[78.6266,13.0448],[78.6239,13.0332],[78.6142,13.0298],[78.601,13.0351],[78.6007,13.0403],[78.5921,13.0557],[78.5892,13.0678],[78.5854,13.0757],[78.5804,13.0786],[78.5711,13.0788],[78.5554,13.0754],[78.5595,13.0706],[78.564,13.0577],[78.5731,13.0498],[78.5813,13.0404],[78.5992,13.0165],[78.6104,13.0052],[78.6139,12.9977],[78.6212,12.9913],[78.6287,12.9937],[78.6352,13.0013],[78.6451,13.0062],[78.6555,13.0152],[78.6561,13.0311],[78.6769,13.0235],[78.7052,13.0152],[78.7079,13.0356],[78.7145,13.0687],[78.7241,13.0662],[78.7402,13.064],[78.7487,13.0585],[78.7513,13.055],[78.7876,13.0641],[78.795,13.0673],[78.7976,13.0749],[78.8131,13.0891],[78.8207,13.0877],[78.8311,13.0829],[78.8321,13.0859],[78.8435,13.1038],[78.8472,13.1125],[78.8488,13.1221],[78.8492,13.1345],[78.8468,13.1476],[78.8434,13.154],[78.8397,13.1735],[78.822,13.1778],[78.8193,13.1812],[78.821,13.1876],[78.8394,13.1881],[78.8461,13.1942],[78.8595,13.1964],[78.8647,13.1947],[78.8732,13.2004],[78.8743,13.2087],[78.8769,13.213],[78.8845,13.2182],[78.9013,13.2248],[78.9045,13.2295],[78.9018,13.2388],[78.8921,13.2457],[78.8737,13.2515],[78.8604,13.2535],[78.8365,13.2549],[78.8259,13.2579],[78.8222,13.2631],[78.8273,13.2696],[78.8567,13.2709],[78.8799,13.274],[78.8927,13.277],[78.9169,13.286],[78.9311,13.2928],[78.935,13.2968],[78.9342,13.3034],[78.9255,13.3055],[78.9071,13.3051],[78.8593,13.2966],[78.8422,13.2871],[78.8388,13.2872],[78.8341,13.2942],[78.8253,13.2971],[78.8185,13.2925],[78.8118,13.2953],[78.7991,13.2929],[78.7888,13.2927],[78.7505,13.2858],[78.73,13.2864]]]},"properties":{"id":"kaundinya-wls","name":"Kaundinya Wildlife Sanctuary","category":"wls","area_km2":357.6}}]}