{"type":"FeatureCollection","features":[{"type":"Feature","geometry":{"type":"Polygon","coordinates":[[[78.5758,19.1669],[78.5886,19.1643],[78.5972,19.1647],[78.602,19.1617],[78.6097,19.1624],[78.6185,19.1599],[78.6205,19.1638],[78.619,19.1752],[78.6215,19.1787],[78.6434,19.1771],[78.6475,19.1706],[78.6459,19.1648],[78.6394,19.1537],[78.6271,19.1473],[78.6171,19.1514],[78.608,19.1493],[78.604,19.1433],[78.5991,19.1427],[78.59,19.1358],[78.5903,19.1297],[78.5976,19.1197],[78.5986,19.1096],[78.602,19.1019],[78.6076,19.1008],[78.6124,19.1053],[78.6134,19.0965],[78.617,19.0849],[78.6124,19.0823],[78.6103,19.0772],[78.62,19.0732],[78.627,19.0686],[78.6292,19.0645],[78.6375,19.0569],[78.6453,19.0565],[78.6484,19.0679],[78.65,19.0817],[78.638,19.0845],[78.6374,19.0919],[78.6441,19.0935],[78.6487,19.0906],[78.6524,19.0821],[78.661,19.0743],[78.6691,19.0899],[78.683,19.0874],[78.6953,19.0867],[78.7024,19.0794],[78.7271,19.0825],[78.7374,19.0889],[78.7333,19.098],[78.7398,19.1007],[78.7467,19.107],[78.7467,19.1123],[78.7339,19.1086],[78.7193,19.1071],[78.7125,19.1002],[78.7095,19.0911],[78.7072,19.0911],[78.7075,19.1009],[78.699,19.1134],[78.6929,19.1143],[78.6875,19.12],[78.6753,19.1163],[78.6681,19.1181],[78.6648,19.1266],[78.6643,19.1382],[78.6715,19.1451],[78.6763,19.1462],[78.6817,19.1421],[78.692,19.1379],[78.6941,19.1352],[78.6928,19.1271],[78.6978,19.1258],[78.703,19.138],[78.7083,19.143],[78.709,19.1477],[78.7036,19.1601],[78.6968,19.1652],[78.6851,19.1843],[78.6774,19.1863],[78.6584,19.1941],[78.6456,19.1936],[78.6391,19.1896],[78.6319,19.193],[78.629,19.2003],[78.629,19.2129],[78.6188,19.2225],[78.612,19.2309],[78.5972,19.2357],[78.5915,19.2407],[78.5832,19.2385],[78.5787,19.2404],[78.5796,19.2491],[78.5755,19.2561],[78.5576,19.2679],[78.5576,19.2704],[78.5642,19.2704],[78.5781,19.2595],[78.582,19.2592],[78.5865,19.2542],[78.5984,19.2528],[78.6025,19.2508],[78.6052,19.2418],[78.6209,19.2331],[78.6278,19.2272],[78.6385,19.2211],[78.6399,19.2183],[78.6477,19.2177],[78.6512,19.2132],[78.6673,19.2017],[78.6839,19.1961],[78.6872,19.1877],[78.691,19.186],[78.7023,19.1908],[78.7112,19.1905],[78.7136,19.2003],[78.7202,19.2017],[78.7205,19.1908],[78.7332,19.1899],[78.7347,19.1852],[78.7282,19.1807],[78.7234,19.1731],[78.7154,19.1686],[78.7074,19.1711],[78.7056,19.1692],[78.7133,19.1621],[78.7249,19.1563],[78.738,19.1461],[78.7579,19.1338],[78.7885,19.1122],[78.8039,19.1004],[78.8087,19.1012],[78.8227,19.117],[78.8256,19.1226],[78.8259,19.1374],[78.8372,19.1389],[78.8375,19.1265],[78.8331,19.1184],[78.8316,19.1052],[78.8342,19.0948],[78.8479,19.0844],[78.8536,19.0861],[78.8562,19.0914],[78.8506,19.1052],[78.8488,19.117],[78.8518,19.1217],[78.8565,19.1229],[78.8696,19.1141],[78.8708,19.1049],[78.8764,19.1004],[78.8797,19.0903],[78.8904,19.0906],[78.8966,19.0966],[78.9024,19.0937],[78.8928,19.0857],[78.8934,19.0809],[78.9006,19.0777],[78.8952,19.0656],[78.8944,19.0595],[78.8971,19.0574],[78.8956,19.0476],[78.9002,19.048],[78.9061,19.0566],[78.9124,19.0518],[78.9197,19.0501],[78.921,19.0534],[78.9102,19.0583],[78.9084,19.0663],[78.9122,19.082],[78.9179,19.085],[78.9292,19.0823],[78.9396,19.0908],[78.9418,19.0952],[78.9394,19.1002],[78.9339,19.0998],[78.9248,19.1033],[78.9181,19.11],[78.9142,19.1164],[78.9175,19.1227],[78.9228,19.1264],[78.9268,19.1252],[78.9296,19.1186],[78.9333,19.117],[78.9434,19.1265],[78.944,19.1353],[78.9414,19.1418],[78.9299,19.1466],[78.9265,19.153],[78.9403,19.156],[78.9488,19.1682],[78.9561,19.1866],[78.9607,19.1889],[78.9672,19.1881],[78.9727,19.1838],[78.9807,19.1713],[78.988,19.1668],[78.9942,19.1499],[79.0005,19.1429],[79.0039,19.1331],[79.0108,19.1304],[79.0097,19.1164],[79.0115,19.1045],[79.0138,19.1014],[79.0244,19.0946],[79.0236,19.0889],[79.0291,19.0784],[79.0398,19.0799],[79.041,19.0872],[79.0458,19.0944],[79.0508,19.0927],[79.0511,19.0851],[79.0597,19.0838],[79.0623,19.089],[79.0747,19.0875],[79.0785,19.0827],[79.0743,19.072],[79.075,19.0671],[79.0804,19.0671],[79.0865,19.0747],[79.1059,19.0785],[79.1275,19.0728],[79.1306,19.0697],[79.1349,19.0576],[79.1362,19.0486],[79.1356,19.0402],[79.1472,19.0387],[79.1522,19.0419],[79.1641,19.0428],[79.1718,19.0461],[79.1757,19.0451],[79.1772,19.0306],[79.1864,19.0293],[79.1873,19.0195],[79.1964,19.0068],[79.2117,18.9942],[79.2296,18.9988],[79.2342,19.0059],[79.2324,19.0143],[79.2178,19.0343],[79.2029,19.0438],[79.1983,19.057],[79.1933,19.0592],[79.188,19.0663],[79.1919,19.0713],[79.1974,19.0731],[79.2068,19.069],[79.2086,19.0768],[79.2186,19.0829],[79.2288,19.0854],[79.2272,19.0883],[79.2199,19.0899],[79.1978,19.1076],[79.1969,19.1125],[79.202,19.1225],[79.2077,19.1246],[79.2157,19.1306],[79.2365,19.1438],[79.2383,19.1502],[79.219,19.1645],[79.2127,19.1676],[79.1971,19.1656],[79.1767,19.1754],[79.1698,19.1736],[79.1579,19.1781],[79.1489,19.1753],[79.1451,19.1787],[79.1529,19.1804],[79.1577,19.1847],[79.1745,19.1793],[79.1808,19.1888],[79.1951,19.196],[79.1992,19.2012],[79.1957,19.2174],[79.1865,19.2241],[79.1867,19.2276],[79.2097,19.2295],[79.2142,19.2286],[79.2224,19.2314],[79.2327,19.2312],[79.2452,19.2226],[79.2499,19.2239],[79.2594,19.2322],[79.2558,19.2386],[79.2466,19.2404],[79.2398,19.2394],[79.2305,19.2414],[79.2237,19.241],[79.2106,19.2481],[79.2068,19.2477],[79.2011,19.2414],[79.1945,19.2383],[79.1864,19.2401],[79.1823,19.2462],[79.1782,19.2452],[79.176,19.2357],[79.174,19.2349],[79.1559,19.2447],[79.1327,19.2434],[79.1285,19.2482],[79.1299,19.2656],[79.1347,19.2701],[79.146,19.271],[79.1531,19.2748],[79.1583,19.2835],[79.1567,19.2879],[79.1407,19.2977],[79.1228,19.2978],[79.1233,19.3059],[79.135,19.3106],[79.1434,19.3214],[79.1502,19.3179],[79.1576,19.3103],[79.1614,19.3092],[79.1669,19.3133],[79.1791,19.3129],[79.1787,19.3263],[79.1895,19.3307],[79.1975,19.3443],[79.1978,19.3499],[79.1886,19.356],[79.1833,19.3551],[79.1802,19.35],[79.1718,19.3481],[79.1683,19.3453],[79.1657,19.328],[79.1609,19.3264],[79.1588,19.3322],[79.1627,19.3346],[79.1636,19.3418],[79.159,19.3439],[79.1469,19.342],[79.1397,19.3362],[79.1296,19.3334],[79.1224,19.3287],[79.1019,19.3244],[79.0931,19.3256],[79.0918,19.3301],[79.1016,19.3358],[79.1126,19.3358],[79.1147,19.3376],[79.1178,19.3503],[79.1252,19.3489],[79.1318,19.3577],[79.1377,19.3558],[79.1663,19.3562],[79.18,19.3619],[79.1861,19.3673],[79.2037,19.3675],[79.2245,19.3781],[79.2255,19.3841],[79.2213,19.3915],[79.2183,19.3926],[79.2089,19.3881],[79.1954,19.3884],[79.1877,19.3962],[79.1838,19.3891],[79.1719,19.3885],[79.1621,19.3923],[79.1603,19.3766],[79.1544,19.3699],[79.146,19.3695],[79.1505,19.3754],[79.1493,19.3805],[79.135,19.3851],[79.1335,19.3973],[79.1358,19.401],[79.1469,19.4061],[79.1559,19.4053],[79.1576,19.4105],[79.1528,19.4287],[79.1431,19.4263],[79.1404,19.4331],[79.1294,19.426],[79.1279,19.4163],[79.1189,19.4139],[79.1163,19.42],[79.1219,19.4239],[79.1206,19.4338],[79.1287,19.4381],[79.1231,19.4447],[79.1121,19.445],[79.0972,19.4435],[79.0942,19.4416],[79.0936,19.4339],[79.1022,19.4276],[79.1037,19.4241],[79.0948,19.4122],[79.1004,19.398],[79.0981,19.3912],[79.0821,19.3901],[79.0791,19.3811],[79.0757,19.3801],[79.0565,19.3953],[79.048,19.4006],[79.0478,19.4141],[79.0395,19.4207],[79.0312,19.4226],[79.0279,19.4256],[79.0171,19.429],[79.0144,19.4345],[79.0138,19.4425],[78.9987,19.4437],[78.993,19.4406],[78.9909,19.431],[78.9864,19.4267],[78.988,19.4187],[78.9793,19.4152],[78.9802,19.4111],[78.987,19.4077],[78.9873,19.4021],[78.9685,19.3994],[78.9605,19.3947],[78.9716,19.3938],[78.9728,19.3861],[78.9805,19.3866],[78.9775,19.3798],[78.9852,19.3768],[78.9945,19.3686],[78.9978,19.3689],[79.0002,19.375],[79.0064,19.3697],[79.0031,19.3636],[79.0106,19.3643],[79.0147,19.3622],[79.0234,19.3636],[79.024,19.3706],[79.03,19.3665],[79.0293,19.3595],[79.0172,19.3524],[79.0132,19.356],[79.0108,19.3439],[78.9989,19.3456],[78.987,19.353],[78.9596,19.3574],[78.951,19.3599],[78.9478,19.3543],[78.9525,19.3516],[78.9638,19.3493],[78.9675,19.3462],[78.968,19.3409],[78.976,19.3426],[78.9816,19.327],[78.9802,19.3219],[78.9734,19.3085],[78.9785,19.3071],[78.9922,19.3153],[78.9948,19.3207],[79.002,19.3257],[79.0072,19.317],[79.0011,19.3078],[79.002,19.3035],[79.0069,19.3031],[79.0121,19.3148],[79.0221,19.313],[79.023,19.3057],[79.0195,19.3014],[79.0106,19.2988],[79.0013,19.2943],[78.9989,19.2913],[78.9873,19.2934],[78.9806,19.2967],[78.9686,19.2984],[78.9752,19.2859],[78.9748,19.2815],[78.9575,19.2755],[78.9576,19.2666],[78.9532,19.2626],[78.955,19.2573],[78.9635,19.26],[78.9662,19.2568],[78.9755,19.2609],[78.9742,19.2531],[78.9787,19.2474],[78.9758,19.2332],[78.9725,19.2314],[78.9677,19.2344],[78.962,19.2472],[78.9553,19.2496],[78.954,19.2533],[78.9428,19.2556],[78.9371,19.263],[78.9323,19.2657],[78.9316,19.2718],[78.9377,19.2799],[78.946,19.2808],[78.9487,19.2831],[78.9472,19.2897],[78.9493,19.2913],[78.9638,19.2862],[78.9666,19.2887],[78.965,19.2931],[78.9585,19.297],[78.9541,19.3058],[78.9447,19.3038],[78.9371,19.2931],[78.9294,19.2914],[78.9222,19.2865],[78.9192,19.2796],[78.913,19.2829],[78.9179,19.2956],[78.9096,19.2993],[78.9078,19.3094],[78.912,19.3175],[78.9215,19.3229],[78.921,19.3248],[78.9037,19.3345],[78.8926,19.3389],[78.891,19.3436],[78.8974,19.347],[78.9022,19.3601],[78.8968,19.3649],[78.8864,19.3638],[78.8796,19.3579],[78.8779,19.3686],[78.8713,19.3733],[78.8697,19.3798],[78.8633,19.383],[78.8668,19.3905],[78.8654,19.3959],[78.8587,19.3987],[78.8529,19.3935],[78.8412,19.3955],[78.8356,19.4045],[78.842,19.4084],[78.8424,19.4168],[78.8346,19.4182],[78.8272,19.4229],[78.8207,19.4234],[78.8186,19.418],[78.8242,19.4101],[78.8231,19.404],[78.8144,19.4077],[78.8111,19.4058],[78.8148,19.3929],[78.8133,19.3901],[78.8039,19.3993],[78.8022,19.3966],[78.8167,19.3793],[78.8103,19.3784],[78.8016,19.3841],[78.7888,19.3884],[78.7847,19.3838],[78.7971,19.3801],[78.8022,19.3716],[78.809,19.3665],[78.8206,19.3606],[78.8218,19.3575],[78.8373,19.3514],[78.8499,19.3477],[78.8526,19.3445],[78.8612,19.3416],[78.8638,19.3364],[78.8742,19.3257],[78.873,19.322],[78.8665,19.3248],[78.8635,19.3298],[78.8511,19.3337],[78.8492,19.3378],[78.8377,19.346],[78.8301,19.3472],[78.8263,19.3433],[78.8203,19.3466],[78.7992,19.341],[78.7953,19.3453],[78.7798,19.3487],[78.7763,19.3585],[78.7715,19.3633],[78.7606,19.3639],[78.7495,19.3601],[78.7551,19.3494],[78.748,19.3483],[78.7329,19.3531],[78.7255,19.3633],[78.7264,19.3696],[78.7395,19.3766],[78.7454,19.3832],[78.7435,19.3896],[78.7371,19.3959],[78.718,19.403],[78.712,19.4031],[78.7091,19.406],[78.688,19.4142],[78.6798,19.4112],[78.6716,19.4148],[78.6602,19.4124],[78.6474,19.4151],[78.6533,19.4048],[78.6546,19.3983],[78.6591,19.3892],[78.6584,19.3838],[78.6525,19.3832],[78.6456,19.3876],[78.6365,19.3798],[78.6293,19.3817],[78.624,19.3884],[78.6114,19.3845],[78.6153,19.3643],[78.6108,19.3662],[78.6051,19.3759],[78.5957,19.3972],[78.5868,19.4105],[78.5826,19.4195],[78.5745,19.4192],[78.5674,19.4243],[78.5615,19.4247],[78.5573,19.4209],[78.5638,19.4148],[78.5697,19.4119],[78.5721,19.3943],[78.5652,19.3938],[78.5603,19.3845],[78.5641,19.377],[78.5555,19.3757],[78.5521,19.381],[78.5406,19.3901],[78.5296,19.3956],[78.5268,19.3925],[78.5245,19.383],[78.5349,19.3737],[78.5432,19.369],[78.5536,19.3652],[78.5536,19.3575],[78.5621,19.3567],[78.5652,19.3518],[78.5882,19.3459],[78.5826,19.3372],[78.5745,19.3466],[78.5667,19.3481],[78.5551,19.3359],[78.5489,19.3388],[78.5489,19.3439],[78.5456,19.3497],[78.5356,19.3368],[78.5378,19.3317],[78.5441,19.3291],[78.5466,19.3207],[78.5385,19.3143],[78.5293,19.3162],[78.5274,19.3196],[78.5311,19.3327],[78.5281,19.3352],[78.5134,19.3312],[78.4998,19.3311],[78.4978,19.328],[78.5019,19.3233],[78.5033,19.3156],[78.4924,19.316],[78.4923,19.3284],[78.4893,19.3314],[78.4751,19.3302],[78.471,19.3275],[78.4713,19.3176],[78.4767,19.3054],[78.4792,19.3035],[78.4866,19.305],[78.4903,19.3027],[78.5013,19.2879],[78.5067,19.2848],[78.5257,19.2854],[78.5313,19.2884],[78.5455,19.2799],[78.5477,19.2755],[78.5402,19.2755],[78.5307,19.2831],[78.5194,19.2833],[78.5071,19.2813],[78.5029,19.2821],[78.4925,19.2917],[78.4901,19.2962],[78.4807,19.296],[78.4821,19.286],[78.4722,19.288],[78.4642,19.2823],[78.4643,19.2784],[78.4753,19.2747],[78.4841,19.2762],[78.4846,19.2631],[78.4787,19.2589],[78.4816,19.2527],[78.4834,19.2411],[78.4854,19.2388],[78.4999,19.2307],[78.5064,19.2377],[78.5101,19.2348],[78.5119,19.2267],[78.51,19.2249],[78.5017,19.2276],[78.5007,19.2252],[78.5056,19.2179],[78.507,19.212],[78.5036,19.2042],[78.4938,19.2026],[78.4887,19.1984],[78.4851,19.1898],[78.4876,19.1843],[78.4942,19.1847],[78.5081,19.1915],[78.5156,19.1909],[78.5204,19.1827],[78.5317,19.176],[78.5472,19.1727],[78.558,19.1653],[78.5758,19.1669]]]},"properties":{"id":"kawal-wls","name":"Kawal Wildlife Sanctuary","category":"wls","area_km2":892.2}}]}