{"type":"FeatureCollection","features":[{"type":"Feature","geometry":{"type":"Polygon","coordinates":[[[79.9085,12.17],[79.892,12.1561],[79.8856,12.1542],[79.8752,12.1471],[79.876,12.1446],[79.8656,12.1398],[79.8526,12.1423],[79.8458,12.1404],[79.8387,12.1422],[79.8344,12.1376],[79.8382,12.123],[79.8337,12.1201],[79.8309,12.1136],[79.8333,12.1103],[79.833,12.0968],[79.825,12.0953],[79.8202,12.0755],[79.8292,12.0723],[79.8314,12.0761],[79.857,12.0671],[79.8675,12.0678],[79.8679,12.0704],[79.8756,12.0702],[79.879,12.0743],[79.8765,12.0769],[79.8828,12.0945],[79.8817,12.0971],[79.8843,12.106],[79.8903,12.1056],[79.8922,12.1321],[79.891,12.137],[79.8929,12.1437],[79.8989,12.1525],[79.9092,12.1595],[79.9124,12.1667],[79.9085,12.17]]]},"properties":{"id":"kazhuveli-bird-sanctuary-ramsar","name":"Kazhuveli Bird Sanctuary","category":"ramsar","area_km2":51.7}}]}