{"type":"FeatureCollection","features":[{"type":"Feature","geometry":{"type":"Polygon","coordinates":[[[93.2533,26.5814],[93.2582,26.5803],[93.271,26.5834],[93.294,26.5831],[93.3115,26.5895],[93.3202,26.59],[93.3331,26.5863],[93.3384,26.5862],[93.3416,26.5952],[93.3519,26.603],[93.357,26.6036],[93.3718,26.595],[93.3823,26.598],[93.3952,26.6044],[93.405,26.6018],[93.4073,26.6083],[93.4201,26.61],[93.4336,26.6148],[93.4561,26.6137],[93.4679,26.618],[93.4731,26.6224],[93.479,26.6173],[93.485,26.6167],[93.5016,26.6201],[93.5072,26.6228],[93.513,26.639],[93.4969,26.6356],[93.494,26.6447],[93.4973,26.6481],[93.5094,26.6505],[93.512,26.6605],[93.5223,26.6643],[93.5296,26.6622],[93.5408,26.6618],[93.5587,26.665],[93.5659,26.663],[93.5719,26.666],[93.581,26.6758],[93.5876,26.6802],[93.5906,26.6852],[93.5867,26.6983],[93.566,26.7017],[93.5498,26.7025],[93.5327,26.7055],[93.5228,26.7097],[93.5098,26.7281],[93.5031,26.7316],[93.492,26.7339],[93.4785,26.7441],[93.4695,26.7479],[93.4595,26.7458],[93.4453,26.7399],[93.4363,26.7335],[93.4207,26.7271],[93.3992,26.7237],[93.3649,26.7148],[93.3412,26.7123],[93.326,26.7123],[93.3117,26.708],[93.305,26.7033],[93.2961,26.6923],[93.2967,26.6838],[93.2718,26.6702],[93.267,26.6624],[93.2392,26.6435],[93.2316,26.6415],[93.2152,26.642],[93.2045,26.6367],[93.1953,26.6279],[93.1724,26.6197],[93.1632,26.6136],[93.1517,26.612],[93.1382,26.6137],[93.122,26.6054],[93.1078,26.5997],[93.0928,26.6005],[93.075,26.5973],[93.0628,26.5988],[93.0144,26.5816],[93.0163,26.575],[93.0251,26.5714],[93.0393,26.5706],[93.0619,26.5772],[93.0662,26.5693],[93.0712,26.5682],[93.08,26.5744],[93.0897,26.5761],[93.1063,26.5765],[93.1125,26.5752],[93.1211,26.5691],[93.1325,26.5691],[93.1574,26.5764],[93.1744,26.5759],[93.1829,26.5734],[93.1997,26.5738],[93.2011,26.5752],[93.2154,26.5759],[93.2195,26.5801],[93.2399,26.5798],[93.2533,26.5814]]]},"properties":{"id":"kaziranga-tr","name":"Kaziranga Tiger Reserve","category":"tr","area_km2":859}}]}