{"type":"FeatureCollection","features":[{"type":"Feature","geometry":{"type":"Polygon","coordinates":[[[74.3313,34.1732],[74.3388,34.1732],[74.3558,34.1689],[74.3606,34.1601],[74.3649,34.1645],[74.3652,34.1709],[74.3699,34.1719],[74.3738,34.1791],[74.3698,34.1827],[74.3596,34.1833],[74.3562,34.1813],[74.3561,34.1876],[74.3477,34.1839],[74.3478,34.1921],[74.3411,34.1814],[74.3362,34.1827],[74.3347,34.1877],[74.3237,34.1877],[74.321,34.1853],[74.3313,34.1732]]]},"properties":{"id":"kazinag-np","name":"Kazinag National Park","category":"np","area_km2":90.9}}]}