{"type":"FeatureCollection","features":[{"type":"Feature","geometry":{"type":"Polygon","coordinates":[[[79.3917,30.4346],[79.3951,30.4336],[79.4022,30.4389],[79.4147,30.4364],[79.4157,30.44],[79.4047,30.4464],[79.4058,30.4582],[79.4128,30.4681],[79.4284,30.4785],[79.4357,30.4893],[79.4361,30.4955],[79.4411,30.5032],[79.4383,30.5072],[79.4305,30.5102],[79.4258,30.5197],[79.4254,30.5309],[79.4181,30.5383],[79.4047,30.5418],[79.3924,30.547],[79.3898,30.5528],[79.3904,30.5626],[79.3878,30.5708],[79.3906,30.5802],[79.3986,30.5902],[79.4002,30.595],[79.3909,30.6083],[79.3848,30.609],[79.3757,30.6135],[79.3687,30.6192],[79.3597,30.647],[79.3482,30.6503],[79.3447,30.6544],[79.3304,30.6589],[79.328,30.6669],[79.3079,30.6729],[79.3042,30.678],[79.3048,30.6839],[79.3,30.6948],[79.3003,30.7073],[79.2968,30.7185],[79.2875,30.7259],[79.2773,30.7234],[79.2679,30.7244],[79.2563,30.723],[79.2525,30.7285],[79.2452,30.7329],[79.2319,30.734],[79.2081,30.7378],[79.1997,30.7329],[79.1962,30.7403],[79.1813,30.7511],[79.175,30.7515],[79.1691,30.7558],[79.1617,30.7554],[79.143,30.7479],[79.1365,30.752],[79.1311,30.7589],[79.1221,30.7521],[79.1111,30.7503],[79.1011,30.7366],[79.1011,30.7255],[79.0936,30.7048],[79.0884,30.7017],[79.0849,30.7057],[79.0736,30.7091],[79.0646,30.7092],[79.057,30.7151],[79.0533,30.7244],[79.0393,30.7361],[79.0266,30.7416],[79.0142,30.741],[79.0044,30.7379],[78.99,30.7305],[78.9846,30.7332],[78.9709,30.7307],[78.9594,30.7344],[78.9507,30.7309],[78.9473,30.7231],[78.9434,30.721],[78.9293,30.7196],[78.9255,30.7168],[78.917,30.7003],[78.9175,30.6962],[78.9117,30.6908],[78.9116,30.6748],[78.91,30.6627],[78.9066,30.655],[78.9086,30.6326],[78.912,30.6281],[78.9213,30.6234],[78.9294,30.6143],[78.9322,30.6065],[78.943,30.5938],[78.9477,30.6009],[78.9556,30.6056],[78.9641,30.6079],[78.9706,30.6145],[78.9777,30.6169],[78.9862,30.6162],[79.0008,30.6267],[79.0061,30.6283],[79.0106,30.6259],[79.012,30.6212],[79.0193,30.616],[79.0324,30.5918],[79.0441,30.5842],[79.0452,30.5815],[79.0528,30.5801],[79.0592,30.582],[79.0663,30.5747],[79.0651,30.5721],[79.0704,30.5686],[79.0671,30.5643],[79.0676,30.5583],[79.0761,30.5576],[79.0738,30.578],[79.0846,30.5799],[79.0945,30.5754],[79.1156,30.5724],[79.1337,30.5685],[79.1368,30.5647],[79.135,30.5579],[79.1285,30.5445],[79.104,30.5287],[79.1042,30.52],[79.1113,30.5139],[79.1112,30.5062],[79.1182,30.5033],[79.1346,30.5134],[79.1483,30.5165],[79.1609,30.5141],[79.1722,30.5079],[79.1754,30.5029],[79.1779,30.4895],[79.1818,30.4837],[79.1926,30.4881],[79.1937,30.4935],[79.1977,30.4957],[79.2033,30.4912],[79.2086,30.4822],[79.2186,30.4781],[79.2241,30.4707],[79.2372,30.4703],[79.2433,30.4686],[79.2591,30.469],[79.2696,30.4651],[79.2839,30.4495],[79.2895,30.4404],[79.3139,30.4413],[79.3272,30.449],[79.3345,30.4515],[79.3438,30.4515],[79.3579,30.4537],[79.3622,30.4525],[79.3639,30.4477],[79.3771,30.4482],[79.3867,30.4424],[79.3917,30.4346]]]},"properties":{"id":"kedarnath-wls","name":"Kedarnath Wildlife Sanctuary","category":"wls","area_km2":975.2}}]}