{"type":"FeatureCollection","features":[{"type":"Feature","geometry":{"type":"Polygon","coordinates":[[[93.8488,24.5272],[93.8338,24.5273],[93.8285,24.5312],[93.8203,24.5284],[93.8167,24.5249],[93.8189,24.5215],[93.8154,24.5178],[93.8196,24.5153],[93.828,24.5158],[93.8284,24.51],[93.8215,24.508],[93.8233,24.5025],[93.8296,24.4961],[93.8241,24.4924],[93.8247,24.4881],[93.8185,24.4841],[93.8122,24.4758],[93.817,24.4731],[93.8163,24.4683],[93.8268,24.464],[93.8246,24.4585],[93.8211,24.4616],[93.8109,24.4543],[93.8141,24.4486],[93.8177,24.4501],[93.8217,24.4455],[93.8213,24.4415],[93.8334,24.4427],[93.8428,24.4409],[93.8503,24.4467],[93.8492,24.4559],[93.8526,24.4648],[93.8565,24.4683],[93.8589,24.4756],[93.8538,24.4907],[93.8558,24.4911],[93.86,24.483],[93.8674,24.4771],[93.8788,24.4917],[93.8756,24.4925],[93.8714,24.4992],[93.8719,24.5037],[93.8659,24.509],[93.8668,24.5146],[93.8614,24.5151],[93.858,24.5192],[93.8617,24.5218],[93.8607,24.5278],[93.8488,24.5272]]]},"properties":{"id":"keibul-lamjao-np","name":"Keibul-Lamjao National Park","category":"np","area_km2":40}}]}