{"type":"FeatureCollection","features":[{"type":"Feature","geometry":{"type":"Polygon","coordinates":[[[80.0468,24.9371],[80.0442,24.9335],[80.0369,24.9325],[80.0335,24.9291],[80.0306,24.9202],[80.0204,24.9068],[80.0241,24.9015],[80.0312,24.8849],[80.0314,24.8777],[80.0345,24.8678],[80.0385,24.8623],[80.0312,24.8565],[80.0341,24.8506],[80.0465,24.8405],[80.0568,24.8433],[80.0718,24.8422],[80.0766,24.8384],[80.0784,24.8322],[80.0775,24.8192],[80.0848,24.8237],[80.0966,24.834],[80.0961,24.838],[80.0869,24.8521],[80.0751,24.8584],[80.0668,24.8694],[80.0678,24.8754],[80.0718,24.8816],[80.0683,24.8924],[80.0608,24.8957],[80.0557,24.901],[80.0566,24.9146],[80.0501,24.9208],[80.0543,24.9266],[80.0533,24.9353],[80.0552,24.9383],[80.0686,24.937],[80.0692,24.9431],[80.0649,24.9502],[80.0684,24.9586],[80.061,24.96],[80.0527,24.9489],[80.0547,24.9467],[80.0468,24.9371]]]},"properties":{"id":"ken-gharial-wls","name":"Ken Gharial Wildlife Sanctuary","category":"wls","area_km2":45.2}}]}