{"type":"FeatureCollection","features":[{"type":"Feature","geometry":{"type":"Polygon","coordinates":[[[77.5039,27.2022],[77.5038,27.199],[77.4968,27.1987],[77.494,27.1912],[77.4993,27.1935],[77.4986,27.1843],[77.4941,27.1808],[77.4913,27.173],[77.4945,27.1643],[77.5019,27.156],[77.4993,27.1478],[77.5171,27.1403],[77.5229,27.1464],[77.5379,27.1393],[77.5345,27.1329],[77.5488,27.1267],[77.5556,27.1294],[77.5603,27.1344],[77.5593,27.1409],[77.5619,27.1465],[77.5561,27.1575],[77.5449,27.1573],[77.5429,27.1658],[77.5374,27.1686],[77.5335,27.1745],[77.5353,27.1765],[77.5192,27.1895],[77.5114,27.201],[77.5039,27.2022]]]},"properties":{"id":"keoladeo-ghana-np-ramsar","name":"Keoladeo Ghana National Park","category":"ramsar","area_km2":28.7}}]}