{"type":"FeatureCollection","features":[{"type":"Feature","geometry":{"type":"Polygon","coordinates":[[[73.7324,25.452],[73.7244,25.4543],[73.7198,25.4503],[73.7153,25.4397],[73.7191,25.4285],[73.7251,25.4267],[73.7287,25.4217],[73.7324,25.4238],[73.7451,25.4228],[73.7477,25.431],[73.7541,25.4361],[73.7583,25.4202],[73.7591,25.4034],[73.7541,25.3943],[73.7521,25.3771],[73.7467,25.36],[73.7519,25.3578],[73.7588,25.3605],[73.7688,25.3692],[73.7794,25.3895],[73.7847,25.4038],[73.7962,25.4206],[73.8058,25.4326],[73.8079,25.4445],[73.802,25.4439],[73.7884,25.4397],[73.7806,25.4392],[73.7764,25.4431],[73.7735,25.4392],[73.7612,25.4364],[73.7563,25.4393],[73.7556,25.4495],[73.744,25.4459],[73.7386,25.4464],[73.7324,25.452]]]},"properties":{"id":"kesarbagh-wls","name":"Kesarbagh Wildlife Sanctuary","category":"wls","area_km2":14.8}}]}