{"type":"FeatureCollection","features":[{"type":"Feature","geometry":{"type":"MultiPolygon","coordinates":[[[[75.4064,32.1099],[75.3897,32.1008],[75.3975,32.0973],[75.4032,32.091],[75.399,32.085],[75.3923,32.0801],[75.4053,32.0841],[75.4082,32.0878],[75.4113,32.0979],[75.41,32.1024],[75.4044,32.1042],[75.4064,32.1099]]],[[[75.3763,32.0933],[75.3745,32.0857],[75.3834,32.0886],[75.3763,32.0933]]]]},"properties":{"id":"keshopur-miani-community-reserve-ramsar","name":"Keshopur-Miani Community Reserve","category":"ramsar","area_km2":3.4}}]}