{"type":"FeatureCollection","features":[{"type":"Feature","geometry":{"type":"Polygon","coordinates":[[[84.4822,21.4429],[84.4699,21.4429],[84.4675,21.432],[84.4637,21.4274],[84.4629,21.4076],[84.4709,21.399],[84.4739,21.3905],[84.474,21.381],[84.4705,21.3748],[84.4737,21.3612],[84.4707,21.3559],[84.4833,21.3368],[84.478,21.3303],[84.4819,21.3261],[84.4795,21.3114],[84.5,21.306],[84.5192,21.3025],[84.5353,21.2961],[84.5597,21.299],[84.5909,21.3258],[84.6064,21.3335],[84.6064,21.3489],[84.5961,21.3592],[84.6056,21.3656],[84.6112,21.3618],[84.6194,21.3594],[84.6232,21.3605],[84.6292,21.367],[84.6382,21.3718],[84.6457,21.378],[84.6624,21.3788],[84.6653,21.3824],[84.6625,21.3888],[84.65,21.3898],[84.6406,21.3928],[84.632,21.3936],[84.6246,21.3915],[84.6061,21.3831],[84.5994,21.3839],[84.5983,21.3871],[84.6021,21.3933],[84.6105,21.4003],[84.6103,21.4062],[84.5811,21.3969],[84.5857,21.4055],[84.6065,21.4116],[84.611,21.4146],[84.614,21.4212],[84.6102,21.4255],[84.6009,21.4245],[84.5935,21.4261],[84.5869,21.4366],[84.5753,21.4402],[84.5667,21.4391],[84.563,21.4308],[84.5523,21.4311],[84.5399,21.4261],[84.5251,21.4261],[84.5127,21.4327],[84.5071,21.4315],[84.4991,21.4261],[84.4831,21.4318],[84.4822,21.4429]]]},"properties":{"id":"khalasuni-wls","name":"Khalasuni Wildlife Sanctuary","category":"wls","area_km2":116}}]}