{"type":"FeatureCollection","features":[{"type":"Feature","geometry":{"type":"Polygon","coordinates":[[[88.0891,27.4517],[88.1007,27.4529],[88.1094,27.4583],[88.1315,27.463],[88.1375,27.4628],[88.1428,27.4578],[88.1501,27.4578],[88.1601,27.4507],[88.1708,27.436],[88.1759,27.4253],[88.1906,27.4202],[88.1914,27.4138],[88.2035,27.4046],[88.2134,27.3989],[88.2141,27.3927],[88.2269,27.3986],[88.2317,27.4096],[88.2304,27.4182],[88.2397,27.4269],[88.2542,27.4289],[88.2534,27.4365],[88.2594,27.4424],[88.2685,27.4421],[88.2707,27.4494],[88.3257,27.4636],[88.3317,27.4816],[88.3359,27.487],[88.3363,27.5025],[88.3818,27.5785],[88.3962,27.5832],[88.406,27.5813],[88.4162,27.5671],[88.4273,27.5639],[88.4344,27.5579],[88.4438,27.5574],[88.4614,27.5511],[88.4662,27.5455],[88.4758,27.538],[88.4865,27.5381],[88.5043,27.5358],[88.5141,27.533],[88.5185,27.5285],[88.5326,27.521],[88.5414,27.5277],[88.5456,27.5268],[88.5584,27.5301],[88.5691,27.5256],[88.5842,27.5286],[88.5925,27.5362],[88.5992,27.5363],[88.6088,27.5392],[88.6179,27.5443],[88.6296,27.5447],[88.6425,27.5501],[88.6506,27.5492],[88.6553,27.5539],[88.6539,27.5592],[88.6554,27.5686],[88.6532,27.5727],[88.6571,27.5819],[88.6555,27.5937],[88.6456,27.6045],[88.6395,27.6091],[88.6288,27.6127],[88.6191,27.6215],[88.6192,27.6299],[88.6169,27.6348],[88.6061,27.6449],[88.6064,27.6529],[88.5963,27.6659],[88.5962,27.6756],[88.5885,27.6856],[88.5775,27.6916],[88.5759,27.6963],[88.5658,27.7028],[88.563,27.7086],[88.5659,27.7169],[88.5595,27.7227],[88.5586,27.7271],[88.5532,27.7331],[88.5445,27.7542],[88.5232,27.7656],[88.511,27.7743],[88.5059,27.7762],[88.5052,27.7799],[88.4925,27.7799],[88.4907,27.7914],[88.4819,27.809],[88.453,27.8532],[88.4465,27.8536],[88.4384,27.8639],[88.4283,27.8688],[88.4228,27.8681],[88.4198,27.8722],[88.413,27.8719],[88.4057,27.8769],[88.3979,27.8788],[88.384,27.8774],[88.371,27.8823],[88.3619,27.8756],[88.3559,27.8756],[88.3513,27.8724],[88.3478,27.863],[88.3378,27.8648],[88.3259,27.8708],[88.3184,27.8721],[88.3086,27.878],[88.2979,27.8806],[88.2831,27.8946],[88.2764,27.8965],[88.2655,27.9059],[88.2543,27.9068],[88.2464,27.9135],[88.2402,27.9156],[88.2102,27.9172],[88.2007,27.9127],[88.1868,27.9127],[88.1729,27.9077],[88.1651,27.9073],[88.1437,27.9033],[88.1315,27.8983],[88.1399,27.8891],[88.135,27.8816],[88.1401,27.8774],[88.149,27.8764],[88.1547,27.8707],[88.163,27.8693],[88.1747,27.862],[88.179,27.8565],[88.1856,27.8565],[88.1964,27.8538],[88.2018,27.8367],[88.1925,27.833],[88.188,27.8255],[88.1736,27.8206],[88.1741,27.8174],[88.1857,27.8105],[88.1868,27.8023],[88.194,27.7964],[88.1972,27.7912],[88.1953,27.7863],[88.1822,27.7758],[88.1827,27.7634],[88.1779,27.7588],[88.1784,27.7462],[88.1699,27.7411],[88.1585,27.7406],[88.1547,27.73],[88.1554,27.7174],[88.149,27.7081],[88.1476,27.7028],[88.1542,27.6918],[88.1469,27.6793],[88.1446,27.6652],[88.136,27.6566],[88.1321,27.6562],[88.1202,27.6452],[88.1206,27.6384],[88.117,27.6298],[88.1198,27.6276],[88.1129,27.6154],[88.114,27.6111],[88.1062,27.6026],[88.093,27.5979],[88.0844,27.5883],[88.0755,27.5716],[88.0811,27.565],[88.0786,27.5604],[88.0696,27.5555],[88.0688,27.5463],[88.0612,27.5403],[88.0587,27.5348],[88.0663,27.5272],[88.061,27.5249],[88.0581,27.5157],[88.0617,27.513],[88.0551,27.5044],[88.0466,27.5009],[88.0441,27.4781],[88.0571,27.4669],[88.0605,27.4608],[88.0669,27.4579],[88.0672,27.4495],[88.0891,27.4517]]]},"properties":{"id":"khangchendzonga-br","name":"Khangchendzonga Biosphere Reserve","category":"br","area_km2":2620}}]}