{"type":"FeatureCollection","features":[{"type":"Feature","geometry":{"type":"Polygon","coordinates":[[[92.9361,23.1687],[92.9268,23.1642],[92.9257,23.1599],[92.9289,23.1546],[92.9281,23.148],[92.919,23.1353],[92.9347,23.1061],[92.9433,23.1007],[92.9504,23.0984],[92.9584,23.0896],[92.9585,23.0713],[92.9697,23.0734],[92.9846,23.0899],[92.9922,23.0949],[92.9775,23.1068],[92.9663,23.1098],[92.9561,23.1185],[92.9568,23.1288],[92.9591,23.1339],[92.9556,23.1347],[92.9556,23.1576],[92.9527,23.1651],[92.9479,23.1682],[92.9361,23.1687]]]},"properties":{"id":"khawnglung-wls","name":"Khawnglung Wildlife Sanctuary","category":"wls","area_km2":35}}]}