{"type":"FeatureCollection","features":[{"type":"Feature","geometry":{"type":"Polygon","coordinates":[[[76.7469,22.8331],[76.7551,22.8244],[76.76,22.8066],[76.7532,22.7953],[76.7626,22.7911],[76.7736,22.8032],[76.7911,22.81],[76.8007,22.8066],[76.8034,22.8136],[76.8103,22.8165],[76.8153,22.8133],[76.823,22.8219],[76.8327,22.8247],[76.835,22.8165],[76.8453,22.815],[76.8495,22.8167],[76.8437,22.8197],[76.8368,22.8272],[76.8434,22.8266],[76.8508,22.8349],[76.8577,22.8296],[76.8657,22.8206],[76.8707,22.8119],[76.8749,22.8095],[76.8716,22.8041],[76.8805,22.8055],[76.8806,22.8025],[76.8941,22.7993],[76.8987,22.7998],[76.9037,22.8053],[76.8973,22.8122],[76.8927,22.8136],[76.8893,22.8234],[76.8973,22.8256],[76.8979,22.8336],[76.9032,22.8367],[76.9091,22.8437],[76.9104,22.8403],[76.9086,22.8286],[76.9126,22.8213],[76.9188,22.8221],[76.923,22.8169],[76.9293,22.8132],[76.9347,22.8174],[76.9376,22.8238],[76.9373,22.8311],[76.9273,22.8411],[76.9386,22.8389],[76.945,22.8441],[76.9635,22.8468],[76.9714,22.857],[76.9746,22.8663],[76.9701,22.8704],[76.9624,22.8737],[76.9605,22.878],[76.9485,22.8802],[76.9406,22.8771],[76.9362,22.8812],[76.9269,22.8805],[76.921,22.8821],[76.9175,22.8921],[76.9228,22.8962],[76.9173,22.9042],[76.8973,22.9071],[76.8869,22.9001],[76.8858,22.9023],[76.8649,22.8964],[76.8555,22.8848],[76.8455,22.8858],[76.8453,22.8753],[76.8374,22.875],[76.8276,22.8796],[76.8174,22.8721],[76.8114,22.864],[76.8042,22.8681],[76.8031,22.8744],[76.7943,22.8767],[76.7846,22.8732],[76.7848,22.8663],[76.791,22.8646],[76.7981,22.849],[76.7974,22.8408],[76.7913,22.8364],[76.7872,22.8411],[76.7834,22.8342],[76.7777,22.8381],[76.7728,22.8473],[76.7674,22.8483],[76.7719,22.8375],[76.7607,22.8316],[76.7578,22.8328],[76.7592,22.8418],[76.7538,22.843],[76.7469,22.8331]]]},"properties":{"id":"kheoni-wls","name":"Kheoni Wildlife Sanctuary","category":"wls","area_km2":134.8}}]}