{"type":"FeatureCollection","features":[{"type":"Feature","geometry":{"type":"MultiPolygon","coordinates":[[[[70.1242,22.5073],[70.124,22.5134],[70.1187,22.5067],[70.1192,22.5012],[70.1277,22.5023],[70.1242,22.5073]]],[[[70.1899,22.5402],[70.1847,22.5436],[70.183,22.5246],[70.1842,22.5227],[70.1725,22.5264],[70.1717,22.53],[70.1632,22.5273],[70.1488,22.5126],[70.1344,22.5171],[70.1345,22.5109],[70.139,22.5097],[70.1453,22.5116],[70.1464,22.508],[70.1528,22.5103],[70.1539,22.5155],[70.1604,22.524],[70.1653,22.5227],[70.1686,22.5279],[70.1743,22.5184],[70.1813,22.5211],[70.1828,22.5169],[70.1866,22.5185],[70.1923,22.5302],[70.1926,22.5403],[70.1899,22.5402]]]]},"properties":{"id":"khijadiya-wls","name":"Khijadiya Wildlife Sanctuary","category":"wls","area_km2":6.1}}]}