{"type":"FeatureCollection","features":[{"type":"Feature","geometry":{"type":"Polygon","coordinates":[[[70.1737,22.5217],[70.1813,22.5211],[70.1851,22.5261],[70.187,22.5356],[70.1847,22.5436],[70.1762,22.5439],[70.1619,22.5265],[70.151,22.5195],[70.1425,22.5241],[70.1117,22.5181],[70.1017,22.512],[70.1137,22.5084],[70.1325,22.5177],[70.1359,22.5153],[70.1543,22.5157],[70.1604,22.524],[70.1653,22.5227],[70.1692,22.528],[70.1737,22.5217]]]},"properties":{"id":"khijadia-wildlife-sanctuary-ramsar","name":"Khijadia Wildlife Sanctuary","category":"ramsar","area_km2":5.1}}]}