{"type":"FeatureCollection","features":[{"type":"Feature","geometry":{"type":"Polygon","coordinates":[[[77.6095,32.1416],[77.5938,32.1439],[77.5656,32.1544],[77.546,32.163],[77.5341,32.1632],[77.5219,32.1675],[77.5115,32.168],[77.5026,32.165],[77.4892,32.1484],[77.4827,32.1295],[77.4796,32.0966],[77.4803,32.0808],[77.4847,32.071],[77.4917,32.0623],[77.4936,32.0549],[77.4861,32.0444],[77.4824,32.0362],[77.4744,32.0276],[77.4625,32.0208],[77.4562,32.0152],[77.4524,31.9994],[77.4424,31.9988],[77.4425,31.9877],[77.437,31.9821],[77.436,31.9651],[77.4329,31.9569],[77.4325,31.9407],[77.4299,31.921],[77.4374,31.9098],[77.4491,31.9103],[77.4574,31.9133],[77.4598,31.9167],[77.4781,31.9176],[77.4815,31.9124],[77.4868,31.9099],[77.5133,31.9023],[77.5255,31.895],[77.5492,31.8842],[77.5623,31.8771],[77.5684,31.8777],[77.5842,31.8763],[77.5945,31.8775],[77.6064,31.8708],[77.6202,31.8702],[77.6294,31.8729],[77.6442,31.8809],[77.6577,31.8947],[77.6727,31.9058],[77.6763,31.9114],[77.6829,31.9144],[77.6919,31.9288],[77.7012,31.9263],[77.7037,31.9228],[77.7132,31.9199],[77.7193,31.9207],[77.721,31.9286],[77.7274,31.9437],[77.7364,31.9519],[77.7566,31.953],[77.7656,31.9509],[77.7761,31.9511],[77.7749,31.9577],[77.7785,31.9714],[77.782,31.9779],[77.7901,31.9817],[77.7934,31.9871],[77.7918,31.993],[77.7792,32.0017],[77.7749,32.0077],[77.7785,32.0111],[77.7899,32.0164],[77.7911,32.0218],[77.7846,32.0287],[77.774,32.0308],[77.7536,32.0404],[77.7446,32.0527],[77.7411,32.0612],[77.7396,32.0781],[77.7456,32.0886],[77.7177,32.0939],[77.7089,32.1019],[77.707,32.1114],[77.7006,32.1132],[77.6863,32.11],[77.6813,32.1126],[77.6683,32.1076],[77.6647,32.1098],[77.6668,32.1223],[77.659,32.1285],[77.6511,32.1303],[77.6305,32.1323],[77.6271,32.143],[77.6095,32.1416]]]},"properties":{"id":"khirganga-national-park-np","name":"Khirganga National Park","category":"np","area_km2":705}}]}