{"type":"FeatureCollection","features":[{"type":"Feature","geometry":{"type":"Polygon","coordinates":[[[77.0809,31.8838],[77.0884,31.8862],[77.0856,31.8884],[77.0746,31.8874],[77.0594,31.8913],[77.0556,31.8941],[77.0493,31.8927],[77.0338,31.8859],[77.0372,31.8806],[77.0464,31.8738],[77.0479,31.8698],[77.0589,31.8587],[77.0583,31.8516],[77.0547,31.8452],[77.0576,31.838],[77.0636,31.8357],[77.0788,31.8362],[77.0823,31.828],[77.0921,31.8359],[77.0991,31.8383],[77.0966,31.8454],[77.0919,31.8502],[77.1054,31.8562],[77.1139,31.8626],[77.1114,31.8741],[77.1035,31.8656],[77.0918,31.8673],[77.0897,31.8737],[77.0794,31.871],[77.0809,31.8838]]]},"properties":{"id":"khokhan-wls","name":"Khokhan Wildlife Sanctuary","category":"wls","area_km2":14.9}}]}