{"type":"FeatureCollection","features":[{"type":"Feature","geometry":{"type":"Polygon","coordinates":[[[80.4812,17.9631],[80.4969,17.9626],[80.5095,17.9548],[80.5251,17.9469],[80.5365,17.937],[80.5391,17.9129],[80.5371,17.903],[80.5422,17.8888],[80.5402,17.8788],[80.5343,17.8696],[80.5279,17.8676],[80.521,17.8456],[80.5219,17.8383],[80.5291,17.8304],[80.5261,17.8201],[80.5292,17.8124],[80.5239,17.8098],[80.5196,17.8041],[80.5192,17.7962],[80.5161,17.7858],[80.5124,17.7804],[80.5203,17.7797],[80.5191,17.7743],[80.5235,17.7703],[80.5269,17.763],[80.5344,17.7588],[80.5337,17.7533],[80.5224,17.7521],[80.5194,17.7499],[80.5219,17.7419],[80.5206,17.7298],[80.5389,17.7205],[80.5482,17.7146],[80.5512,17.704],[80.5536,17.7006],[80.5531,17.6948],[80.564,17.6885],[80.5692,17.6776],[80.5686,17.6701],[80.5665,17.6753],[80.5624,17.6701],[80.5584,17.6731],[80.555,17.6709],[80.56,17.6618],[80.5656,17.6577],[80.5726,17.6559],[80.5689,17.6606],[80.5731,17.6644],[80.5721,17.6748],[80.5755,17.6759],[80.5801,17.6702],[80.5843,17.6586],[80.5801,17.6547],[80.5836,17.6437],[80.5811,17.6363],[80.5868,17.63],[80.6017,17.6302],[80.5977,17.6346],[80.6017,17.642],[80.6073,17.6365],[80.6118,17.637],[80.613,17.6424],[80.6109,17.6544],[80.6212,17.6604],[80.6182,17.6629],[80.6199,17.6764],[80.6182,17.681],[80.6145,17.6815],[80.614,17.6917],[80.6037,17.6991],[80.6028,17.7051],[80.5912,17.7013],[80.5887,17.7103],[80.5925,17.7216],[80.5929,17.7184],[80.5986,17.7206],[80.5883,17.7266],[80.5804,17.7265],[80.5761,17.7228],[80.5763,17.7116],[80.5698,17.7109],[80.5622,17.7145],[80.5624,17.7288],[80.566,17.7291],[80.5673,17.7389],[80.5513,17.7454],[80.5503,17.749],[80.5557,17.7566],[80.555,17.7606],[80.5479,17.7635],[80.5418,17.7703],[80.5425,17.7745],[80.5524,17.7843],[80.5589,17.7887],[80.5577,17.7958],[80.5644,17.8001],[80.564,17.8057],[80.5748,17.802],[80.5812,17.8054],[80.5886,17.8134],[80.5939,17.8216],[80.594,17.8345],[80.5972,17.8381],[80.6138,17.8367],[80.6192,17.8302],[80.6121,17.8264],[80.6129,17.8131],[80.6178,17.813],[80.6206,17.823],[80.6241,17.8286],[80.6309,17.8295],[80.6321,17.8265],[80.6285,17.8194],[80.6288,17.8149],[80.6366,17.8105],[80.6458,17.815],[80.6494,17.8148],[80.6397,17.8041],[80.631,17.7972],[80.6232,17.7868],[80.6126,17.7764],[80.6055,17.7644],[80.6047,17.7576],[80.6103,17.7562],[80.6189,17.7652],[80.6285,17.7632],[80.6477,17.7413],[80.6532,17.7407],[80.6567,17.7513],[80.6512,17.7642],[80.6539,17.7729],[80.6464,17.7784],[80.6373,17.7782],[80.6383,17.7878],[80.6422,17.7939],[80.6585,17.8144],[80.6701,17.8259],[80.6735,17.8272],[80.6854,17.8272],[80.6922,17.8217],[80.6971,17.8063],[80.6978,17.7947],[80.6939,17.7811],[80.6818,17.7547],[80.6732,17.7373],[80.6597,17.7272],[80.6579,17.7227],[80.6589,17.7149],[80.6643,17.7105],[80.6757,17.7087],[80.684,17.7238],[80.6862,17.7257],[80.6989,17.719],[80.7063,17.7274],[80.7113,17.7247],[80.7156,17.7133],[80.7091,17.7023],[80.7119,17.6902],[80.7175,17.6867],[80.7232,17.689],[80.7236,17.6986],[80.7282,17.7105],[80.7533,17.7538],[80.7521,17.7588],[80.7434,17.7614],[80.7293,17.7576],[80.7278,17.762],[80.7404,17.7758],[80.7538,17.7871],[80.7659,17.795],[80.7799,17.8024],[80.7833,17.8087],[80.7808,17.8207],[80.7742,17.8333],[80.7641,17.8482],[80.7542,17.8543],[80.7504,17.8597],[80.7559,17.8688],[80.7671,17.8692],[80.7711,17.8621],[80.7732,17.8489],[80.7776,17.8445],[80.785,17.844],[80.7947,17.852],[80.7985,17.8581],[80.8092,17.8952],[80.8031,17.9037],[80.7831,17.911],[80.7793,17.9148],[80.7778,17.9289],[80.7711,17.9316],[80.759,17.9283],[80.7455,17.928],[80.7392,17.9319],[80.7382,17.9365],[80.7394,17.9495],[80.736,17.9531],[80.7196,17.9593],[80.712,17.9632],[80.7116,17.9681],[80.715,17.9725],[80.7076,17.9757],[80.7057,17.9801],[80.7158,17.9835],[80.7246,17.9898],[80.7322,17.9875],[80.7445,17.9891],[80.7478,17.998],[80.7464,18.0021],[80.7369,18.0057],[80.6915,17.9997],[80.667,17.998],[80.642,18.0003],[80.6228,18],[80.6147,17.9962],[80.6076,17.9971],[80.6044,17.9916],[80.6116,17.9851],[80.6097,17.9678],[80.6148,17.9623],[80.615,17.958],[80.608,17.9535],[80.5995,17.9513],[80.5905,17.9545],[80.581,17.9625],[80.5718,17.966],[80.5696,17.9708],[80.5815,17.9822],[80.5806,17.9907],[80.5743,17.9932],[80.5606,17.9957],[80.5365,18.01],[80.5302,18.0127],[80.5196,18.0109],[80.5104,18.0113],[80.4825,18.0266],[80.4604,18.036],[80.4513,18.044],[80.4357,18.0514],[80.429,18.0482],[80.4289,18.0375],[80.4268,18.0321],[80.419,18.0315],[80.4077,18.0395],[80.4043,18.0384],[80.4045,18.033],[80.4011,18.0313],[80.3861,18.0335],[80.383,18.0317],[80.3823,18.0209],[80.3764,18.0192],[80.376,18.0281],[80.3697,18.0308],[80.3644,18.0266],[80.3574,18.0162],[80.3572,18.0026],[80.3659,17.9883],[80.3661,17.9836],[80.372,17.9802],[80.3779,17.9867],[80.3895,17.9861],[80.3931,17.9832],[80.3958,17.9742],[80.4005,17.9688],[80.3931,17.9682],[80.3973,17.9623],[80.4013,17.9491],[80.3832,17.953],[80.3796,17.9462],[80.3851,17.9351],[80.3901,17.9299],[80.395,17.9313],[80.3899,17.94],[80.399,17.9416],[80.4039,17.9369],[80.4173,17.9429],[80.4266,17.9384],[80.4393,17.9279],[80.4427,17.9214],[80.4401,17.9199],[80.4154,17.9339],[80.4106,17.9313],[80.4115,17.9252],[80.4212,17.9093],[80.4279,17.9018],[80.4393,17.9033],[80.4494,17.9013],[80.4475,17.8933],[80.4488,17.8888],[80.4557,17.8877],[80.4604,17.8951],[80.4665,17.8917],[80.4701,17.8935],[80.4667,17.9015],[80.4699,17.9062],[80.4821,17.9024],[80.4884,17.9107],[80.4867,17.9145],[80.4716,17.9254],[80.456,17.9355],[80.4446,17.9382],[80.4425,17.9418],[80.4479,17.9431],[80.4602,17.9375],[80.4654,17.9398],[80.4585,17.9463],[80.4608,17.9525],[80.46,17.9579],[80.4467,17.9662],[80.4323,17.9776],[80.4296,17.9861],[80.4344,17.991],[80.4412,17.9908],[80.4567,17.97],[80.4694,17.9644],[80.4812,17.9631]]]},"properties":{"id":"kinnersani-wls","name":"Kinnersani Wildlife Sanctuary","category":"wls","area_km2":635.4}}]}