{"type":"FeatureCollection","features":[{"type":"Feature","geometry":{"type":"Polygon","coordinates":[[[75.7993,33.4997],[75.8019,33.4944],[75.8143,33.4824],[75.8483,33.4846],[75.8569,33.4818],[75.8663,33.4685],[75.8782,33.4687],[75.8928,33.463],[75.9037,33.4561],[75.9178,33.4443],[75.9317,33.442],[75.9519,33.4449],[75.969,33.4457],[76.0028,33.4633],[76.0183,33.4639],[76.0347,33.4541],[76.0528,33.4528],[76.0648,33.4549],[76.0793,33.4633],[76.091,33.472],[76.1011,33.4768],[76.1057,33.4741],[76.1121,33.4652],[76.1334,33.4649],[76.1468,33.4807],[76.1516,33.5064],[76.1468,33.5248],[76.1306,33.537],[76.1354,33.5528],[76.1567,33.5578],[76.1528,33.5709],[76.1618,33.5802],[76.1769,33.5739],[76.2077,33.5759],[76.2013,33.6108],[76.2002,33.6331],[76.1883,33.6585],[76.184,33.6762],[76.182,33.692],[76.1567,33.692],[76.129,33.6897],[76.0678,33.6749],[76.0094,33.6626],[75.9973,33.6596],[75.9781,33.6567],[75.9576,33.655],[75.9293,33.6316],[75.9083,33.6163],[75.8908,33.6097],[75.8582,33.604],[75.8375,33.6051],[75.8213,33.5887],[75.815,33.5775],[75.8036,33.5638],[75.7955,33.5255],[75.7993,33.4997]]]},"properties":{"id":"kishtwar-np","name":"Kishtwar National Park","category":"np","area_km2":2191.5}}]}