{"type":"FeatureCollection","features":[{"type":"Feature","geometry":{"type":"Polygon","coordinates":[[[80.4266,28.4261],[80.4275,28.4308],[80.4266,28.4465],[80.4242,28.4504],[80.3969,28.452],[80.3942,28.4494],[80.3921,28.4303],[80.3999,28.4175],[80.4058,28.4149],[80.4121,28.4172],[80.4183,28.4159],[80.4192,28.4052],[80.4073,28.3966],[80.3993,28.3966],[80.3963,28.4021],[80.3812,28.4086],[80.3794,28.412],[80.3815,28.4222],[80.3598,28.423],[80.3428,28.4329],[80.3357,28.4329],[80.3265,28.4287],[80.3256,28.4227],[80.3336,28.4157],[80.3405,28.3921],[80.3437,28.3851],[80.358,28.3694],[80.3601,28.361],[80.3714,28.3064],[80.3797,28.2797],[80.3654,28.2496],[80.3663,28.2321],[80.3711,28.2305],[80.445,28.2593],[80.4507,28.2629],[80.4575,28.2726],[80.4744,28.3017],[80.4783,28.3127],[80.4709,28.3331],[80.4685,28.3367],[80.451,28.3472],[80.451,28.3579],[80.4551,28.3631],[80.464,28.3673],[80.4709,28.3731],[80.4712,28.3785],[80.4667,28.3958],[80.4664,28.4091],[80.4531,28.4128],[80.4504,28.4159],[80.4477,28.4261],[80.4435,28.4279],[80.4266,28.4235],[80.4266,28.4261]]]},"properties":{"id":"kishanpur-wls","name":"Kishanpur Wildlife Sanctuary","category":"wls","area_km2":227}}]}