{"type":"FeatureCollection","features":[{"type":"Feature","geometry":{"type":"Polygon","coordinates":[[[77.3617,10.4116],[77.3641,10.4185],[77.3605,10.4261],[77.3515,10.4261],[77.3462,10.4205],[77.3437,10.4137],[77.339,10.4098],[77.3333,10.4096],[77.3229,10.4045],[77.3205,10.4056],[77.3174,10.3862],[77.3176,10.3742],[77.314,10.3671],[77.3174,10.3542],[77.3204,10.3518],[77.3311,10.3514],[77.3368,10.3478],[77.3334,10.3396],[77.3345,10.3271],[77.3304,10.3186],[77.3345,10.3066],[77.3419,10.2989],[77.3434,10.2925],[77.3488,10.2877],[77.3512,10.2826],[77.3522,10.2697],[77.3491,10.2593],[77.3421,10.2594],[77.3318,10.2668],[77.3315,10.2548],[77.3365,10.2484],[77.3438,10.2479],[77.3528,10.2434],[77.365,10.2436],[77.3682,10.2389],[77.3698,10.2303],[77.3656,10.221],[77.3577,10.2182],[77.3563,10.1872],[77.3468,10.1893],[77.3362,10.1836],[77.3242,10.1821],[77.3081,10.1971],[77.3009,10.2118],[77.2887,10.2139],[77.2829,10.2085],[77.2856,10.2044],[77.2834,10.1976],[77.2778,10.1934],[77.2745,10.1849],[77.2751,10.1765],[77.272,10.1659],[77.273,10.1492],[77.2712,10.1423],[77.2745,10.1408],[77.2748,10.1312],[77.268,10.1277],[77.2675,10.1225],[77.2737,10.1265],[77.2898,10.1256],[77.3103,10.1158],[77.3161,10.1292],[77.3286,10.1229],[77.3473,10.1376],[77.3571,10.1269],[77.3799,10.1492],[77.3933,10.1443],[77.3964,10.1332],[77.4093,10.126],[77.4499,10.118],[77.4535,10.1336],[77.4695,10.1412],[77.4744,10.1358],[77.4856,10.1506],[77.4981,10.1497],[77.5088,10.1644],[77.5217,10.1688],[77.5231,10.1764],[77.5311,10.1706],[77.5293,10.1818],[77.536,10.1796],[77.5329,10.1929],[77.5465,10.1895],[77.5495,10.1902],[77.5526,10.1974],[77.5559,10.1985],[77.5588,10.1901],[77.5603,10.1801],[77.5644,10.1779],[77.5642,10.1898],[77.5694,10.1889],[77.5718,10.1829],[77.575,10.1886],[77.5994,10.198],[77.6015,10.2075],[77.6273,10.1929],[77.6306,10.1932],[77.6372,10.2038],[77.6417,10.207],[77.6566,10.1959],[77.6676,10.1903],[77.6704,10.1963],[77.6853,10.2022],[77.6936,10.1985],[77.6963,10.2073],[77.7008,10.2086],[77.7024,10.2149],[77.7064,10.2145],[77.7049,10.2206],[77.7127,10.2235],[77.7181,10.2209],[77.7229,10.2097],[77.7278,10.2061],[77.7378,10.2088],[77.7399,10.213],[77.7339,10.2218],[77.7249,10.23],[77.712,10.2356],[77.7079,10.2387],[77.6934,10.2455],[77.685,10.2528],[77.6703,10.2588],[77.6679,10.2669],[77.6852,10.2711],[77.6999,10.2679],[77.716,10.2671],[77.74,10.2618],[77.7473,10.2625],[77.7502,10.2653],[77.7476,10.2731],[77.7526,10.2751],[77.7583,10.2737],[77.7702,10.2622],[77.7822,10.2588],[77.7876,10.2681],[77.7871,10.2893],[77.7981,10.3017],[77.8069,10.3097],[77.8084,10.319],[77.7975,10.3256],[77.7691,10.3818],[77.7537,10.4007],[77.7193,10.4105],[77.7011,10.4078],[77.6929,10.4095],[77.6744,10.4274],[77.65,10.4223],[77.6314,10.4084],[77.6123,10.3878],[77.6025,10.3826],[77.5953,10.364],[77.5857,10.3526],[77.5776,10.3346],[77.5764,10.312],[77.5612,10.2994],[77.5523,10.2902],[77.5502,10.2793],[77.5448,10.2701],[77.5489,10.2647],[77.5401,10.263],[77.5372,10.2597],[77.539,10.2529],[77.5341,10.2416],[77.5264,10.2337],[77.5184,10.2284],[77.5093,10.2276],[77.5015,10.2251],[77.4979,10.2311],[77.4911,10.2237],[77.4848,10.2195],[77.4883,10.2112],[77.4757,10.2093],[77.4669,10.2099],[77.4648,10.2164],[77.4602,10.2228],[77.4596,10.2314],[77.4676,10.2394],[77.475,10.2383],[77.4736,10.2467],[77.4626,10.2452],[77.4527,10.2574],[77.4462,10.2603],[77.4412,10.2596],[77.4386,10.2672],[77.4418,10.2758],[77.4337,10.2835],[77.4304,10.2944],[77.4264,10.3011],[77.4268,10.3059],[77.4325,10.3099],[77.4379,10.3091],[77.4459,10.3042],[77.464,10.2984],[77.4789,10.3122],[77.4869,10.3161],[77.4911,10.3217],[77.5014,10.3316],[77.5207,10.3393],[77.5284,10.3398],[77.5328,10.347],[77.5277,10.3561],[77.5073,10.3626],[77.494,10.3652],[77.4835,10.3619],[77.4736,10.3524],[77.4704,10.3547],[77.471,10.3663],[77.4689,10.3667],[77.4422,10.3635],[77.4382,10.3702],[77.433,10.3717],[77.4303,10.3759],[77.4241,10.3765],[77.4156,10.3697],[77.4109,10.3728],[77.4126,10.3782],[77.4078,10.3838],[77.4123,10.3986],[77.394,10.3958],[77.391,10.3909],[77.3735,10.3808],[77.3708,10.3738],[77.3669,10.3796],[77.3727,10.395],[77.3652,10.3954],[77.3599,10.3929],[77.3545,10.3948],[77.3552,10.4],[77.3617,10.4116]],[[77.4069,10.3297],[77.4154,10.3318],[77.4274,10.3317],[77.4295,10.3298],[77.4234,10.3178],[77.4164,10.3126],[77.4163,10.3057],[77.4028,10.2854],[77.4034,10.281],[77.4172,10.2848],[77.4227,10.2816],[77.4219,10.2769],[77.4096,10.262],[77.4209,10.2602],[77.4343,10.2639],[77.4364,10.262],[77.4362,10.2535],[77.4289,10.2488],[77.4267,10.2561],[77.4234,10.2572],[77.4199,10.2523],[77.4141,10.2497],[77.411,10.2531],[77.4081,10.2496],[77.3955,10.2526],[77.3922,10.2485],[77.3872,10.2493],[77.386,10.2567],[77.3798,10.2656],[77.3775,10.2721],[77.3804,10.2833],[77.3806,10.2925],[77.3783,10.2978],[77.3806,10.3028],[77.3838,10.318],[77.387,10.326],[77.3928,10.3285],[77.4069,10.3297]],[[77.3694,10.2921],[77.3721,10.2866],[77.3677,10.2775],[77.3639,10.2804],[77.3591,10.2894],[77.3634,10.2955],[77.3694,10.2921]],[[77.6323,10.2848],[77.6294,10.2785],[77.6269,10.2842],[77.6323,10.2848]],[[77.6748,10.3028],[77.6723,10.2941],[77.6683,10.2976],[77.6682,10.3028],[77.6748,10.3028]],[[77.6469,10.3024],[77.6383,10.3112],[77.6418,10.3136],[77.6511,10.3089],[77.6469,10.3024]],[[77.7262,10.351],[77.7255,10.348],[77.7157,10.3425],[77.7139,10.3473],[77.7089,10.3483],[77.7162,10.3538],[77.7262,10.351]],[[77.6984,10.3837],[77.6917,10.3858],[77.698,10.3937],[77.7071,10.3949],[77.7152,10.3856],[77.7045,10.3845],[77.7011,10.3886],[77.6984,10.3837]],[[77.6835,10.4075],[77.6879,10.4024],[77.6872,10.3992],[77.6792,10.3955],[77.6815,10.399],[77.6809,10.4079],[77.6835,10.4075]],[[77.6733,10.4075],[77.6683,10.4112],[77.6728,10.4163],[77.6753,10.4125],[77.6733,10.4075]]]},"properties":{"id":"kodaikanal-wls","name":"Kodaikanal Wildlife Sanctuary","category":"wls","area_km2":609}}]}