{"type":"FeatureCollection","features":[{"type":"Feature","geometry":{"type":"Polygon","coordinates":[[[85.6222,24.5808],[85.6142,24.5813],[85.6094,24.5907],[85.6019,24.5957],[85.5938,24.5944],[85.5807,24.6007],[85.5737,24.5969],[85.568,24.5914],[85.5663,24.5792],[85.5713,24.5754],[85.57,24.5696],[85.5721,24.5622],[85.5678,24.5581],[85.5617,24.5583],[85.5612,24.553],[85.5564,24.558],[85.5449,24.5631],[85.541,24.5623],[85.5457,24.5487],[85.5417,24.5318],[85.5244,24.5201],[85.5202,24.5226],[85.5135,24.5201],[85.5045,24.503],[85.5094,24.5001],[85.5209,24.4978],[85.5241,24.4859],[85.531,24.4761],[85.533,24.4688],[85.5378,24.4613],[85.5519,24.4604],[85.5597,24.4633],[85.5609,24.4668],[85.5652,24.4643],[85.5736,24.4637],[85.5817,24.4688],[85.5923,24.4723],[85.5946,24.4805],[85.5993,24.4881],[85.6076,24.4881],[85.6107,24.4831],[85.6242,24.4806],[85.638,24.4803],[85.6488,24.4864],[85.6585,24.4832],[85.6586,24.4959],[85.6637,24.5016],[85.6598,24.5337],[85.6568,24.5457],[85.6573,24.5626],[85.665,24.5636],[85.668,24.5712],[85.6615,24.5785],[85.6531,24.5758],[85.6329,24.5788],[85.6273,24.5819],[85.6222,24.5808]]]},"properties":{"id":"koderma-wls","name":"Koderma Wildlife Sanctuary","category":"wls","area_km2":177.4}}]}