{"type":"FeatureCollection","features":[{"type":"Feature","geometry":{"type":"Polygon","coordinates":[[[79.8245,21.2287],[79.8158,21.2209],[79.8119,21.2207],[79.8104,21.2282],[79.8046,21.2246],[79.8016,21.2134],[79.804,21.2025],[79.793,21.1934],[79.7851,21.1907],[79.7981,21.1878],[79.7973,21.1745],[79.7856,21.1737],[79.7796,21.1678],[79.7814,21.1736],[79.7689,21.1792],[79.7749,21.1823],[79.7732,21.187],[79.7661,21.1833],[79.7647,21.1866],[79.7704,21.1893],[79.7697,21.1936],[79.7613,21.1985],[79.7637,21.205],[79.7561,21.2054],[79.7587,21.2104],[79.7667,21.2181],[79.7663,21.2232],[79.7588,21.216],[79.7477,21.2183],[79.7485,21.2276],[79.7464,21.2326],[79.7366,21.2335],[79.7286,21.2305],[79.7287,21.2254],[79.7373,21.2197],[79.7383,21.2123],[79.7316,21.2091],[79.7358,21.2018],[79.7437,21.2045],[79.7469,21.2012],[79.7434,21.1936],[79.7377,21.188],[79.7397,21.1864],[79.7449,21.191],[79.7513,21.188],[79.7484,21.1797],[79.7568,21.1782],[79.7462,21.1691],[79.7383,21.171],[79.7311,21.1673],[79.7245,21.1714],[79.7247,21.1638],[79.7173,21.1568],[79.7096,21.1518],[79.7171,21.1518],[79.7137,21.147],[79.7557,21.1561],[79.7566,21.151],[79.7457,21.143],[79.7519,21.1349],[79.7563,21.1371],[79.769,21.1375],[79.7741,21.1275],[79.7886,21.1238],[79.7889,21.1167],[79.7811,21.1068],[79.7822,21.1036],[79.7753,21.1005],[79.7709,21.0903],[79.7758,21.0876],[79.7822,21.089],[79.787,21.0959],[79.7904,21.1043],[79.7873,21.1102],[79.7966,21.1152],[79.8022,21.1237],[79.7983,21.1301],[79.7903,21.1269],[79.7911,21.1344],[79.7993,21.1397],[79.8047,21.1367],[79.8164,21.1425],[79.8201,21.1472],[79.8294,21.1417],[79.8356,21.1414],[79.8464,21.148],[79.8495,21.1646],[79.8458,21.1708],[79.8451,21.1822],[79.8513,21.1873],[79.852,21.1937],[79.856,21.2006],[79.8637,21.1992],[79.8689,21.1903],[79.8676,21.1859],[79.8613,21.1821],[79.8702,21.1738],[79.8623,21.168],[79.8566,21.1688],[79.8568,21.1585],[79.8717,21.1616],[79.8756,21.1524],[79.8894,21.1526],[79.8935,21.148],[79.893,21.1421],[79.8967,21.1443],[79.8989,21.1526],[79.8906,21.1659],[79.876,21.1703],[79.8723,21.1775],[79.8857,21.1866],[79.8873,21.1979],[79.854,21.2185],[79.8245,21.2287]]]},"properties":{"id":"koka-wls","name":"Koka Wildlife Sanctuary","category":"wls","area_km2":100.1}}]}