{"type":"FeatureCollection","features":[{"type":"Feature","geometry":{"type":"Polygon","coordinates":[[[81.2989,16.6231],[81.2951,16.6331],[81.2947,16.6414],[81.2979,16.6491],[81.3011,16.6506],[81.3101,16.6476],[81.3194,16.6491],[81.3209,16.652],[81.3196,16.6617],[81.3154,16.6711],[81.3175,16.6828],[81.3245,16.6914],[81.338,16.697],[81.3465,16.7039],[81.3524,16.7069],[81.3655,16.7103],[81.3721,16.7183],[81.3724,16.7256],[81.37,16.7312],[81.3638,16.734],[81.3531,16.7296],[81.3484,16.7296],[81.342,16.739],[81.3329,16.7344],[81.3248,16.7374],[81.3241,16.7447],[81.3279,16.7488],[81.3265,16.7556],[81.3213,16.7578],[81.3118,16.7577],[81.3013,16.7638],[81.2842,16.7672],[81.2773,16.7622],[81.2657,16.7397],[81.2659,16.7308],[81.2709,16.7274],[81.2809,16.7244],[81.288,16.7189],[81.2886,16.7078],[81.2823,16.6925],[81.2766,16.6815],[81.2692,16.6526],[81.2589,16.6176],[81.2551,16.615],[81.2182,16.6216],[81.2121,16.6254],[81.2089,16.6329],[81.2346,16.646],[81.2433,16.6555],[81.2579,16.6797],[81.2633,16.6848],[81.2673,16.6921],[81.2711,16.7048],[81.2702,16.7135],[81.2642,16.7205],[81.2554,16.7215],[81.2459,16.7185],[81.2357,16.7126],[81.2191,16.6972],[81.197,16.6841],[81.1713,16.6714],[81.1575,16.6577],[81.1365,16.6433],[81.1291,16.6397],[81.1209,16.6333],[81.1164,16.6213],[81.1126,16.6167],[81.0948,16.6138],[81.0917,16.6106],[81.0933,16.6049],[81.0995,16.596],[81.0974,16.5907],[81.0914,16.5855],[81.0746,16.578],[81.067,16.5775],[81.0651,16.5693],[81.0677,16.5655],[81.0777,16.5605],[81.0834,16.5677],[81.0965,16.5666],[81.1154,16.5563],[81.1267,16.5531],[81.1295,16.5424],[81.1377,16.5407],[81.1508,16.5531],[81.1552,16.5654],[81.1773,16.58],[81.1813,16.5873],[81.1844,16.6008],[81.1912,16.6034],[81.2004,16.5895],[81.2034,16.5802],[81.2036,16.5711],[81.2272,16.5675],[81.2329,16.5689],[81.2471,16.5782],[81.2665,16.5892],[81.2661,16.5817],[81.269,16.5795],[81.2964,16.5864],[81.3232,16.5961],[81.342,16.6019],[81.3434,16.6074],[81.3313,16.6119],[81.327,16.6194],[81.3284,16.6281],[81.3263,16.6297],[81.3165,16.6281],[81.307,16.6213],[81.2989,16.6231]]]},"properties":{"id":"kolleru-wls","name":"Kolleru Wildlife Sanctuary","category":"wls","area_km2":308.6}}]}