{"type":"FeatureCollection","features":[{"type":"Feature","geometry":{"type":"Polygon","coordinates":[[[81.4206,16.8001],[81.4155,16.8],[81.4126,16.792],[81.4093,16.7886],[81.3972,16.7885],[81.3872,16.7836],[81.3806,16.7826],[81.3809,16.7865],[81.3745,16.7854],[81.3745,16.7802],[81.3692,16.7805],[81.3687,16.7743],[81.3582,16.7693],[81.3461,16.7708],[81.3481,16.762],[81.3443,16.7624],[81.3436,16.7698],[81.3376,16.7692],[81.338,16.7627],[81.3286,16.7622],[81.3285,16.7578],[81.3238,16.7583],[81.3234,16.7637],[81.3205,16.761],[81.3131,16.7629],[81.3144,16.7656],[81.3049,16.7684],[81.306,16.7725],[81.2948,16.7731],[81.2731,16.7789],[81.2728,16.7763],[81.2586,16.7836],[81.2602,16.7796],[81.2652,16.7782],[81.2612,16.7693],[81.2575,16.7658],[81.2532,16.7689],[81.249,16.7639],[81.2537,16.7587],[81.245,16.7468],[81.2423,16.7479],[81.2401,16.7427],[81.2448,16.74],[81.2412,16.7324],[81.2441,16.7298],[81.2311,16.718],[81.2316,16.7142],[81.2242,16.7125],[81.2234,16.7164],[81.2187,16.7159],[81.2169,16.7204],[81.214,16.7183],[81.2118,16.723],[81.2006,16.7195],[81.2015,16.7144],[81.2049,16.7149],[81.2064,16.7093],[81.2007,16.7064],[81.2001,16.6973],[81.1948,16.6957],[81.1894,16.7021],[81.184,16.701],[81.1914,16.6941],[81.1865,16.6898],[81.1824,16.6937],[81.1826,16.6862],[81.1763,16.687],[81.1709,16.6909],[81.1703,16.6799],[81.1672,16.6721],[81.1599,16.6749],[81.1501,16.6643],[81.1476,16.666],[81.141,16.6595],[81.1377,16.6591],[81.136,16.6667],[81.1314,16.664],[81.1267,16.6668],[81.1215,16.6658],[81.122,16.6614],[81.1267,16.6619],[81.1307,16.6506],[81.1351,16.6524],[81.1362,16.6492],[81.132,16.6467],[81.1272,16.6504],[81.1219,16.6476],[81.1105,16.6516],[81.1012,16.651],[81.0987,16.6544],[81.0934,16.6548],[81.0914,16.6594],[81.0875,16.658],[81.0882,16.6462],[81.0931,16.6422],[81.0973,16.6343],[81.0925,16.63],[81.0721,16.6336],[81.0712,16.631],[81.0769,16.622],[81.0739,16.616],[81.0635,16.6202],[81.0617,16.6148],[81.0538,16.6178],[81.0524,16.6151],[81.0618,16.613],[81.0508,16.6013],[81.0494,16.5921],[81.0534,16.5894],[81.0476,16.5875],[81.0447,16.5836],[81.0335,16.5879],[81.0304,16.5827],[81.0192,16.5873],[81.0154,16.5778],[81.0086,16.5731],[81.0079,16.578],[81.0033,16.579],[80.9934,16.5638],[80.9894,16.5661],[80.9816,16.5559],[80.9815,16.5452],[81.0099,16.5383],[81.0139,16.5109],[81.0236,16.4875],[81.0362,16.4847],[81.0901,16.4493],[81.1845,16.5114],[81.2022,16.5185],[81.218,16.5183],[81.2268,16.5214],[81.2515,16.5224],[81.2138,16.502],[81.191,16.4842],[81.1729,16.468],[81.1652,16.4602],[81.1466,16.439],[81.1566,16.4343],[81.148,16.424],[81.1521,16.4213],[81.1783,16.4502],[81.2145,16.4832],[81.2188,16.4905],[81.2304,16.4986],[81.2714,16.5183],[81.2952,16.5113],[81.3143,16.5182],[81.336,16.52],[81.3425,16.5276],[81.3443,16.5426],[81.3476,16.5516],[81.3469,16.5596],[81.349,16.5667],[81.3469,16.5757],[81.3498,16.586],[81.3757,16.5871],[81.4131,16.6302],[81.4235,16.6355],[81.427,16.6442],[81.42,16.6465],[81.4156,16.6679],[81.407,16.6808],[81.4063,16.6847],[81.4112,16.6996],[81.4128,16.712],[81.4182,16.7206],[81.4159,16.7257],[81.4042,16.7302],[81.4042,16.7351],[81.414,16.7494],[81.4117,16.7516],[81.4036,16.7525],[81.4093,16.7684],[81.4099,16.7766],[81.4216,16.7771],[81.4194,16.7863],[81.4148,16.7902],[81.4211,16.7918],[81.4206,16.8001]],[[81.2442,16.5667],[81.226,16.558],[81.2266,16.5563],[81.2051,16.5421],[81.2029,16.5457],[81.1923,16.5392],[81.1915,16.5406],[81.2015,16.5468],[81.1967,16.5516],[81.1891,16.5456],[81.187,16.5478],[81.1987,16.5541],[81.2038,16.5493],[81.2048,16.5557],[81.2138,16.5623],[81.2166,16.5571],[81.2433,16.5689],[81.2442,16.5667]]]},"properties":{"id":"kolleru-lake-ramsar","name":"Kolleru Lake","category":"ramsar","area_km2":901}}]}