{"type":"FeatureCollection","features":[{"type":"Feature","geometry":{"type":"Polygon","coordinates":[[[83.7169,19.9464],[83.7104,19.9536],[83.6906,19.9438],[83.6876,19.9514],[83.6639,19.9465],[83.6102,19.933],[83.6063,19.927],[83.6116,19.9228],[83.6,19.9214],[83.5986,19.9173],[83.6002,19.9089],[83.6052,19.9015],[83.6078,19.8925],[83.6036,19.8894],[83.5955,19.8946],[83.5924,19.8877],[83.5938,19.8829],[83.606,19.8706],[83.6087,19.8654],[83.603,19.864],[83.6034,19.8595],[83.6178,19.8324],[83.6224,19.8146],[83.6343,19.8182],[83.6428,19.8176],[83.6482,19.8099],[83.6396,19.7957],[83.6308,19.794],[83.6357,19.7766],[83.6435,19.771],[83.6553,19.7731],[83.6556,19.7703],[83.6425,19.7524],[83.641,19.7468],[83.6501,19.7403],[83.6574,19.7277],[83.664,19.727],[83.6668,19.7234],[83.6773,19.7178],[83.6764,19.7242],[83.681,19.7245],[83.6879,19.729],[83.6903,19.7367],[83.6896,19.7467],[83.6829,19.7487],[83.6936,19.7616],[83.6936,19.779],[83.7,19.7834],[83.7042,19.7921],[83.705,19.7986],[83.7079,19.8022],[83.7053,19.8081],[83.7108,19.8137],[83.7128,19.8284],[83.7115,19.8322],[83.7162,19.8361],[83.7177,19.8459],[83.7134,19.8509],[83.7036,19.8444],[83.7018,19.8498],[83.7178,19.8557],[83.7127,19.8647],[83.7157,19.8715],[83.719,19.8686],[83.7322,19.8658],[83.7408,19.8602],[83.7593,19.8538],[83.7577,19.8517],[83.7741,19.8425],[83.7926,19.8366],[83.7959,19.8336],[83.8133,19.8248],[83.8211,19.8232],[83.8309,19.8386],[83.8345,19.8376],[83.8339,19.829],[83.8363,19.8251],[83.8463,19.8288],[83.8496,19.8277],[83.8377,19.8142],[83.8504,19.8084],[83.8633,19.8061],[83.8853,19.8118],[83.8881,19.815],[83.9004,19.8157],[83.9151,19.8251],[83.9216,19.8413],[83.9295,19.8416],[83.9398,19.8456],[83.9433,19.8424],[83.9449,19.8341],[83.9411,19.8278],[83.9301,19.8307],[83.9244,19.8284],[83.9222,19.8148],[83.9269,19.8086],[83.9314,19.8091],[83.9398,19.8155],[83.9444,19.8157],[83.9497,19.8079],[83.9466,19.8058],[83.9689,19.8002],[83.9721,19.8016],[83.9747,19.791],[83.9878,19.7749],[83.9931,19.7745],[84.0009,19.7791],[84.0039,19.7841],[84.0006,19.7916],[83.9986,19.8033],[83.9898,19.8064],[83.99,19.816],[83.9852,19.8182],[83.9744,19.8101],[83.9609,19.8127],[83.9537,19.818],[83.9534,19.8223],[83.961,19.8323],[83.9658,19.8362],[83.986,19.8391],[83.9867,19.8448],[83.9823,19.8501],[83.9866,19.8517],[83.9936,19.8479],[83.9932,19.8568],[83.9884,19.866],[83.9829,19.8707],[83.9646,19.8755],[83.9481,19.8781],[83.9331,19.8721],[83.9177,19.8681],[83.9107,19.8714],[83.9013,19.8677],[83.8933,19.8716],[83.8881,19.8698],[83.8652,19.8741],[83.8578,19.8797],[83.8598,19.8868],[83.8567,19.8887],[83.8614,19.8911],[83.8592,19.899],[83.8552,19.9018],[83.8487,19.8987],[83.8473,19.8946],[83.8356,19.8901],[83.8327,19.8978],[83.8258,19.9032],[83.8187,19.9014],[83.8085,19.9051],[83.7992,19.9029],[83.7943,19.9071],[83.7877,19.908],[83.785,19.9141],[83.7772,19.9129],[83.7764,19.9239],[83.7695,19.93],[83.7644,19.9301],[83.7506,19.9409],[83.7462,19.9486],[83.7404,19.946],[83.7323,19.9508],[83.7232,19.9496],[83.7169,19.9464]]]},"properties":{"id":"kotagarh-wls","name":"Kotagarh Wildlife Sanctuary","category":"wls","area_km2":399.5}}]}