{"type":"FeatureCollection","features":[{"type":"Feature","geometry":{"type":"Polygon","coordinates":[[[75.8703,11.8769],[75.8741,11.8743],[75.8866,11.8707],[75.8971,11.865],[75.9058,11.8634],[75.909,11.8672],[75.9249,11.8722],[75.9358,11.8908],[75.9356,11.8998],[75.9384,11.903],[75.9355,11.9108],[75.9239,11.9202],[75.9168,11.9192],[75.895,11.9209],[75.8813,11.926],[75.8812,11.9182],[75.876,11.9117],[75.8797,11.9017],[75.8739,11.8888],[75.8703,11.8769]]]},"properties":{"id":"kottiyoor-wls","name":"Kottiyoor Wildlife Sanctuary","category":"wls","area_km2":30.4}}]}