{"type":"FeatureCollection","features":[{"type":"Feature","geometry":{"type":"Polygon","coordinates":[[[80.8369,15.874],[80.8278,15.8847],[80.8178,15.8732],[80.805,15.8738],[80.7981,15.8654],[80.7906,15.8675],[80.7817,15.8631],[80.7941,15.8536],[80.8065,15.8411],[80.8127,15.8308],[80.8091,15.818],[80.7982,15.8186],[80.7948,15.8153],[80.7972,15.7958],[80.8023,15.7884],[80.8072,15.7705],[80.8107,15.7646],[80.8125,15.752],[80.8062,15.7463],[80.8009,15.7476],[80.7997,15.7537],[80.7925,15.7611],[80.7922,15.7731],[80.788,15.7822],[80.7834,15.7877],[80.7809,15.7961],[80.7724,15.8055],[80.7718,15.7993],[80.7764,15.7847],[80.7855,15.7681],[80.7922,15.7483],[80.7996,15.7389],[80.8123,15.729],[80.8152,15.7224],[80.8265,15.7119],[80.8584,15.7107],[80.8758,15.7127],[80.9178,15.7191],[80.932,15.7236],[80.9338,15.7199],[80.9439,15.7211],[80.9649,15.7328],[80.9687,15.734],[80.9778,15.7414],[80.9986,15.7523],[81.003,15.7517],[81.006,15.7586],[81.0167,15.762],[80.995,15.7725],[80.9792,15.7819],[80.9703,15.7948],[80.9638,15.8011],[80.9428,15.8134],[80.9391,15.8122],[80.921,15.8019],[80.8954,15.7911],[80.8904,15.7868],[80.8862,15.7719],[80.8776,15.7662],[80.8547,15.7613],[80.8405,15.7602],[80.8265,15.7668],[80.8232,15.7665],[80.8241,15.7731],[80.8292,15.7774],[80.8301,15.7845],[80.828,15.7908],[80.8393,15.8117],[80.8467,15.8277],[80.842,15.8354],[80.8327,15.8368],[80.8274,15.8397],[80.828,15.8457],[80.8313,15.8471],[80.8428,15.8448],[80.8476,15.8385],[80.8521,15.8394],[80.8577,15.8771],[80.8406,15.8793],[80.8369,15.874]]]},"properties":{"id":"krishna-wls","name":"Krishna Wildlife Sanctuary","category":"wls","area_km2":194.8}}]}