{"type":"FeatureCollection","features":[{"type":"Feature","geometry":{"type":"Polygon","coordinates":[[[75.3601,13.1817],[75.3491,13.1769],[75.3443,13.17],[75.3358,13.1538],[75.3272,13.1512],[75.3108,13.1531],[75.3013,13.1568],[75.2935,13.1637],[75.2871,13.1742],[75.289,13.1825],[75.2987,13.1915],[75.3058,13.1998],[75.3063,13.2093],[75.298,13.2204],[75.2837,13.2306],[75.2754,13.2399],[75.2709,13.2507],[75.2711,13.2558],[75.2809,13.275],[75.2821,13.2866],[75.2854,13.2949],[75.2911,13.3021],[75.2932,13.3086],[75.2934,13.3172],[75.2911,13.3199],[75.2775,13.3215],[75.2697,13.3275],[75.2559,13.3275],[75.2364,13.3419],[75.2269,13.3525],[75.2236,13.3534],[75.2029,13.3516],[75.1979,13.3544],[75.1967,13.3604],[75.1982,13.3673],[75.2048,13.379],[75.1994,13.386],[75.1921,13.3892],[75.1766,13.3795],[75.1717,13.382],[75.1747,13.3913],[75.1724,13.3969],[75.1703,13.41],[75.1697,13.4247],[75.1644,13.4385],[75.167,13.4482],[75.178,13.4563],[75.1803,13.4598],[75.1668,13.4781],[75.1579,13.4874],[75.1512,13.4858],[75.1478,13.4804],[75.1389,13.4743],[75.1391,13.4641],[75.1438,13.4573],[75.1522,13.4491],[75.1518,13.4417],[75.1473,13.4356],[75.1541,13.4321],[75.148,13.4229],[75.1427,13.4241],[75.1455,13.4194],[75.1436,13.4106],[75.14,13.4063],[75.146,13.3942],[75.1402,13.389],[75.1316,13.3912],[75.1278,13.3864],[75.1281,13.3763],[75.1255,13.3659],[75.1175,13.362],[75.113,13.3564],[75.105,13.3602],[75.0906,13.3586],[75.0806,13.354],[75.0734,13.3565],[75.0487,13.3616],[75.0434,13.3579],[75.0291,13.3557],[75.0217,13.3528],[75.0133,13.3548],[75.0172,13.3428],[75.0288,13.3404],[75.0352,13.3407],[75.0422,13.3442],[75.0452,13.3374],[75.0444,13.3328],[75.0525,13.3327],[75.0539,13.3215],[75.057,13.3143],[75.0623,13.3072],[75.0688,13.3082],[75.0663,13.3002],[75.0722,13.2922],[75.0759,13.2907],[75.0797,13.2973],[75.0807,13.2851],[75.0792,13.2809],[75.0843,13.2768],[75.0858,13.2665],[75.0908,13.2655],[75.0912,13.258],[75.0892,13.2559],[75.0911,13.249],[75.1003,13.2487],[75.1019,13.2425],[75.1083,13.2406],[75.1135,13.2459],[75.1152,13.2433],[75.1242,13.2398],[75.1312,13.2427],[75.1329,13.2351],[75.1312,13.232],[75.1348,13.2263],[75.1387,13.2278],[75.1389,13.2228],[75.133,13.2239],[75.1232,13.2185],[75.1254,13.2089],[75.1235,13.2059],[75.1314,13.1936],[75.1268,13.1874],[75.1275,13.1826],[75.124,13.1793],[75.1208,13.184],[75.1142,13.1854],[75.1134,13.1774],[75.1097,13.1791],[75.1055,13.173],[75.1075,13.1681],[75.1124,13.1651],[75.1352,13.1685],[75.1422,13.1757],[75.152,13.1729],[75.1501,13.1652],[75.1595,13.1625],[75.1643,13.1567],[75.1693,13.1568],[75.171,13.1524],[75.1675,13.1495],[75.1683,13.1397],[75.1631,13.1374],[75.1629,13.1304],[75.1696,13.1159],[75.1747,13.1149],[75.1805,13.1099],[75.1805,13.1059],[75.1929,13.0991],[75.191,13.0933],[75.195,13.0885],[75.2045,13.0889],[75.2092,13.0725],[75.2134,13.0725],[75.2138,13.0824],[75.228,13.0781],[75.2317,13.0822],[75.2354,13.077],[75.2406,13.0783],[75.2468,13.0598],[75.2536,13.0614],[75.2537,13.0563],[75.2596,13.0568],[75.2596,13.0634],[75.2668,13.0621],[75.2715,13.0641],[75.2706,13.0527],[75.2751,13.0525],[75.2747,13.0583],[75.2787,13.0579],[75.2796,13.0537],[75.2861,13.0499],[75.2851,13.0461],[75.2772,13.0484],[75.2761,13.0362],[75.2789,13.0329],[75.2706,13.0276],[75.2775,13.0199],[75.2817,13.0201],[75.2853,13.0368],[75.291,13.0366],[75.2873,13.0313],[75.2888,13.0241],[75.294,13.0216],[75.2993,13.0237],[75.3012,13.0307],[75.2973,13.0382],[75.2947,13.0487],[75.2992,13.0541],[75.2968,13.062],[75.2987,13.0756],[75.3057,13.0758],[75.3122,13.0722],[75.3203,13.0756],[75.3306,13.0715],[75.3408,13.072],[75.3459,13.0756],[75.3471,13.0883],[75.3492,13.0922],[75.3445,13.1076],[75.348,13.1141],[75.3571,13.1245],[75.3622,13.1325],[75.3643,13.1413],[75.3641,13.1635],[75.368,13.1642],[75.375,13.1567],[75.3838,13.1588],[75.3796,13.1483],[75.3841,13.1474],[75.3889,13.1504],[75.3901,13.1406],[75.3869,13.1316],[75.3794,13.132],[75.375,13.1261],[75.3775,13.1159],[75.3878,13.1255],[75.3915,13.1234],[75.3983,13.1255],[75.3996,13.1205],[75.395,13.115],[75.3855,13.1128],[75.3806,13.1082],[75.3841,13.1039],[75.385,13.098],[75.3917,13.0951],[75.3971,13.0866],[75.4043,13.086],[75.4094,13.0934],[75.4124,13.108],[75.408,13.1139],[75.408,13.1375],[75.4071,13.1463],[75.4036,13.156],[75.3987,13.1619],[75.3792,13.1798],[75.3601,13.1817]],[[75.1284,13.3452],[75.1336,13.3484],[75.1288,13.3405],[75.1313,13.3342],[75.138,13.3329],[75.139,13.3288],[75.1449,13.3231],[75.1363,13.3236],[75.1344,13.3306],[75.1304,13.3319],[75.1264,13.3392],[75.1284,13.3452]],[[75.2518,13.2282],[75.2589,13.2237],[75.2567,13.2197],[75.2527,13.2223],[75.2532,13.2136],[75.2443,13.2143],[75.2487,13.2172],[75.2464,13.2209],[75.2518,13.2282]],[[75.285,13.2133],[75.2893,13.2045],[75.2843,13.2009],[75.2825,13.2047],[75.277,13.205],[75.2746,13.2102],[75.2816,13.2067],[75.285,13.2133]],[[75.2509,13.2039],[75.2515,13.1943],[75.2533,13.1987],[75.2579,13.1885],[75.2599,13.1941],[75.26,13.183],[75.2544,13.1768],[75.2543,13.1698],[75.2515,13.1721],[75.2516,13.1798],[75.2491,13.1862],[75.2422,13.1883],[75.2427,13.1929],[75.2324,13.2079],[75.2347,13.2084],[75.2413,13.2016],[75.2451,13.2057],[75.2509,13.2039]],[[75.2463,13.2073],[75.2459,13.2126],[75.2537,13.2131],[75.2549,13.2071],[75.2463,13.2073]]]},"properties":{"id":"kudremukh-np","name":"Kudremukh National Park","category":"np","area_km2":600.6}}]}