{"type":"FeatureCollection","features":[{"type":"Feature","geometry":{"type":"Polygon","coordinates":[[[76.7066,32.5403],[76.6985,32.5468],[76.6926,32.5631],[76.6802,32.5694],[76.6655,32.5727],[76.6398,32.5739],[76.6313,32.575],[76.6229,32.5724],[76.6184,32.5624],[76.6018,32.5514],[76.5799,32.5462],[76.5747,32.5428],[76.5685,32.5341],[76.5676,32.5281],[76.5742,32.5207],[76.588,32.5127],[76.5947,32.5069],[76.5975,32.4995],[76.5975,32.4924],[76.5918,32.4828],[76.592,32.4704],[76.5949,32.4666],[76.6052,32.4687],[76.6141,32.4724],[76.6244,32.4728],[76.6308,32.467],[76.6347,32.4582],[76.6475,32.4602],[76.6562,32.4671],[76.6601,32.464],[76.6528,32.4538],[76.6435,32.4545],[76.6387,32.4522],[76.6175,32.4495],[76.613,32.4471],[76.6061,32.4305],[76.6058,32.4241],[76.6089,32.4202],[76.6265,32.4128],[76.6339,32.4086],[76.6384,32.4004],[76.6424,32.3974],[76.6512,32.3958],[76.6579,32.392],[76.6598,32.3837],[76.6657,32.3815],[76.6769,32.3861],[76.6888,32.3865],[76.6966,32.3775],[76.7019,32.3745],[76.7306,32.3739],[76.7439,32.3637],[76.752,32.3553],[76.7592,32.3577],[76.7737,32.3587],[76.7836,32.3621],[76.7891,32.371],[76.7886,32.385],[76.7863,32.3924],[76.7808,32.4013],[76.7842,32.4055],[76.7981,32.4087],[76.8041,32.4129],[76.8103,32.4217],[76.8122,32.4296],[76.8202,32.4374],[76.8312,32.443],[76.8395,32.4454],[76.854,32.4564],[76.8636,32.4619],[76.859,32.4774],[76.858,32.4908],[76.8613,32.4987],[76.8746,32.5117],[76.8908,32.5227],[76.9079,32.5385],[76.9096,32.5436],[76.9074,32.551],[76.8982,32.5466],[76.8896,32.5446],[76.8799,32.5494],[76.8687,32.546],[76.8635,32.5363],[76.8581,32.5321],[76.8407,32.5253],[76.8338,32.5275],[76.8228,32.5341],[76.8155,32.5355],[76.7982,32.5331],[76.7945,32.5357],[76.7915,32.5454],[76.7798,32.5496],[76.7636,32.5452],[76.7532,32.5526],[76.7458,32.5552],[76.7335,32.549],[76.7125,32.5399],[76.7066,32.5403]]]},"properties":{"id":"kugti-wls","name":"Kugti Wildlife Sanctuary","category":"wls","area_km2":405.5}}]}