{"type":"FeatureCollection","features":[{"type":"Feature","geometry":{"type":"Polygon","coordinates":[[[86.4514,21.345],[86.4599,21.3504],[86.4647,21.3509],[86.464,21.3459],[86.4755,21.3509],[86.4843,21.353],[86.4875,21.3566],[86.4779,21.3633],[86.4789,21.3662],[86.4875,21.3715],[86.4955,21.3708],[86.4943,21.3635],[86.4971,21.3608],[86.5057,21.3614],[86.513,21.3544],[86.5168,21.3625],[86.5301,21.3668],[86.5393,21.3579],[86.5368,21.3522],[86.5403,21.3494],[86.5462,21.3559],[86.5496,21.3563],[86.5516,21.3493],[86.5582,21.3524],[86.5638,21.3449],[86.5712,21.3457],[86.5714,21.3579],[86.5766,21.3571],[86.5735,21.3612],[86.5877,21.3645],[86.5882,21.3571],[86.5926,21.3497],[86.6008,21.3493],[86.6123,21.3571],[86.615,21.351],[86.6206,21.351],[86.6239,21.3567],[86.6217,21.3605],[86.6132,21.3612],[86.6141,21.367],[86.6206,21.3658],[86.6263,21.3732],[86.6338,21.3727],[86.6395,21.3766],[86.6386,21.3839],[86.643,21.3853],[86.6498,21.3923],[86.6553,21.4045],[86.6622,21.4088],[86.6648,21.4132],[86.6678,21.4098],[86.668,21.4016],[86.6736,21.3999],[86.6691,21.384],[86.6683,21.3721],[86.6715,21.3675],[86.668,21.3636],[86.6657,21.3511],[86.6711,21.3498],[86.6787,21.3621],[86.686,21.367],[86.6924,21.3622],[86.6966,21.3619],[86.6943,21.3662],[86.6997,21.3747],[86.6991,21.3794],[86.7029,21.3835],[86.6913,21.3793],[86.6904,21.3855],[86.698,21.3926],[86.7053,21.3934],[86.7066,21.4042],[86.7085,21.4006],[86.7177,21.4001],[86.724,21.41],[86.7283,21.411],[86.7376,21.4197],[86.7384,21.4248],[86.7361,21.432],[86.7428,21.4364],[86.7477,21.4491],[86.7411,21.4508],[86.7293,21.4477],[86.725,21.4504],[86.7186,21.4501],[86.7092,21.4523],[86.7035,21.4554],[86.6994,21.4522],[86.6941,21.4534],[86.6976,21.4571],[86.6984,21.4652],[86.7026,21.4686],[86.6971,21.4779],[86.7034,21.48],[86.7048,21.484],[86.6932,21.4815],[86.6953,21.4771],[86.6894,21.4727],[86.6808,21.4703],[86.6626,21.4701],[86.6591,21.4742],[86.6599,21.4828],[86.6508,21.4872],[86.6489,21.4786],[86.6402,21.478],[86.629,21.4656],[86.6179,21.4609],[86.6117,21.4653],[86.6151,21.4761],[86.6075,21.4832],[86.6005,21.4847],[86.5959,21.4766],[86.59,21.4734],[86.5814,21.4778],[86.58,21.4877],[86.5774,21.4908],[86.5666,21.4906],[86.5355,21.4331],[86.5311,21.4291],[86.5242,21.4174],[86.5166,21.3969],[86.5122,21.3902],[86.4784,21.3838],[86.4659,21.3794],[86.4541,21.3772],[86.448,21.3648],[86.4289,21.3581],[86.4256,21.3559],[86.4197,21.3462],[86.4123,21.3388],[86.4039,21.3266],[86.4036,21.3185],[86.4129,21.3172],[86.4191,21.3205],[86.4188,21.3302],[86.4244,21.3316],[86.4307,21.3282],[86.4351,21.336],[86.4514,21.345]]]},"properties":{"id":"kuldiha-wls","name":"Kuldiha Wildlife Sanctuary","category":"wls","area_km2":272.8}}]}