{"type":"FeatureCollection","features":[{"type":"Feature","geometry":{"type":"Polygon","coordinates":[[[73.7275,25.4214],[73.7224,25.4171],[73.7268,25.4137],[73.7236,25.4107],[73.7131,25.4062],[73.7085,25.4018],[73.6993,25.4001],[73.6875,25.3919],[73.6812,25.3839],[73.6818,25.3728],[73.673,25.3675],[73.6505,25.3671],[73.6421,25.3563],[73.6489,25.3454],[73.6428,25.3432],[73.634,25.3462],[73.6288,25.3387],[73.6274,25.3304],[73.6198,25.3249],[73.6098,25.3275],[73.6053,25.3213],[73.6058,25.3127],[73.616,25.3056],[73.5949,25.2761],[73.5951,25.2682],[73.5864,25.2602],[73.5813,25.2515],[73.5793,25.2411],[73.5743,25.2325],[73.5655,25.2116],[73.5679,25.2004],[73.5665,25.1938],[73.5628,25.1928],[73.5582,25.1961],[73.5542,25.2031],[73.5369,25.2064],[73.5285,25.2098],[73.52,25.2098],[73.513,25.1979],[73.5078,25.1931],[73.5091,25.1892],[73.5178,25.1855],[73.5191,25.1823],[73.5158,25.1775],[73.5033,25.1749],[73.4984,25.1697],[73.5039,25.1592],[73.4945,25.1592],[73.4859,25.163],[73.4789,25.1557],[73.4737,25.1374],[73.4801,25.1311],[73.4674,25.1298],[73.4613,25.1371],[73.448,25.1368],[73.4423,25.1314],[73.4302,25.1335],[73.4175,25.1315],[73.4153,25.1279],[73.399,25.1194],[73.3949,25.1129],[73.3883,25.1131],[73.388,25.1244],[73.3834,25.1248],[73.3779,25.1292],[73.3767,25.1198],[73.3737,25.1156],[73.3572,25.1148],[73.3348,25.0915],[73.3197,25.0803],[73.3177,25.073],[73.3257,25.0671],[73.3478,25.0623],[73.3653,25.0693],[73.3753,25.0678],[73.3747,25.0651],[73.3587,25.0598],[73.3556,25.0503],[73.3424,25.051],[73.3313,25.0497],[73.3245,25.0504],[73.3203,25.0603],[73.3129,25.0616],[73.2998,25.0574],[73.292,25.0469],[73.2884,25.0455],[73.2769,25.0285],[73.2748,25.0224],[73.2767,25.0144],[73.2846,25.0096],[73.2839,25.0042],[73.2785,24.9978],[73.2666,24.9941],[73.2603,24.9996],[73.2633,25.0126],[73.2693,25.0223],[73.2682,25.0243],[73.2548,25.0279],[73.2501,25.0271],[73.2402,25.0216],[73.2313,25.0126],[73.2252,25.0007],[73.2143,24.9895],[73.2062,24.9764],[73.2042,24.9702],[73.1907,24.9559],[73.181,24.9487],[73.1918,24.9506],[73.1947,24.9475],[73.1991,24.9507],[73.2109,24.9424],[73.2166,24.9432],[73.22,24.9511],[73.2249,24.9507],[73.234,24.9441],[73.2344,24.9382],[73.243,24.9389],[73.2452,24.9425],[73.2526,24.9421],[73.2623,24.9372],[73.2631,24.9317],[73.2757,24.928],[73.2761,24.9253],[73.2853,24.9247],[73.2957,24.914],[73.2941,24.907],[73.2976,24.9041],[73.2985,24.8969],[73.3105,24.8848],[73.3202,24.8949],[73.3255,24.9036],[73.3364,24.9101],[73.3456,24.9125],[73.3523,24.9119],[73.3587,24.9254],[73.3668,24.9252],[73.3729,24.9365],[73.3781,24.9414],[73.3831,24.9581],[73.3794,24.9753],[73.3825,24.9894],[73.3869,24.9948],[73.3839,24.9984],[73.3874,25.0031],[73.399,25.0068],[73.4023,25.0219],[73.4117,25.0311],[73.4258,25.0344],[73.4361,25.0518],[73.4467,25.0549],[73.4728,25.0715],[73.4865,25.0752],[73.4932,25.0736],[73.5107,25.0937],[73.5095,25.1119],[73.5103,25.1182],[73.5173,25.1252],[73.5282,25.124],[73.5316,25.1323],[73.5351,25.1326],[73.5396,25.1274],[73.5466,25.1239],[73.5519,25.1239],[73.5668,25.1318],[73.5757,25.1263],[73.5729,25.116],[73.5773,25.1177],[73.5867,25.1323],[73.5954,25.1349],[73.6007,25.1445],[73.6003,25.1632],[73.6057,25.1738],[73.6136,25.1776],[73.6209,25.1774],[73.6302,25.1727],[73.633,25.1686],[73.6315,25.1497],[73.6385,25.1479],[73.6416,25.1521],[73.647,25.1495],[73.6515,25.1531],[73.6546,25.1508],[73.6543,25.1675],[73.6577,25.1851],[73.6576,25.1924],[73.6514,25.2025],[73.641,25.2225],[73.6406,25.2332],[73.6521,25.2394],[73.6508,25.2478],[73.6556,25.2581],[73.6558,25.2707],[73.6693,25.2953],[73.6644,25.3083],[73.667,25.3209],[73.6814,25.3333],[73.6922,25.3399],[73.7048,25.351],[73.7215,25.3557],[73.7285,25.3666],[73.7375,25.3679],[73.7467,25.36],[73.7521,25.3771],[73.7541,25.3943],[73.7591,25.4034],[73.7583,25.4202],[73.7541,25.4361],[73.7477,25.431],[73.7451,25.4228],[73.7324,25.4238],[73.7275,25.4214]]]},"properties":{"id":"kumbhalgarh-wls","name":"Kumbhalgarh Wildlife Sanctuary","category":"wls","area_km2":608.6}}]}