{"type":"FeatureCollection","features":[{"type":"Feature","geometry":{"type":"Polygon","coordinates":[[[77.1359,25.9007],[77.1298,25.8908],[77.128,25.8834],[77.1311,25.8784],[77.1248,25.8564],[77.1203,25.8459],[77.1175,25.832],[77.1111,25.8192],[77.1084,25.7977],[77.1123,25.7913],[77.114,25.782],[77.1002,25.7697],[77.0981,25.7626],[77.1008,25.7483],[77.1094,25.7397],[77.1148,25.7258],[77.1209,25.7201],[77.1292,25.7053],[77.1263,25.691],[77.1363,25.6903],[77.1388,25.6832],[77.1476,25.6812],[77.1445,25.6756],[77.1517,25.6686],[77.1591,25.6654],[77.1771,25.6682],[77.1818,25.6675],[77.1898,25.6546],[77.1969,25.6504],[77.2046,25.6567],[77.2181,25.6536],[77.2217,25.6431],[77.2214,25.6355],[77.2322,25.6361],[77.2432,25.6338],[77.2497,25.6304],[77.2585,25.6304],[77.2641,25.6363],[77.2525,25.6454],[77.2547,25.6599],[77.2644,25.6712],[77.272,25.6753],[77.2777,25.6752],[77.2851,25.6628],[77.2916,25.6576],[77.3173,25.6486],[77.3324,25.6592],[77.341,25.6749],[77.3365,25.6969],[77.3238,25.7055],[77.3134,25.7069],[77.3055,25.7128],[77.2769,25.7285],[77.2839,25.7422],[77.2774,25.7648],[77.2815,25.775],[77.2739,25.778],[77.2698,25.7821],[77.264,25.7925],[77.2509,25.7958],[77.2438,25.8026],[77.2448,25.8065],[77.2517,25.8138],[77.2455,25.8316],[77.238,25.8356],[77.2324,25.8428],[77.228,25.8527],[77.2196,25.8539],[77.1999,25.8729],[77.1928,25.8782],[77.1893,25.8842],[77.1808,25.8859],[77.1713,25.8855],[77.1618,25.883],[77.1569,25.8858],[77.153,25.8915],[77.1557,25.8967],[77.1521,25.9067],[77.1455,25.9102],[77.1389,25.909],[77.1359,25.9007]]]},"properties":{"id":"kuno-np","name":"Kuno National Park","category":"np","area_km2":748.8}}]}