{"type":"FeatureCollection","features":[{"type":"Feature","geometry":{"type":"Polygon","coordinates":[[[77.2887,10.2139],[77.2556,10.2253],[77.2581,10.2156],[77.2678,10.2055],[77.2678,10.185],[77.2635,10.1668],[77.2558,10.1686],[77.2516,10.1641],[77.2436,10.1615],[77.2457,10.1493],[77.2445,10.1344],[77.2525,10.1253],[77.2676,10.1223],[77.268,10.1277],[77.2748,10.1312],[77.2745,10.1408],[77.2712,10.1423],[77.273,10.1492],[77.272,10.1659],[77.2751,10.1765],[77.2745,10.1849],[77.2778,10.1934],[77.2834,10.1976],[77.2856,10.2044],[77.2829,10.2085],[77.2887,10.2139]]]},"properties":{"id":"kurinjimala-wls","name":"Kurinjimala Wildlife Sanctuary","category":"wls","area_km2":32}}]}