{"type":"FeatureCollection","features":[{"type":"Feature","geometry":{"type":"Polygon","coordinates":[[[86.2639,25.8317],[86.2722,25.8246],[86.2838,25.8271],[86.2856,25.8241],[86.274,25.8128],[86.2719,25.809],[86.2886,25.8032],[86.2912,25.8139],[86.3052,25.8182],[86.3205,25.815],[86.3336,25.8136],[86.3313,25.8316],[86.3272,25.8337],[86.3295,25.8453],[86.3184,25.8575],[86.305,25.883],[86.2847,25.8837],[86.2835,25.8696],[86.2886,25.8672],[86.2945,25.8571],[86.2935,25.8467],[86.2828,25.84],[86.2671,25.8391],[86.2639,25.8317]]]},"properties":{"id":"kusheshwar-sthan-wls","name":"Kusheshwar Sthan Wildlife Sanctuary","category":"wls","area_km2":29.2}}]}