{"type":"FeatureCollection","features":[{"type":"Feature","geometry":{"type":"Polygon","coordinates":[[[88.7698,27.4115],[88.7619,27.4157],[88.7288,27.4208],[88.7097,27.4155],[88.7018,27.4081],[88.7104,27.3967],[88.7102,27.3786],[88.7117,27.3716],[88.7145,27.3698],[88.7258,27.3755],[88.728,27.3783],[88.7324,27.3735],[88.7428,27.3724],[88.7563,27.3761],[88.7687,27.3774],[88.7735,27.3799],[88.7799,27.3919],[88.78,27.4009],[88.7698,27.4115]]]},"properties":{"id":"kyongnosla-alpine-wls","name":"Kyongnosla Alpine Wildlife Sanctuary","category":"wls","area_km2":31}}]}