{"type":"FeatureCollection","features":[{"type":"Feature","geometry":{"type":"Polygon","coordinates":[[[74.1071,34.1933],[74.1064,34.2033],[74.1121,34.2109],[74.111,34.2186],[74.1191,34.2318],[74.1153,34.2405],[74.1033,34.2461],[74.0952,34.2516],[74.09,34.2584],[74.0638,34.2639],[74.0471,34.2593],[74.0409,34.2559],[74.0366,34.2493],[74.0277,34.2461],[74.0102,34.2464],[74.0029,34.2419],[74.006,34.2282],[74.0087,34.2233],[73.999,34.2111],[73.998,34.2049],[74.0007,34.1952],[74.01,34.1838],[74.0216,34.1765],[74.0456,34.1594],[74.0686,34.1518],[74.0841,34.1529],[74.0874,34.1517],[74.0935,34.142],[74.1138,34.1417],[74.1197,34.1577],[74.1149,34.1763],[74.11,34.1846],[74.1071,34.1933]]]},"properties":{"id":"lacchipora-wls","name":"Lacchipora Wildlife Sanctuary","category":"wls","area_km2":37.7}}]}