{"type":"FeatureCollection","features":[{"type":"Feature","geometry":{"type":"Polygon","coordinates":[[[84.408,19.3876],[84.4115,19.3949],[84.4204,19.4029],[84.4182,19.4073],[84.4104,19.4117],[84.3933,19.4181],[84.3794,19.4174],[84.3726,19.4147],[84.3616,19.4036],[84.3544,19.4033],[84.3459,19.3952],[84.337,19.3955],[84.3295,19.3922],[84.3241,19.3855],[84.3186,19.361],[84.3161,19.3571],[84.3185,19.3509],[84.3152,19.3493],[84.314,19.3428],[84.3096,19.3406],[84.3041,19.3246],[84.3011,19.321],[84.2943,19.3195],[84.2877,19.3242],[84.2831,19.3196],[84.2907,19.3156],[84.2958,19.3105],[84.3056,19.308],[84.3071,19.303],[84.3005,19.3021],[84.2886,19.2915],[84.2806,19.2869],[84.2768,19.2751],[84.2825,19.2728],[84.2941,19.2744],[84.2968,19.2713],[84.2937,19.2582],[84.2955,19.2564],[84.3048,19.2561],[84.3078,19.2542],[84.3102,19.2409],[84.3136,19.2356],[84.3199,19.2326],[84.327,19.2264],[84.3411,19.2228],[84.3503,19.2234],[84.3674,19.2304],[84.406,19.2491],[84.4122,19.2545],[84.416,19.2801],[84.4248,19.3039],[84.4261,19.3172],[84.4254,19.3273],[84.4211,19.3324],[84.4086,19.3337],[84.3986,19.3308],[84.3875,19.3303],[84.3833,19.3332],[84.3845,19.3371],[84.3914,19.3395],[84.4148,19.3391],[84.4163,19.3406],[84.4122,19.3479],[84.4032,19.3523],[84.3907,19.3556],[84.3783,19.3567],[84.3651,19.3593],[84.361,19.3678],[84.3673,19.3779],[84.3822,19.3861],[84.3934,19.3847],[84.408,19.3876]]]},"properties":{"id":"lakhari-valley-wls","name":"Lakhari Valley Wildlife Sanctuary","category":"wls","area_km2":185.9}}]}