{"type":"FeatureCollection","features":[{"type":"Feature","geometry":{"type":"Polygon","coordinates":[[[79.5752,26.9119],[79.5765,26.9022],[79.5872,26.896],[79.6012,26.8859],[79.6184,26.8908],[79.6292,26.8956],[79.6614,26.8829],[79.6709,26.8835],[79.6794,26.9008],[79.681,26.9064],[79.6789,26.9132],[79.6708,26.9202],[79.6667,26.9285],[79.6714,26.9436],[79.6635,26.9428],[79.6556,26.9449],[79.6566,26.9475],[79.6507,26.9503],[79.6422,26.9469],[79.6377,26.9488],[79.6329,26.9552],[79.6143,26.9568],[79.6078,26.9518],[79.6007,26.9397],[79.5825,26.9177],[79.5752,26.9119]]]},"properties":{"id":"lakh-bahosi-wls","name":"Lakh Bahosi Wildlife Sanctuary","category":"wls","area_km2":80.2}}]}