{"type":"FeatureCollection","features":[{"type":"Feature","geometry":{"type":"Polygon","coordinates":[[[93.0159,13.6758],[93.0093,13.674],[93.0055,13.6668],[93.0038,13.6707],[92.9978,13.667],[92.993,13.6679],[92.9823,13.6653],[92.9811,13.6581],[92.977,13.6571],[92.9817,13.6526],[92.9874,13.6426],[92.9944,13.6447],[93.0002,13.6493],[93.0034,13.6468],[93.0152,13.6441],[93.0146,13.6391],[93.0239,13.6273],[93.0296,13.6283],[93.0316,13.6344],[93.0249,13.6489],[93.0252,13.66],[93.0188,13.6747],[93.0159,13.6758]]]},"properties":{"id":"landfall-island-wls","name":"Landfall Island Wildlife Sanctuary","category":"wls","area_km2":29.5}}]}