{"type":"FeatureCollection","features":[{"type":"Feature","geometry":{"type":"Polygon","coordinates":[[[79.7309,18.6853],[79.7325,18.6929],[79.7328,18.7059],[79.7316,18.714],[79.7351,18.7201],[79.7348,18.7324],[79.7289,18.7334],[79.7103,18.732],[79.6847,18.7232],[79.6883,18.7162],[79.6888,18.7085],[79.7018,18.699],[79.7052,18.691],[79.7107,18.6876],[79.7055,18.6775],[79.7062,18.6687],[79.7106,18.6538],[79.7168,18.6518],[79.7208,18.6455],[79.7329,18.6412],[79.7415,18.6418],[79.7459,18.6458],[79.7583,18.6468],[79.7575,18.6542],[79.7527,18.6632],[79.7435,18.665],[79.7373,18.6758],[79.7313,18.6799],[79.7309,18.6853]]]},"properties":{"id":"lanja-madugu-sivaram-wls","name":"Lanja Madugu Sivaram Wildlife Sanctuary","category":"wls","area_km2":29.8}}]}