{"type":"FeatureCollection","features":[{"type":"Feature","geometry":{"type":"Polygon","coordinates":[[[84.4759,24.2456],[84.4688,24.2411],[84.4619,24.2336],[84.4751,24.2268],[84.4761,24.2226],[84.473,24.2173],[84.4754,24.2099],[84.4801,24.2045],[84.4871,24.202],[84.501,24.2043],[84.5077,24.1981],[84.5139,24.2027],[84.526,24.2007],[84.5228,24.2052],[84.517,24.205],[84.5147,24.211],[84.5164,24.2174],[84.5115,24.2223],[84.5236,24.2255],[84.5227,24.2113],[84.5264,24.2071],[84.5318,24.2072],[84.5338,24.2039],[84.5413,24.2016],[84.5523,24.2031],[84.5507,24.208],[84.5379,24.2125],[84.5389,24.223],[84.5551,24.2214],[84.558,24.2193],[84.5625,24.2062],[84.5711,24.2081],[84.5788,24.2159],[84.5829,24.2226],[84.5722,24.2255],[84.5734,24.2302],[84.5561,24.2329],[84.5492,24.2323],[84.5358,24.2496],[84.5386,24.2511],[84.5349,24.2551],[84.5302,24.2522],[84.5278,24.2454],[84.5192,24.2479],[84.5085,24.2467],[84.5064,24.2579],[84.4983,24.2593],[84.4976,24.2537],[84.4904,24.2513],[84.4907,24.2479],[84.4759,24.2456]]]},"properties":{"id":"lawalong-wls","name":"Lawalong Wildlife Sanctuary","category":"wls","area_km2":211}}]}