{"type":"FeatureCollection","features":[{"type":"Feature","geometry":{"type":"Polygon","coordinates":[[[92.6519,26.5185],[92.6405,26.5068],[92.6332,26.5056],[92.6331,26.4963],[92.6389,26.4968],[92.6348,26.4917],[92.6366,26.4846],[92.6503,26.4788],[92.6582,26.4789],[92.6639,26.4818],[92.6694,26.4889],[92.6761,26.4919],[92.6827,26.4913],[92.6975,26.487],[92.7117,26.4851],[92.7154,26.489],[92.7285,26.4922],[92.7325,26.4903],[92.7317,26.4863],[92.745,26.4791],[92.7522,26.4771],[92.7629,26.479],[92.7664,26.4924],[92.7721,26.4932],[92.7767,26.5022],[92.7745,26.5045],[92.7865,26.5248],[92.7877,26.5294],[92.7756,26.5245],[92.776,26.5293],[92.7799,26.5324],[92.7883,26.5344],[92.7844,26.5375],[92.7746,26.5343],[92.7688,26.5302],[92.7561,26.5116],[92.7473,26.5063],[92.74,26.506],[92.736,26.5091],[92.7333,26.5164],[92.7279,26.5191],[92.7249,26.5252],[92.7275,26.53],[92.726,26.5361],[92.7155,26.5364],[92.7057,26.531],[92.6939,26.5187],[92.6885,26.5113],[92.6826,26.5102],[92.6759,26.5128],[92.6658,26.5219],[92.6572,26.5215],[92.6519,26.5185]]]},"properties":{"id":"lawkhowa-wls","name":"Lawkhowa Wildlife Sanctuary","category":"wls","area_km2":70.1}}]}