{"type":"FeatureCollection","features":[{"type":"Feature","geometry":{"type":"Polygon","coordinates":[[[93.267,23.7926],[93.2661,23.7969],[93.276,23.8085],[93.2863,23.8143],[93.292,23.8251],[93.2903,23.8344],[93.2913,23.8416],[93.284,23.8529],[93.2837,23.8578],[93.2889,23.8679],[93.2838,23.8712],[93.2688,23.8705],[93.256,23.8681],[93.2452,23.8574],[93.2415,23.8516],[93.2417,23.8361],[93.2376,23.8319],[93.2395,23.8247],[93.2355,23.8216],[93.2314,23.8127],[93.2212,23.8053],[93.212,23.8028],[93.209,23.7887],[93.2099,23.7838],[93.2045,23.7769],[93.2093,23.7696],[93.2073,23.7573],[93.2212,23.7468],[93.2305,23.7461],[93.2389,23.7407],[93.2576,23.742],[93.2694,23.7488],[93.2778,23.7514],[93.2866,23.7607],[93.2845,23.7634],[93.2881,23.7693],[93.2843,23.7757],[93.2772,23.7816],[93.2705,23.783],[93.2667,23.7868],[93.267,23.7926]]]},"properties":{"id":"lengteng-wls","name":"Lengteng Wildlife Sanctuary","category":"wls","area_km2":60}}]}