{"type":"FeatureCollection","features":[{"type":"Feature","geometry":{"type":"Polygon","coordinates":[[[74.1326,34.2115],[74.1319,34.2022],[74.141,34.1891],[74.1444,34.1791],[74.1438,34.1675],[74.1374,34.1587],[74.138,34.1547],[74.1516,34.1508],[74.1648,34.1533],[74.1722,34.1447],[74.1758,34.1432],[74.1843,34.147],[74.1858,34.1539],[74.1909,34.1608],[74.1915,34.1704],[74.1834,34.1848],[74.1873,34.2078],[74.1856,34.2212],[74.1749,34.2264],[74.1727,34.2304],[74.1511,34.234],[74.1489,34.2216],[74.1432,34.2165],[74.1346,34.2175],[74.1326,34.2115]]]},"properties":{"id":"limber-wls","name":"Limber Wildlife Sanctuary","category":"wls","area_km2":21.8}}]}