{"type":"FeatureCollection","features":[{"type":"Feature","geometry":{"type":"Polygon","coordinates":[[[78.1378,31.5431],[78.1345,31.5389],[78.1379,31.5271],[78.1411,31.5272],[78.1459,31.5347],[78.1549,31.5424],[78.1668,31.5444],[78.1726,31.5386],[78.202,31.5315],[78.2193,31.5333],[78.2261,31.5371],[78.2303,31.5508],[78.2475,31.5667],[78.2659,31.5864],[78.2716,31.5883],[78.2842,31.5792],[78.2896,31.5891],[78.2985,31.596],[78.3228,31.6029],[78.3295,31.6034],[78.3487,31.5972],[78.3657,31.5936],[78.3726,31.585],[78.3837,31.5805],[78.4253,31.5817],[78.4351,31.5791],[78.4434,31.5817],[78.4418,31.5945],[78.4357,31.6102],[78.4384,31.6134],[78.4308,31.6254],[78.4305,31.6339],[78.4238,31.6408],[78.4235,31.6452],[78.4015,31.6536],[78.3865,31.6573],[78.3715,31.6549],[78.357,31.6545],[78.3464,31.6578],[78.3389,31.6578],[78.326,31.6657],[78.3033,31.6744],[78.2985,31.6771],[78.2858,31.6937],[78.2803,31.6974],[78.2756,31.7077],[78.2681,31.711],[78.2609,31.7183],[78.2567,31.7268],[78.2564,31.7367],[78.2472,31.7399],[78.2436,31.7449],[78.2365,31.7474],[78.2334,31.745],[78.2201,31.7448],[78.2027,31.7483],[78.1911,31.7479],[78.1771,31.7416],[78.1721,31.7333],[78.1745,31.7208],[78.1747,31.7028],[78.1738,31.685],[78.1773,31.6716],[78.1678,31.6601],[78.1636,31.6508],[78.1674,31.6276],[78.1728,31.6164],[78.1711,31.6131],[78.1728,31.6053],[78.1659,31.5996],[78.1507,31.5967],[78.1467,31.5941],[78.1502,31.5832],[78.1497,31.5641],[78.1378,31.5431]]]},"properties":{"id":"lippa-asrang-wls","name":"Lippa Asrang Wildlife Sanctuary","category":"wls","area_km2":31}}]}