{"type":"FeatureCollection","features":[{"type":"Feature","geometry":{"type":"Polygon","coordinates":[[[93.8592,24.6229],[93.8489,24.6158],[93.8147,24.6131],[93.8099,24.6143],[93.8015,24.6202],[93.7975,24.6201],[93.8011,24.6149],[93.7926,24.6134],[93.7934,24.6099],[93.7852,24.6109],[93.7802,24.609],[93.7771,24.5971],[93.7793,24.5938],[93.775,24.5891],[93.7793,24.5813],[93.7751,24.5819],[93.7737,24.5779],[93.7565,24.5823],[93.7431,24.5803],[93.7468,24.5774],[93.7579,24.5796],[93.7655,24.5775],[93.7735,24.573],[93.7719,24.5674],[93.7649,24.5623],[93.7621,24.5548],[93.7658,24.5491],[93.762,24.5455],[93.7625,24.5387],[93.7574,24.5267],[93.7618,24.5168],[93.7643,24.5007],[93.7723,24.5017],[93.7837,24.5086],[93.7869,24.5053],[93.7864,24.4975],[93.7942,24.4966],[93.8027,24.4907],[93.8023,24.4844],[93.8085,24.4799],[93.8091,24.4861],[93.8151,24.4887],[93.8209,24.4959],[93.8213,24.4994],[93.8278,24.4983],[93.8275,24.4937],[93.8235,24.4915],[93.8243,24.4871],[93.8185,24.4841],[93.8122,24.4758],[93.817,24.4731],[93.8163,24.4683],[93.8186,24.4602],[93.8109,24.4543],[93.8137,24.4488],[93.8108,24.4411],[93.8225,24.4318],[93.8284,24.4358],[93.8398,24.4284],[93.8465,24.4309],[93.8512,24.4244],[93.8607,24.4235],[93.8646,24.4263],[93.8684,24.4168],[93.8742,24.4152],[93.879,24.423],[93.884,24.4273],[93.8908,24.4248],[93.9083,24.4327],[93.9293,24.4563],[93.9323,24.463],[93.9257,24.4732],[93.9349,24.484],[93.9361,24.4888],[93.9338,24.4934],[93.9348,24.5021],[93.9384,24.5127],[93.9359,24.5175],[93.9273,24.5201],[93.9187,24.4948],[93.9176,24.498],[93.9225,24.5159],[93.9206,24.5245],[93.9118,24.5322],[93.9117,24.5431],[93.8993,24.5519],[93.8932,24.553],[93.8774,24.5519],[93.873,24.5484],[93.8694,24.5352],[93.8649,24.5375],[93.8706,24.5529],[93.8767,24.5557],[93.8841,24.5547],[93.8941,24.5578],[93.9023,24.5663],[93.9066,24.5752],[93.9028,24.5926],[93.9074,24.5955],[93.9089,24.6074],[93.9064,24.6093],[93.9001,24.6029],[93.8915,24.5975],[93.8871,24.6059],[93.8842,24.607],[93.881,24.5988],[93.8814,24.6071],[93.877,24.615],[93.8647,24.6191],[93.8634,24.6257],[93.8592,24.6229]]]},"properties":{"id":"loktak-lake-ramsar","name":"Loktak Lake","category":"ramsar","area_km2":266}}]}