{"type":"FeatureCollection","features":[{"type":"Feature","geometry":{"type":"Polygon","coordinates":[[[88.3065,21.6152],[88.3091,21.608],[88.3178,21.6052],[88.3269,21.6132],[88.3396,21.6194],[88.3461,21.6332],[88.3434,21.6376],[88.3505,21.6468],[88.3448,21.6492],[88.3464,21.6546],[88.3437,21.6619],[88.3516,21.6749],[88.3503,21.6805],[88.3434,21.6921],[88.3305,21.7052],[88.3263,21.7069],[88.3106,21.7052],[88.3033,21.7067],[88.3008,21.7029],[88.3113,21.6891],[88.3161,21.6724],[88.3161,21.6627],[88.3139,21.6521],[88.3075,21.6325],[88.3065,21.6152]]]},"properties":{"id":"lothian-island-wls","name":"Lothian Island Wildlife Sanctuary","category":"wls","area_km2":38}}]}