{"type":"FeatureCollection","features":[{"type":"Feature","geometry":{"type":"Polygon","coordinates":[[[74.251,15.4925],[74.2538,15.5018],[74.2603,15.5065],[74.2738,15.5123],[74.2785,15.5175],[74.2781,15.5225],[74.2822,15.5274],[74.2822,15.534],[74.2772,15.547],[74.2652,15.5585],[74.2632,15.5639],[74.2575,15.5619],[74.2492,15.5679],[74.2453,15.5673],[74.2505,15.5774],[74.2487,15.5804],[74.2602,15.5927],[74.26,15.6067],[74.2643,15.6155],[74.2537,15.6268],[74.2482,15.623],[74.2441,15.6262],[74.252,15.6544],[74.2449,15.6583],[74.243,15.6625],[74.2363,15.6686],[74.2284,15.6645],[74.2238,15.669],[74.2151,15.6629],[74.2178,15.6584],[74.2222,15.6569],[74.2174,15.6528],[74.2051,15.6511],[74.2017,15.6564],[74.2026,15.6632],[74.1869,15.6675],[74.1861,15.6746],[74.1909,15.6765],[74.1903,15.6804],[74.181,15.6822],[74.1763,15.6801],[74.1665,15.6688],[74.1644,15.6536],[74.1575,15.6547],[74.1543,15.65],[74.1511,15.6519],[74.1411,15.6512],[74.1355,15.6484],[74.1196,15.6524],[74.113,15.6462],[74.1039,15.645],[74.0982,15.6404],[74.0906,15.6392],[74.0995,15.625],[74.1052,15.6261],[74.1096,15.6226],[74.1025,15.622],[74.1004,15.6183],[74.1041,15.6148],[74.1021,15.6076],[74.1063,15.5934],[74.1188,15.5834],[74.1261,15.5805],[74.1289,15.5824],[74.1326,15.6033],[74.1355,15.6113],[74.1344,15.6146],[74.1268,15.6174],[74.123,15.6314],[74.1243,15.6375],[74.1304,15.6368],[74.1371,15.631],[74.1405,15.6322],[74.1424,15.6377],[74.1498,15.6384],[74.1513,15.633],[74.1454,15.6226],[74.1469,15.6194],[74.1516,15.6209],[74.1624,15.6341],[74.1656,15.6323],[74.1606,15.6095],[74.1582,15.6061],[74.151,15.6055],[74.1471,15.5979],[74.1519,15.5941],[74.1605,15.5948],[74.1671,15.6021],[74.1749,15.6029],[74.1773,15.5961],[74.1755,15.5926],[74.1757,15.5833],[74.1692,15.5724],[74.1718,15.5646],[74.1838,15.5659],[74.1861,15.5695],[74.19,15.5836],[74.196,15.5859],[74.2022,15.5846],[74.2064,15.5784],[74.202,15.571],[74.2042,15.5644],[74.204,15.5549],[74.1974,15.5448],[74.1965,15.5375],[74.1905,15.5317],[74.1807,15.5318],[74.1689,15.5228],[74.1673,15.5181],[74.1713,15.5139],[74.1859,15.5083],[74.1852,15.5025],[74.1799,15.5031],[74.171,15.5073],[74.167,15.5073],[74.1627,15.5031],[74.1618,15.4941],[74.1677,15.4869],[74.174,15.4836],[74.181,15.4945],[74.1871,15.4928],[74.1929,15.4867],[74.1938,15.4822],[74.1866,15.4689],[74.1879,15.461],[74.1907,15.4567],[74.1947,15.4582],[74.199,15.4654],[74.2096,15.4727],[74.2117,15.4758],[74.2172,15.4748],[74.2291,15.4831],[74.251,15.4925]]]},"properties":{"id":"madei-wls","name":"Madei Wildlife Sanctuary","category":"wls","area_km2":208.5}}]}