{"type":"FeatureCollection","features":[{"type":"Feature","geometry":{"type":"Polygon","coordinates":[[[77.673,25.6029],[77.681,25.6102],[77.691,25.6274],[77.6956,25.6298],[77.6978,25.6365],[77.6815,25.6447],[77.6768,25.6447],[77.6657,25.6386],[77.6559,25.6348],[77.6401,25.6335],[77.6324,25.6314],[77.6289,25.6206],[77.6331,25.6081],[77.6331,25.6005],[77.6303,25.5884],[77.6312,25.5798],[77.6351,25.573],[77.6414,25.5669],[77.6389,25.5577],[77.6399,25.5521],[77.6445,25.5469],[77.654,25.5428],[77.6602,25.538],[77.6603,25.5323],[77.6654,25.5246],[77.6701,25.5237],[77.6719,25.5144],[77.6775,25.5061],[77.6777,25.4967],[77.6805,25.4943],[77.6828,25.4852],[77.6879,25.4726],[77.6836,25.4598],[77.6857,25.4515],[77.6815,25.4476],[77.6834,25.4306],[77.6895,25.4299],[77.6961,25.4233],[77.7087,25.4341],[77.7018,25.4398],[77.7093,25.4458],[77.7157,25.4353],[77.7104,25.431],[77.7035,25.4209],[77.696,25.4211],[77.6946,25.414],[77.6868,25.4077],[77.689,25.4001],[77.6814,25.3847],[77.6814,25.3727],[77.6863,25.3476],[77.6947,25.3456],[77.7206,25.365],[77.7294,25.3752],[77.7386,25.3827],[77.7401,25.3899],[77.7363,25.4026],[77.7379,25.4138],[77.7356,25.4153],[77.724,25.4151],[77.7202,25.4266],[77.7296,25.431],[77.7374,25.4278],[77.7406,25.4335],[77.7365,25.4361],[77.7376,25.449],[77.7399,25.449],[77.7431,25.4614],[77.7352,25.4806],[77.7283,25.4878],[77.7465,25.4879],[77.7574,25.4837],[77.7747,25.4836],[77.7752,25.4682],[77.7699,25.4628],[77.7657,25.4512],[77.7659,25.4445],[77.7763,25.4478],[77.7808,25.4523],[77.7855,25.451],[77.7956,25.4428],[77.7995,25.4375],[77.8095,25.4323],[77.8158,25.4321],[77.8172,25.4258],[77.8207,25.4239],[77.8305,25.4284],[77.8346,25.4266],[77.8389,25.4204],[77.848,25.4155],[77.8486,25.4128],[77.8712,25.4095],[77.8791,25.407],[77.8795,25.4041],[77.8908,25.3958],[77.9101,25.3922],[77.9158,25.4018],[77.9215,25.4077],[77.9181,25.409],[77.9081,25.4047],[77.9045,25.4054],[77.8967,25.4143],[77.8944,25.4263],[77.8867,25.4472],[77.8818,25.4506],[77.8821,25.4547],[77.8783,25.4612],[77.8811,25.475],[77.8771,25.476],[77.8721,25.4827],[77.8746,25.4992],[77.8718,25.5158],[77.8664,25.5188],[77.8664,25.5222],[77.8735,25.5287],[77.8717,25.5351],[77.864,25.5338],[77.8614,25.5377],[77.858,25.5325],[77.8535,25.5366],[77.838,25.5344],[77.8333,25.5384],[77.8273,25.5388],[77.8182,25.5437],[77.8211,25.5483],[77.8202,25.5548],[77.8296,25.5621],[77.8259,25.575],[77.8379,25.5848],[77.8457,25.5968],[77.848,25.6067],[77.854,25.6206],[77.8527,25.6254],[77.8463,25.6288],[77.8389,25.6288],[77.8132,25.6258],[77.808,25.6199],[77.7956,25.6187],[77.7878,25.6254],[77.7666,25.6298],[77.7577,25.6396],[77.7515,25.6385],[77.7494,25.6308],[77.7462,25.6284],[77.7509,25.6136],[77.7521,25.6055],[77.7511,25.5949],[77.7544,25.5896],[77.7626,25.5842],[77.7669,25.5777],[77.7696,25.5646],[77.7741,25.5588],[77.7823,25.5535],[77.7776,25.5522],[77.7736,25.5362],[77.7754,25.5235],[77.7762,25.5056],[77.7726,25.4969],[77.7658,25.4912],[77.7491,25.4943],[77.7362,25.4983],[77.7171,25.5004],[77.7096,25.5054],[77.7145,25.5123],[77.7253,25.532],[77.7217,25.5416],[77.714,25.5444],[77.708,25.5489],[77.713,25.5635],[77.7084,25.5712],[77.7133,25.5777],[77.7108,25.5828],[77.7145,25.5929],[77.7142,25.5983],[77.7095,25.5979],[77.7101,25.5902],[77.7033,25.591],[77.6982,25.5994],[77.6979,25.6067],[77.6931,25.6052],[77.6933,25.5946],[77.6956,25.5891],[77.6944,25.5835],[77.6763,25.5841],[77.6764,25.587],[77.6827,25.5936],[77.6814,25.6004],[77.673,25.6029]]]},"properties":{"id":"madhav-np","name":"Madhav National Park","category":"np","area_km2":375.2}}]}