{"type":"FeatureCollection","features":[{"type":"Feature","geometry":{"type":"Polygon","coordinates":[[[88.3905,27.3163],[88.3994,27.3193],[88.4082,27.3269],[88.4135,27.3376],[88.4107,27.3441],[88.411,27.3508],[88.4141,27.3539],[88.4217,27.3548],[88.4242,27.3587],[88.4229,27.365],[88.4135,27.3708],[88.4097,27.3858],[88.4149,27.395],[88.415,27.4047],[88.4206,27.4125],[88.4128,27.4144],[88.4024,27.4038],[88.3865,27.3951],[88.3843,27.3882],[88.3773,27.3835],[88.3763,27.3745],[88.3785,27.3694],[88.3893,27.3626],[88.389,27.3578],[88.3768,27.3561],[88.3611,27.3525],[88.3568,27.3335],[88.3578,27.3307],[88.3666,27.3274],[88.3747,27.319],[88.382,27.3211],[88.3905,27.3163]]]},"properties":{"id":"maenam-wls","name":"Maenam Wildlife Sanctuary","category":"wls","area_km2":35.3}}]}