{"type":"FeatureCollection","features":[{"type":"Feature","geometry":{"type":"MultiPolygon","coordinates":[[[[84.0648,23.5162],[84.0756,23.524],[84.0598,23.5312],[84.0575,23.5216],[84.0529,23.5176],[84.0457,23.5186],[84.0444,23.5091],[84.04,23.5087],[84.0378,23.5028],[84.0324,23.5007],[84.0293,23.5044],[84.0272,23.5128],[84.0152,23.5073],[84.0099,23.4997],[84.0152,23.5],[84.0152,23.4905],[84.0089,23.4893],[84.0094,23.4836],[84.0065,23.4805],[84.0138,23.4757],[84.0099,23.4701],[84.014,23.4691],[84.0189,23.4734],[84.0233,23.4697],[84.02,23.4636],[84.0237,23.4621],[84.0272,23.4668],[84.0301,23.4626],[84.0225,23.4576],[84.018,23.4603],[84.0137,23.4585],[84.0185,23.4508],[84.0115,23.4434],[84.0155,23.442],[84.017,23.4362],[84.0152,23.4245],[84.0048,23.4139],[84.0075,23.4108],[84.0181,23.4069],[84.0227,23.407],[84.0243,23.4145],[84.0323,23.4176],[84.0352,23.4158],[84.0413,23.4183],[84.0376,23.4205],[84.0355,23.4315],[84.0446,23.425],[84.0507,23.4297],[84.0461,23.4336],[84.052,23.4379],[84.0457,23.4407],[84.0375,23.44],[84.0294,23.4451],[84.0353,23.4505],[84.0314,23.4525],[84.0386,23.4572],[84.0391,23.4646],[84.0432,23.4657],[84.0368,23.4736],[84.0391,23.4775],[84.0339,23.4832],[84.0427,23.4783],[84.0489,23.4776],[84.0464,23.4883],[84.0495,23.4922],[84.0615,23.4899],[84.066,23.4854],[84.0705,23.4894],[84.0678,23.4914],[84.0539,23.4956],[84.0528,23.5019],[84.0621,23.5005],[84.0671,23.5029],[84.0623,23.5102],[84.0648,23.5162]]],[[[84.2182,23.4837],[84.2254,23.5039],[84.2212,23.5096],[84.1893,23.5258],[84.1772,23.5184],[84.1769,23.5133],[84.1893,23.5078],[84.1962,23.5032],[84.1933,23.4898],[84.167,23.4982],[84.1586,23.498],[84.1543,23.4946],[84.1627,23.4892],[84.1718,23.487],[84.1722,23.4808],[84.1683,23.4767],[84.1748,23.4751],[84.1789,23.4771],[84.1848,23.4717],[84.1844,23.4665],[84.1909,23.4592],[84.1993,23.457],[84.2054,23.4618],[84.2182,23.4837]]],[[[84.1463,23.5343],[84.1307,23.5361],[84.1207,23.5456],[84.1085,23.5476],[84.1125,23.5398],[84.1184,23.5367],[84.1171,23.5309],[84.1088,23.5311],[84.0958,23.5342],[84.0926,23.5305],[84.1013,23.5308],[84.1125,23.5201],[84.1143,23.5167],[84.1252,23.5119],[84.1327,23.5069],[84.1462,23.5062],[84.1466,23.5118],[84.163,23.5189],[84.1563,23.5251],[84.1551,23.5344],[84.1463,23.5343]]]]},"properties":{"id":"mahauaduar-wls","name":"Mahauaduar Wildlife Sanctuary","category":"wls","area_km2":63.3}}]}