{"type":"FeatureCollection","features":[{"type":"Feature","geometry":{"type":"Polygon","coordinates":[[[78.603,17.3819],[78.5962,17.3869],[78.5851,17.3878],[78.5839,17.3838],[78.5862,17.3773],[78.5912,17.3731],[78.5903,17.3657],[78.5864,17.3588],[78.583,17.3615],[78.5691,17.3608],[78.5678,17.3565],[78.5732,17.3536],[78.574,17.3496],[78.581,17.3496],[78.5843,17.3538],[78.5811,17.3361],[78.5875,17.3342],[78.5887,17.3459],[78.5854,17.3467],[78.5879,17.3577],[78.5919,17.3582],[78.5955,17.3693],[78.6009,17.37],[78.6038,17.3743],[78.6226,17.3697],[78.6175,17.3594],[78.628,17.3571],[78.6304,17.3622],[78.6334,17.3611],[78.631,17.3564],[78.6346,17.3554],[78.6403,17.3647],[78.6465,17.3645],[78.6484,17.3701],[78.6441,17.3712],[78.6399,17.3677],[78.6393,17.3735],[78.6285,17.3821],[78.6136,17.3849],[78.6113,17.3837],[78.6108,17.3761],[78.603,17.3819]]]},"properties":{"id":"mahaveer-harina-vanasthali-np","name":"Mahaveer Harina Vanasthali National Park","category":"np","area_km2":14.6}}]}