{"type":"FeatureCollection","features":[{"type":"Feature","geometry":{"type":"Polygon","coordinates":[[[88.3501,26.9157],[88.3635,26.9057],[88.3653,26.8908],[88.3695,26.8888],[88.3644,26.8837],[88.3666,26.877],[88.3656,26.8708],[88.361,26.8636],[88.3674,26.8549],[88.3682,26.8496],[88.3759,26.8432],[88.3716,26.8381],[88.3515,26.8288],[88.3418,26.8296],[88.3327,26.828],[88.3218,26.8203],[88.3299,26.814],[88.3329,26.8066],[88.3315,26.8023],[88.342,26.797],[88.3526,26.7798],[88.3645,26.778],[88.3678,26.7735],[88.3751,26.7758],[88.3693,26.7834],[88.3622,26.7852],[88.3603,26.7925],[88.3735,26.793],[88.3928,26.7985],[88.3964,26.8065],[88.406,26.8052],[88.4129,26.8066],[88.424,26.8013],[88.4285,26.7969],[88.433,26.8043],[88.429,26.8145],[88.4335,26.8112],[88.4768,26.8094],[88.5244,26.8108],[88.5246,26.8154],[88.517,26.821],[88.5094,26.8293],[88.5028,26.8342],[88.4922,26.8389],[88.4827,26.8463],[88.4706,26.8522],[88.4686,26.8614],[88.4725,26.8672],[88.4742,26.8973],[88.4713,26.9104],[88.472,26.9144],[88.4657,26.9155],[88.4641,26.9196],[88.4562,26.9253],[88.4537,26.9352],[88.4452,26.9376],[88.4378,26.9348],[88.4305,26.9355],[88.4215,26.9326],[88.4154,26.9284],[88.4107,26.9208],[88.4111,26.9058],[88.408,26.8986],[88.4015,26.9007],[88.3856,26.9018],[88.389,26.9096],[88.3852,26.9149],[88.3739,26.9144],[88.3601,26.9177],[88.3501,26.9157]]]},"properties":{"id":"mahananda-wls","name":"Mahananda Wildlife Sanctuary","category":"wls","area_km2":158}}]}