{"type":"FeatureCollection","features":[{"type":"Feature","geometry":{"type":"Polygon","coordinates":[[[92.5437,11.6021],[92.5362,11.6057],[92.5325,11.5956],[92.535,11.5851],[92.5327,11.5709],[92.5358,11.565],[92.5301,11.5549],[92.5385,11.5628],[92.5481,11.561],[92.5541,11.5624],[92.556,11.5676],[92.5656,11.5736],[92.562,11.5808],[92.5637,11.5865],[92.5695,11.5884],[92.5671,11.5928],[92.5561,11.5912],[92.5502,11.5939],[92.5451,11.5923],[92.5473,11.6016],[92.5437,11.6021]]]},"properties":{"id":"mahatma-gandhi-marine-wandoor-np","name":"Mahatma Gandhi Marine (Wandoor) National Park","category":"np","area_km2":281.5}}]}