{"type":"FeatureCollection","features":[{"type":"Feature","geometry":{"type":"Polygon","coordinates":[[[76.9182,31.3095],[76.9207,31.3045],[76.9275,31.3047],[76.9358,31.3017],[76.9403,31.2966],[76.9454,31.2968],[76.9556,31.2918],[76.9526,31.2861],[76.9781,31.2816],[76.9836,31.2785],[76.9796,31.2688],[76.9846,31.2601],[76.9936,31.2554],[77.0062,31.2531],[77.0122,31.256],[77.0186,31.2517],[77.0368,31.2505],[77.0356,31.2563],[77.0383,31.2698],[77.0324,31.2713],[77.0232,31.2779],[77.0201,31.2853],[77.0092,31.2912],[76.9939,31.3021],[76.9737,31.3111],[76.9693,31.3147],[76.9682,31.3211],[76.9626,31.3256],[76.9553,31.3278],[76.9495,31.3326],[76.9417,31.3333],[76.9446,31.3403],[76.9431,31.3453],[76.9367,31.3495],[76.9218,31.3651],[76.9113,31.3616],[76.9001,31.3638],[76.8947,31.3591],[76.8882,31.3588],[76.8926,31.3525],[76.9018,31.3558],[76.9034,31.3484],[76.9116,31.3378],[76.9111,31.3341],[76.9022,31.326],[76.9165,31.3151],[76.9182,31.3095]]]},"properties":{"id":"majathal-wls","name":"Majathal Wildlife Sanctuary","category":"wls","area_km2":30.9}}]}