{"type":"FeatureCollection","features":[{"type":"Feature","geometry":{"type":"Polygon","coordinates":[[[77.4224,11.7638],[77.4271,11.7609],[77.4298,11.7721],[77.4355,11.7836],[77.433,11.7944],[77.4346,11.7988],[77.4393,11.7971],[77.4425,11.8014],[77.4439,11.8091],[77.4408,11.8209],[77.4355,11.8147],[77.4304,11.8117],[77.4238,11.8143],[77.419,11.8112],[77.409,11.8106],[77.4127,11.8192],[77.4104,11.8221],[77.4058,11.8198],[77.3958,11.8189],[77.3849,11.8199],[77.3534,11.807],[77.3462,11.812],[77.3296,11.805],[77.3208,11.8058],[77.3115,11.8109],[77.3119,11.8164],[77.3201,11.8223],[77.3234,11.82],[77.3348,11.8215],[77.3488,11.8286],[77.3619,11.829],[77.3653,11.8305],[77.3888,11.8326],[77.3982,11.8341],[77.4246,11.8321],[77.4361,11.8377],[77.4426,11.8366],[77.4529,11.8461],[77.4526,11.8499],[77.4461,11.8599],[77.4476,11.8695],[77.4542,11.8768],[77.4501,11.8884],[77.4501,11.8935],[77.4624,11.9008],[77.4733,11.8993],[77.477,11.8906],[77.4795,11.8932],[77.4853,11.8871],[77.483,11.8996],[77.4894,11.9065],[77.4885,11.9116],[77.4914,11.9194],[77.4931,11.9312],[77.4928,11.9414],[77.4953,11.9441],[77.5002,11.9401],[77.5036,11.9412],[77.5124,11.9378],[77.5184,11.9382],[77.5281,11.9339],[77.5379,11.9325],[77.545,11.9391],[77.5607,11.9419],[77.5742,11.9367],[77.5857,11.9369],[77.5935,11.9403],[77.6043,11.938],[77.6063,11.9417],[77.6378,11.9485],[77.6426,11.9564],[77.6378,11.9615],[77.63,11.977],[77.6282,11.984],[77.6291,12.0154],[77.6248,12.0178],[77.6289,12.0348],[77.638,12.0542],[77.66,12.0977],[77.6432,12.115],[77.637,12.1191],[77.6357,12.1092],[77.6306,12.0986],[77.621,12.0949],[77.6095,12.0942],[77.5978,12.0986],[77.5897,12.1122],[77.5896,12.1195],[77.5667,12.1197],[77.5498,12.1236],[77.5221,12.1115],[77.5141,12.1129],[77.5061,12.1206],[77.5017,12.1273],[77.5002,12.1173],[77.5128,12.1079],[77.5146,12.0966],[77.5001,12.0874],[77.488,12.0833],[77.4736,12.0837],[77.4604,12.0797],[77.4592,12.071],[77.4543,12.0547],[77.4463,12.0434],[77.4372,12.0279],[77.426,12.0214],[77.4247,12.0112],[77.4196,11.9978],[77.4077,11.9887],[77.3947,11.984],[77.3882,11.9836],[77.3858,11.9871],[77.3791,11.989],[77.3721,11.9864],[77.3618,11.9856],[77.3372,11.9889],[77.3306,11.9918],[77.3193,11.9869],[77.3156,11.9871],[77.315,11.9941],[77.3247,12.0057],[77.3302,12.0055],[77.3324,12.0089],[77.3308,12.0156],[77.3307,12.0305],[77.3345,12.0483],[77.3471,12.0604],[77.3498,12.0711],[77.3578,12.0941],[77.3526,12.0995],[77.3411,12.1004],[77.3348,12.095],[77.3287,12.0925],[77.3229,12.0825],[77.311,12.0802],[77.3084,12.07],[77.3047,12.0645],[77.296,12.059],[77.2904,12.0499],[77.2748,12.0317],[77.2708,12.0121],[77.2782,11.994],[77.2697,11.9906],[77.2655,11.9909],[77.2617,12.001],[77.2559,11.9985],[77.255,11.9908],[77.2556,11.9719],[77.2573,11.9584],[77.2616,11.957],[77.2616,11.953],[77.266,11.9263],[77.2752,11.9317],[77.2818,11.9336],[77.2925,11.9344],[77.2985,11.9186],[77.2991,11.9113],[77.2979,11.8818],[77.2932,11.8742],[77.2703,11.826],[77.2875,11.8196],[77.2919,11.8081],[77.2937,11.809],[77.3126,11.7935],[77.3274,11.7756],[77.3348,11.7714],[77.3498,11.7754],[77.3599,11.7799],[77.3647,11.7903],[77.3691,11.7869],[77.3879,11.7885],[77.3953,11.7862],[77.4136,11.7748],[77.4221,11.7724],[77.4224,11.7638]],[[77.5459,12.1019],[77.5493,12.114],[77.5499,12.1232],[77.558,12.1203],[77.5557,12.1163],[77.5592,12.1097],[77.5564,12.1063],[77.5508,12.1061],[77.5459,12.1019]],[[77.5038,12.0682],[77.5113,12.0689],[77.5183,12.0658],[77.5139,12.0581],[77.5072,12.0563],[77.4956,12.0598],[77.4992,12.0675],[77.5038,12.0682]],[[77.531,12.0586],[77.5324,12.0606],[77.5412,12.0587],[77.5364,12.0481],[77.5288,12.0503],[77.531,12.0586]],[[77.5255,12.0548],[77.5251,12.0461],[77.5199,12.0491],[77.522,12.0561],[77.5255,12.0548]],[[77.5003,12.0546],[77.5085,12.0518],[77.5066,12.044],[77.5089,12.0435],[77.5067,12.0371],[77.4927,12.041],[77.4988,12.0549],[77.5003,12.0546]],[[77.4972,12.022],[77.5017,12.0339],[77.5118,12.0294],[77.516,12.0161],[77.5064,11.9951],[77.4971,11.9786],[77.4839,11.9723],[77.4742,11.9622],[77.4606,11.9734],[77.4825,11.9966],[77.4879,12.0145],[77.4949,12.0152],[77.4972,12.022]],[[77.5473,12.0254],[77.5461,12.0329],[77.5519,12.0298],[77.5512,12.0254],[77.5473,12.0254]],[[77.5504,12.0032],[77.5563,12.0045],[77.5564,11.9983],[77.5537,11.9946],[77.5491,11.9973],[77.5504,12.0032]],[[77.542,11.9999],[77.5391,11.9903],[77.5348,11.9909],[77.5385,12.0001],[77.542,11.9999]],[[77.5256,11.9696],[77.5295,11.9788],[77.5332,11.968],[77.5276,11.9617],[77.5256,11.9696]],[[77.351,11.9596],[77.3593,11.9531],[77.3636,11.9556],[77.3651,11.9505],[77.3532,11.9349],[77.3459,11.9172],[77.3479,11.909],[77.3429,11.897],[77.3342,11.8967],[77.3332,11.9022],[77.3354,11.907],[77.337,11.9221],[77.3355,11.9312],[77.3398,11.9443],[77.3429,11.946],[77.3463,11.9605],[77.351,11.9596]],[[77.3178,12.0357],[77.3158,12.0188],[77.3066,12.0188],[77.3088,12.0337],[77.3178,12.0357]]]},"properties":{"id":"malaimahadeswara-wls","name":"Malaimahadeswara Wildlife Sanctuary","category":"wls","area_km2":906.2}}]}