{"type":"FeatureCollection","features":[{"type":"Feature","geometry":{"type":"Polygon","coordinates":[[[75.958,11.6313],[75.9477,11.6348],[75.9369,11.6307],[75.9346,11.626],[75.9255,11.6243],[75.9249,11.6195],[75.9201,11.6118],[75.9186,11.5731],[75.9225,11.5545],[75.9345,11.548],[75.9394,11.5381],[75.9414,11.5407],[75.9579,11.5331],[75.9601,11.5352],[75.9688,11.5359],[75.9744,11.5332],[75.9883,11.539],[75.9962,11.5358],[75.9995,11.5273],[76.0087,11.5268],[76.0038,11.5385],[76.0048,11.541],[75.9982,11.5517],[75.9946,11.5666],[76.0002,11.5722],[75.9947,11.5814],[75.9928,11.5911],[75.9849,11.5924],[75.9813,11.5953],[75.9841,11.6037],[75.9796,11.6085],[75.9812,11.6167],[75.9898,11.6216],[75.989,11.6252],[75.9718,11.6379],[75.9672,11.639],[75.9633,11.6311],[75.958,11.6313]]]},"properties":{"id":"malabar-wls","name":"Malabar Wildlife Sanctuary","category":"wls","area_km2":74.2}}]}