{"type":"FeatureCollection","features":[{"type":"Feature","geometry":{"type":"Polygon","coordinates":[[[73.5269,16.0111],[73.5435,16.0076],[73.5558,16.0076],[73.5581,16.0108],[73.5573,16.0186],[73.5216,16.019],[73.5118,16.0243],[73.5028,16.0177],[73.4959,16.0198],[73.4936,16.0251],[73.4938,16.0376],[73.4889,16.0487],[73.4841,16.0541],[73.471,16.0547],[73.4668,16.053],[73.4673,16.048],[73.459,16.0454],[73.4572,16.0402],[73.4606,16.0383],[73.4617,16.0427],[73.468,16.0458],[73.4796,16.0392],[73.4826,16.034],[73.4895,16.0113],[73.4889,15.9906],[73.4908,15.9843],[73.5018,15.9668],[73.509,15.9675],[73.5106,15.9713],[73.5096,15.9789],[73.5115,15.9869],[73.5051,15.99],[73.5023,15.9999],[73.5174,16.0098],[73.5269,16.0111]]]},"properties":{"id":"malvan-marine-wls","name":"Malvan Marine Wildlife Sanctuary","category":"wls","area_km2":29.1}}]}