{"type":"FeatureCollection","features":[{"type":"Feature","geometry":{"type":"Polygon","coordinates":[[[91.1433,26.8115],[91.0976,26.822],[91.0541,26.781],[90.9919,26.7906],[90.9593,26.7845],[90.9565,26.7877],[90.8685,26.7801],[90.8164,26.776],[90.7424,26.7748],[90.7173,26.7683],[90.6932,26.7707],[90.676,26.7841],[90.6465,26.7767],[90.6344,26.7938],[90.5846,26.8037],[90.5457,26.8172],[90.5488,26.7912],[90.556,26.7797],[90.5909,26.7632],[90.5916,26.7409],[90.5809,26.7205],[90.5831,26.6918],[90.5841,26.6877],[90.5817,26.673],[90.5985,26.6669],[90.598,26.6535],[90.604,26.6514],[90.6476,26.6514],[90.817,26.6417],[90.8412,26.6409],[90.8462,26.6382],[90.8492,26.6175],[90.8486,26.605],[90.8525,26.5992],[90.8649,26.5949],[90.8733,26.5973],[90.8831,26.613],[90.8976,26.6252],[90.9042,26.6265],[90.9615,26.622],[90.9707,26.6236],[90.9746,26.6284],[90.976,26.651],[90.9982,26.652],[91.024,26.6544],[91.0244,26.6585],[91.0445,26.6711],[91.0658,26.6695],[91.0908,26.696],[91.1031,26.7069],[91.1417,26.698],[91.1432,26.7149],[91.1539,26.7414],[91.1613,26.742],[91.1628,26.7467],[91.175,26.7621],[91.2175,26.7579],[91.2406,26.7536],[91.2454,26.751],[91.2659,26.7462],[91.2798,26.7443],[91.2818,26.7562],[91.3145,26.758],[91.3122,26.7846],[91.2966,26.787],[91.2771,26.8003],[91.2369,26.812],[91.1921,26.8134],[91.1459,26.8109],[91.1433,26.8115]]]},"properties":{"id":"manas-np","name":"Manas National Park","category":"np","area_km2":500}}]}