{"type":"FeatureCollection","features":[{"type":"Feature","geometry":{"type":"Polygon","coordinates":[[[77.1614,32.2427],[77.1671,32.2526],[77.1617,32.2535],[77.1592,32.2586],[77.1509,32.2646],[77.1439,32.2672],[77.1361,32.2666],[77.1273,32.2598],[77.1224,32.2618],[77.1186,32.2675],[77.1114,32.2647],[77.1091,32.2608],[77.1034,32.2645],[77.1035,32.2573],[77.0966,32.2545],[77.0993,32.2426],[77.0971,32.2416],[77.0731,32.2405],[77.082,32.2279],[77.0865,32.2261],[77.0954,32.2273],[77.109,32.2184],[77.1192,32.2186],[77.1297,32.2237],[77.1416,32.2256],[77.1486,32.2232],[77.16,32.2236],[77.1561,32.23],[77.1597,32.2312],[77.1692,32.2275],[77.1838,32.2274],[77.1818,32.2387],[77.176,32.2421],[77.1644,32.2404],[77.1614,32.2427]]]},"properties":{"id":"manali-wls","name":"Manali Wildlife Sanctuary","category":"wls","area_km2":29}}]}