{"type":"FeatureCollection","features":[{"type":"Feature","geometry":{"type":"Polygon","coordinates":[[[78.0072,17.6909],[78.015,17.6899],[78.0252,17.6851],[78.0302,17.6744],[78.0291,17.667],[78.0237,17.6655],[78.0382,17.6589],[78.0321,17.6527],[78.0221,17.6516],[78.032,17.6498],[78.0316,17.645],[78.0367,17.6463],[78.0379,17.6513],[78.0419,17.6507],[78.0491,17.654],[78.046,17.6438],[78.0489,17.6404],[78.0543,17.6483],[78.0623,17.6447],[78.0617,17.6497],[78.0545,17.6534],[78.0565,17.6568],[78.0638,17.6538],[78.0661,17.6567],[78.0723,17.6524],[78.0776,17.6576],[78.0785,17.663],[78.0766,17.6717],[78.0781,17.6758],[78.0875,17.6789],[78.0856,17.6908],[78.0772,17.6845],[78.0717,17.6855],[78.0714,17.6791],[78.0653,17.6747],[78.0611,17.6863],[78.0542,17.6842],[78.0568,17.6745],[78.0607,17.6661],[78.0569,17.6645],[78.051,17.6671],[78.05,17.6724],[78.0375,17.6796],[78.0361,17.6858],[78.0307,17.6899],[78.0086,17.6944],[77.9954,17.699],[77.9972,17.7078],[77.9966,17.7141],[77.9933,17.7176],[77.9799,17.7224],[77.9718,17.7182],[77.961,17.7191],[77.9508,17.7122],[77.9395,17.716],[77.9375,17.7231],[77.9385,17.7318],[77.9349,17.7427],[77.9301,17.7506],[77.9267,17.7488],[77.9335,17.7423],[77.9369,17.733],[77.936,17.722],[77.9383,17.7149],[77.9473,17.7117],[77.953,17.7114],[77.963,17.7181],[77.9712,17.7164],[77.9775,17.721],[77.9937,17.7156],[77.9956,17.7085],[77.9937,17.702],[77.9954,17.6951],[77.9994,17.692],[78.0072,17.6909]]]},"properties":{"id":"manjira-wls","name":"Manjira Wildlife Sanctuary","category":"wls","area_km2":20}}]}