{"type":"FeatureCollection","features":[{"type":"Feature","geometry":{"type":"MultiPolygon","coordinates":[[[[79.2295,21.5401],[79.2076,21.5447],[79.1965,21.5488],[79.1963,21.5449],[79.1897,21.5464],[79.1825,21.5443],[79.1766,21.5314],[79.1798,21.5249],[79.1759,21.5214],[79.1768,21.5165],[79.1818,21.5128],[79.1882,21.5122],[79.1913,21.5086],[79.1858,21.4989],[79.1799,21.4851],[79.1946,21.4828],[79.1969,21.4845],[79.2046,21.4818],[79.2016,21.4639],[79.2037,21.4553],[79.2113,21.451],[79.215,21.4419],[79.2202,21.4412],[79.2233,21.4496],[79.2324,21.4556],[79.2555,21.4681],[79.2615,21.4761],[79.2775,21.474],[79.2993,21.4734],[79.297,21.467],[79.2985,21.4551],[79.3052,21.4559],[79.3076,21.4654],[79.3197,21.4734],[79.321,21.4777],[79.3191,21.4889],[79.3236,21.4957],[79.3315,21.5139],[79.3279,21.5182],[79.3201,21.5195],[79.3121,21.5165],[79.296,21.5055],[79.285,21.5063],[79.2736,21.5107],[79.2709,21.5139],[79.2673,21.5257],[79.2576,21.5312],[79.2468,21.5398],[79.2295,21.5401]]],[[[79.0852,21.5527],[79.0846,21.5628],[79.0858,21.5802],[79.0896,21.5939],[79.0816,21.5938],[79.0719,21.5861],[79.0634,21.5837],[79.0604,21.5781],[79.0592,21.5645],[79.0446,21.5508],[79.0233,21.547],[78.9974,21.5336],[78.9938,21.5289],[78.9936,21.4965],[79.0108,21.4882],[79.0109,21.4774],[79.0144,21.4625],[79.025,21.4596],[79.0341,21.462],[79.0453,21.4737],[79.0674,21.4646],[79.081,21.473],[79.0947,21.4722],[79.106,21.4695],[79.1052,21.4863],[79.1164,21.4899],[79.1167,21.504],[79.1084,21.5083],[79.1038,21.5144],[79.0868,21.5179],[79.0822,21.5205],[79.0786,21.5288],[79.0856,21.5364],[79.0923,21.5385],[79.1029,21.5387],[79.097,21.5575],[79.0926,21.5531],[79.0852,21.5527]]]]},"properties":{"id":"mansingdeo-wls","name":"Mansinghdeo Wildlife Sanctuary","category":"wls","area_km2":182.6}}]}