{"type":"FeatureCollection","features":[{"type":"Feature","geometry":{"type":"Polygon","coordinates":[[[93.3423,25.7977],[93.3487,25.7963],[93.354,25.8021],[93.3616,25.8072],[93.3749,25.8199],[93.3814,25.8193],[93.3893,25.8231],[93.3936,25.8284],[93.3989,25.8399],[93.3981,25.8474],[93.4048,25.8551],[93.4115,25.8658],[93.4132,25.8739],[93.4107,25.8794],[93.4169,25.8887],[93.4282,25.8959],[93.4367,25.9088],[93.4426,25.9231],[93.4424,25.9349],[93.4396,25.9431],[93.4296,25.9588],[93.4216,25.9665],[93.3995,25.9814],[93.3923,25.9784],[93.3822,25.9806],[93.371,25.9782],[93.3658,25.9739],[93.3529,25.9705],[93.3296,25.97],[93.3329,25.981],[93.3304,25.9891],[93.3134,25.998],[93.311,25.9922],[93.3138,25.9848],[93.3045,25.985],[93.2958,25.9797],[93.2881,25.9812],[93.2924,25.9894],[93.2801,25.9905],[93.268,25.9933],[93.2533,26.0023],[93.2444,26.0004],[93.2365,26.0011],[93.2225,26.0056],[93.2076,26.0174],[93.2035,26.0241],[93.1977,26.0255],[93.1846,26.0134],[93.1856,26.0036],[93.1948,25.9821],[93.1987,25.9647],[93.2042,25.9513],[93.2068,25.9397],[93.2121,25.9323],[93.2075,25.9202],[93.2073,25.9151],[93.2111,25.9086],[93.2318,25.8937],[93.2356,25.887],[93.2297,25.87],[93.2292,25.8633],[93.236,25.8564],[93.2472,25.8221],[93.2454,25.8176],[93.2525,25.7857],[93.2587,25.7837],[93.2648,25.7847],[93.2865,25.7837],[93.2945,25.782],[93.3077,25.7817],[93.3118,25.7758],[93.3207,25.7746],[93.3311,25.7807],[93.3302,25.7889],[93.3423,25.7977]]]},"properties":{"id":"marat-longri-wls","name":"Marat Longri Wildlife Sanctuary","category":"wls","area_km2":451}}]}