{"type":"FeatureCollection","features":[{"type":"Feature","geometry":{"type":"MultiPolygon","coordinates":[[[[69.4967,22.3614],[69.5009,22.3645],[69.5075,22.3634],[69.5142,22.3697],[69.5244,22.3656],[69.5395,22.3686],[69.549,22.3728],[69.5486,22.3773],[69.555,22.3759],[69.5562,22.3803],[69.5543,22.3883],[69.5436,22.3942],[69.5522,22.3975],[69.5524,22.4017],[69.5486,22.4056],[69.5424,22.4067],[69.5341,22.412],[69.5289,22.4234],[69.5284,22.4304],[69.5255,22.438],[69.5181,22.4422],[69.5151,22.4474],[69.5088,22.4496],[69.5024,22.4486],[69.4798,22.4328],[69.4762,22.4292],[69.4775,22.4251],[69.49,22.4218],[69.4955,22.4232],[69.4924,22.4166],[69.4973,22.4103],[69.5015,22.4091],[69.5084,22.4116],[69.511,22.4077],[69.5028,22.4074],[69.5022,22.4025],[69.5078,22.3978],[69.5065,22.3921],[69.5089,22.389],[69.5166,22.3895],[69.5185,22.3815],[69.5098,22.3802],[69.5032,22.3743],[69.4956,22.373],[69.487,22.3689],[69.486,22.3594],[69.4791,22.3471],[69.4806,22.3408],[69.4843,22.3372],[69.4642,22.3304],[69.4538,22.3349],[69.4411,22.3294],[69.4356,22.3222],[69.4247,22.3168],[69.3899,22.3159],[69.3782,22.3202],[69.3682,22.3158],[69.3607,22.3174],[69.3549,22.3217],[69.354,22.3258],[69.3418,22.325],[69.3326,22.3278],[69.3325,22.3219],[69.3376,22.3161],[69.3365,22.3082],[69.3332,22.3038],[69.3256,22.3018],[69.3229,22.2937],[69.3068,22.2868],[69.306,22.2822],[69.3114,22.2795],[69.3197,22.2814],[69.3214,22.2784],[69.328,22.2787],[69.3321,22.2816],[69.3329,22.2895],[69.3386,22.2974],[69.3437,22.2964],[69.3485,22.2988],[69.3585,22.3003],[69.3716,22.2996],[69.376,22.2949],[69.3784,22.2875],[69.4021,22.2869],[69.4145,22.2818],[69.4172,22.2863],[69.4309,22.2952],[69.4563,22.2829],[69.4671,22.2838],[69.4704,22.2925],[69.4784,22.2925],[69.4804,22.3021],[69.4667,22.3074],[69.4593,22.316],[69.4648,22.3165],[69.4666,22.3273],[69.4761,22.3328],[69.4803,22.3334],[69.482,22.3285],[69.4906,22.3228],[69.4925,22.305],[69.5018,22.3086],[69.5065,22.3123],[69.507,22.3178],[69.5019,22.3209],[69.4966,22.3307],[69.4896,22.3378],[69.4882,22.3481],[69.4967,22.3614]]],[[[69.4413,22.3709],[69.4345,22.3747],[69.4345,22.3785],[69.4273,22.3877],[69.4222,22.3901],[69.4155,22.3884],[69.4189,22.3818],[69.4156,22.3739],[69.4151,22.3671],[69.4201,22.3624],[69.4277,22.3632],[69.4191,22.3527],[69.419,22.3495],[69.4244,22.3451],[69.4319,22.3459],[69.4418,22.3427],[69.4554,22.3455],[69.4663,22.3521],[69.4646,22.3572],[69.4517,22.3692],[69.4465,22.3677],[69.4413,22.3709]]],[[[69.3373,22.4015],[69.3321,22.4049],[69.3223,22.4011],[69.319,22.3972],[69.3101,22.3933],[69.3069,22.39],[69.3121,22.3844],[69.3181,22.3838],[69.3327,22.3728],[69.3398,22.3804],[69.3412,22.3891],[69.3361,22.3925],[69.3472,22.395],[69.3532,22.3989],[69.3373,22.4015]]],[[[69.4818,22.3856],[69.4898,22.3894],[69.4901,22.4005],[69.4846,22.4092],[69.4709,22.4207],[69.471,22.4166],[69.4668,22.415],[69.4618,22.4076],[69.457,22.3909],[69.4603,22.3868],[69.4546,22.3843],[69.4535,22.3748],[69.4577,22.3707],[69.4624,22.3738],[69.4689,22.3725],[69.4785,22.3756],[69.4824,22.3787],[69.4782,22.3848],[69.4818,22.3856]]],[[[69.1373,22.4773],[69.1263,22.4758],[69.0971,22.4618],[69.0925,22.4578],[69.0957,22.4457],[69.0955,22.4402],[69.0904,22.4381],[69.0861,22.4327],[69.0839,22.4227],[69.0884,22.4224],[69.0903,22.4272],[69.0953,22.4311],[69.1036,22.4328],[69.1086,22.437],[69.1069,22.4455],[69.1099,22.4526],[69.1081,22.4607],[69.1154,22.4668],[69.1228,22.4681],[69.1267,22.4657],[69.1327,22.4666],[69.1423,22.4619],[69.141,22.4549],[69.147,22.4662],[69.1503,22.4689],[69.1481,22.4735],[69.1406,22.4778],[69.1373,22.4773]]],[[[69.2247,22.4797],[69.2219,22.4864],[69.2175,22.4848],[69.212,22.473],[69.2145,22.4614],[69.2202,22.4628],[69.2231,22.4566],[69.2364,22.4496],[69.2417,22.4502],[69.2482,22.4575],[69.2508,22.466],[69.2478,22.4721],[69.2439,22.469],[69.2407,22.4714],[69.2394,22.4798],[69.233,22.4831],[69.2298,22.4738],[69.2247,22.4797]]],[[[69.3086,22.5455],[69.3057,22.5512],[69.2965,22.5541],[69.2904,22.5527],[69.2866,22.5462],[69.2824,22.5444],[69.2815,22.5481],[69.2706,22.5483],[69.2685,22.5468],[69.2744,22.5351],[69.2814,22.5372],[69.2866,22.543],[69.2942,22.5423],[69.3007,22.5392],[69.307,22.5097],[69.3106,22.5035],[69.3153,22.5004],[69.3175,22.4943],[69.3149,22.4897],[69.3038,22.4864],[69.2996,22.4832],[69.2972,22.4762],[69.2937,22.482],[69.2936,22.4874],[69.2979,22.4915],[69.293,22.4912],[69.2904,22.4992],[69.2925,22.5076],[69.2885,22.5091],[69.2807,22.5027],[69.2778,22.5083],[69.2699,22.5063],[69.271,22.498],[69.2783,22.4865],[69.2829,22.4822],[69.2788,22.4781],[69.2793,22.4699],[69.2851,22.4529],[69.2854,22.448],[69.2785,22.4482],[69.2782,22.4441],[69.2742,22.4527],[69.2685,22.4593],[69.2653,22.4569],[69.2588,22.4413],[69.261,22.4305],[69.2648,22.4258],[69.2712,22.4229],[69.2729,22.4173],[69.2821,22.4141],[69.2878,22.4206],[69.2857,22.4255],[69.29,22.4247],[69.2985,22.4273],[69.3011,22.4318],[69.2991,22.4384],[69.3063,22.4475],[69.3094,22.4398],[69.3262,22.4433],[69.3287,22.449],[69.3376,22.4548],[69.334,22.463],[69.3353,22.4677],[69.3303,22.4698],[69.3373,22.4809],[69.3398,22.4893],[69.3438,22.4937],[69.3511,22.4969],[69.3602,22.5071],[69.3675,22.5072],[69.3671,22.5141],[69.3726,22.5167],[69.3791,22.511],[69.374,22.5085],[69.3765,22.4977],[69.3839,22.4894],[69.3889,22.4882],[69.3966,22.4982],[69.3979,22.5046],[69.4026,22.5092],[69.4145,22.51],[69.4205,22.5123],[69.4247,22.5171],[69.4248,22.5231],[69.4294,22.5343],[69.4274,22.5387],[69.4208,22.5426],[69.4136,22.5413],[69.4085,22.5524],[69.3937,22.551],[69.3898,22.5465],[69.381,22.551],[69.3734,22.5487],[69.3764,22.5409],[69.3762,22.5355],[69.3722,22.5386],[69.3626,22.5356],[69.3552,22.5389],[69.3418,22.5377],[69.3376,22.54],[69.3269,22.5391],[69.3123,22.5417],[69.3086,22.5455]]]]},"properties":{"id":"marine-gulf-of-kachchh-wls","name":"Marine (Gulf of Kachchh) Wildlife Sanctuary","category":"wls","area_km2":295}}]}