{"type":"FeatureCollection","features":[{"type":"Feature","geometry":{"type":"Polygon","coordinates":[[[69.8301,22.5189],[69.83,22.5159],[69.8358,22.5075],[69.8434,22.5047],[69.8488,22.5062],[69.8534,22.5034],[69.8587,22.5105],[69.8655,22.5098],[69.8722,22.5059],[69.8811,22.5102],[69.8917,22.5041],[69.9055,22.5019],[69.9019,22.4965],[69.8881,22.4973],[69.8771,22.4967],[69.8723,22.493],[69.8738,22.4871],[69.8777,22.4842],[69.8745,22.4788],[69.869,22.4772],[69.8681,22.4695],[69.8698,22.46],[69.8592,22.456],[69.8541,22.4592],[69.8556,22.4637],[69.8493,22.4736],[69.8399,22.4748],[69.8331,22.4775],[69.8309,22.4745],[69.8248,22.4745],[69.8195,22.4699],[69.8131,22.4706],[69.8033,22.4685],[69.8013,22.4609],[69.8043,22.4561],[69.8033,22.4493],[69.8102,22.4413],[69.8119,22.4341],[69.8088,22.427],[69.8026,22.4258],[69.8018,22.4177],[69.7981,22.416],[69.792,22.4187],[69.7906,22.4252],[69.7868,22.4296],[69.7786,22.4233],[69.7748,22.4343],[69.7718,22.4365],[69.7782,22.4424],[69.777,22.4454],[69.7839,22.4483],[69.7851,22.4576],[69.7809,22.4655],[69.7802,22.4709],[69.7744,22.4713],[69.7651,22.4782],[69.7632,22.4715],[69.7501,22.4636],[69.7456,22.4528],[69.749,22.438],[69.7473,22.4346],[69.7426,22.4448],[69.7459,22.4578],[69.7429,22.4744],[69.7438,22.4816],[69.7363,22.4847],[69.7307,22.4845],[69.7195,22.4767],[69.7129,22.4747],[69.712,22.4707],[69.7005,22.4609],[69.6956,22.4508],[69.6946,22.4427],[69.7002,22.4352],[69.7047,22.435],[69.7043,22.4302],[69.7,22.4228],[69.6986,22.4141],[69.7012,22.4093],[69.7061,22.4072],[69.7139,22.4123],[69.7114,22.4199],[69.7383,22.4285],[69.7442,22.4186],[69.7532,22.4144],[69.7603,22.4263],[69.7696,22.4222],[69.7647,22.41],[69.7674,22.4058],[69.7784,22.3996],[69.7738,22.3858],[69.7718,22.3756],[69.7731,22.3698],[69.7816,22.374],[69.7898,22.3839],[69.7959,22.3886],[69.7992,22.3967],[69.8101,22.402],[69.8295,22.4367],[69.833,22.4478],[69.8593,22.4378],[69.8649,22.4367],[69.872,22.4205],[69.8753,22.426],[69.877,22.4451],[69.8851,22.4538],[69.8914,22.4578],[69.8988,22.457],[69.8999,22.4534],[69.9085,22.4471],[69.9126,22.4415],[69.9191,22.4407],[69.9323,22.4497],[69.9381,22.4609],[69.9402,22.4736],[69.9448,22.4788],[69.961,22.4855],[69.9674,22.4915],[69.9733,22.4934],[69.9771,22.498],[69.9854,22.5142],[70.0022,22.5154],[70.0061,22.5185],[70.0211,22.5196],[70.0298,22.5189],[70.0314,22.5342],[70.0339,22.535],[70.0479,22.5652],[70.0492,22.5726],[70.039,22.5715],[70.0365,22.5796],[70.0366,22.588],[70.0338,22.5939],[70.0211,22.5977],[70.0142,22.602],[70.0016,22.6002],[69.9954,22.6026],[69.9881,22.6004],[69.9849,22.5948],[69.9752,22.5951],[69.978,22.6041],[69.9786,22.6133],[69.9767,22.6189],[69.9701,22.6226],[69.9656,22.6225],[69.9607,22.6183],[69.9526,22.6177],[69.9436,22.6131],[69.9407,22.6077],[69.9284,22.5951],[69.9302,22.5882],[69.9356,22.5854],[69.9488,22.587],[69.9535,22.5839],[69.9507,22.5772],[69.9521,22.5702],[69.9471,22.5654],[69.9456,22.5705],[69.9367,22.5715],[69.9337,22.565],[69.9349,22.5581],[69.9288,22.557],[69.9267,22.562],[69.9204,22.5659],[69.923,22.5689],[69.9252,22.5797],[69.9211,22.5836],[69.9098,22.5807],[69.9021,22.5729],[69.9014,22.5623],[69.891,22.561],[69.8875,22.5589],[69.8832,22.546],[69.887,22.5433],[69.8854,22.5388],[69.8743,22.5424],[69.8661,22.5473],[69.8493,22.5463],[69.8403,22.5429],[69.8346,22.5323],[69.8357,22.5264],[69.8395,22.5225],[69.8301,22.5189]]]},"properties":{"id":"marine-gulf-of-kachchh-np","name":"Marine (Gulf of Kachchh) National Park","category":"np","area_km2":162.9}}]}