{"type":"FeatureCollection","features":[{"type":"Feature","geometry":{"type":"Polygon","coordinates":[[[77.2408,9.9558],[77.2501,9.9512],[77.2528,9.9535],[77.2606,9.9524],[77.2727,9.9642],[77.2707,9.9709],[77.2725,9.9764],[77.2678,9.9799],[77.2643,9.9872],[77.2664,9.9905],[77.2616,9.9911],[77.2607,9.9958],[77.2648,10.0042],[77.2554,10.0111],[77.2582,10.0187],[77.253,10.0161],[77.2533,10.0126],[77.2415,10.0038],[77.2297,9.9979],[77.2233,9.9826],[77.2257,9.9732],[77.235,9.9723],[77.2422,9.9667],[77.2302,9.9637],[77.2301,9.9604],[77.2408,9.9558]]]},"properties":{"id":"mathikettan-shola-np","name":"Mathikettan Shola National Park","category":"np","area_km2":12.8}}]}