{"type":"FeatureCollection","features":[{"type":"Feature","geometry":{"type":"Polygon","coordinates":[[[74.3434,18.3585],[74.3519,18.3593],[74.3583,18.366],[74.3677,18.3628],[74.3654,18.3566],[74.3584,18.3528],[74.3484,18.3511],[74.3453,18.3469],[74.3491,18.3454],[74.3408,18.3387],[74.3483,18.3377],[74.3489,18.3415],[74.3601,18.3428],[74.3593,18.3373],[74.3654,18.3366],[74.3684,18.3323],[74.3741,18.34],[74.3695,18.3455],[74.3702,18.3485],[74.3779,18.3522],[74.3815,18.3518],[74.3819,18.3587],[74.3795,18.3635],[74.3838,18.3685],[74.3738,18.3689],[74.3673,18.374],[74.3499,18.3707],[74.3495,18.3635],[74.3449,18.364],[74.3434,18.3585]]]},"properties":{"id":"mayureswar-supe-wls","name":"Mayureswar Supe Wildlife Sanctuary","category":"wls","area_km2":5.2}}]}