{"type":"FeatureCollection","features":[{"type":"Feature","geometry":{"type":"Polygon","coordinates":[[[93.795,6.8517],[93.8009,6.8548],[93.8014,6.8618],[93.7983,6.8691],[93.7888,6.8725],[93.7903,6.8745],[93.782,6.8798],[93.7824,6.8824],[93.7721,6.8774],[93.7759,6.8717],[93.7736,6.8664],[93.7815,6.8567],[93.7895,6.8577],[93.7913,6.8537],[93.7872,6.8527],[93.7874,6.8479],[93.795,6.8517]]]},"properties":{"id":"megapode-island-wls","name":"Megapode Island Wildlife Sanctuary","category":"wls","area_km2":0.1}}]}