{"type":"FeatureCollection","features":[{"type":"Feature","geometry":{"type":"Polygon","coordinates":[[[77.6003,9.8061],[77.6263,9.8027],[77.6336,9.8175],[77.6419,9.829],[77.6431,9.8402],[77.6463,9.8482],[77.6467,9.8567],[77.6497,9.8675],[77.6466,9.8711],[77.6482,9.8755],[77.6573,9.8784],[77.6688,9.8928],[77.6731,9.8942],[77.6826,9.9034],[77.6877,9.9062],[77.6995,9.9059],[77.7106,9.8981],[77.7255,9.8943],[77.7306,9.8978],[77.7364,9.8951],[77.7387,9.8906],[77.7513,9.8942],[77.7575,9.9025],[77.7641,9.9063],[77.7686,9.9118],[77.7823,9.9176],[77.7857,9.9148],[77.7906,9.9156],[77.7894,9.9227],[77.7854,9.9274],[77.7756,9.9307],[77.7645,9.9292],[77.7505,9.9313],[77.7491,9.9344],[77.7611,9.9458],[77.7702,9.9516],[77.7724,9.9551],[77.7683,9.96],[77.7589,9.9577],[77.7529,9.9587],[77.7479,9.9516],[77.7355,9.9453],[77.7178,9.9458],[77.7069,9.9524],[77.6977,9.9594],[77.6924,9.955],[77.6913,9.9488],[77.6845,9.9525],[77.6745,9.9521],[77.6654,9.9438],[77.6616,9.9335],[77.6532,9.9323],[77.6499,9.9389],[77.6453,9.9392],[77.6466,9.9472],[77.6376,9.9512],[77.6198,9.944],[77.6114,9.933],[77.6097,9.9271],[77.6126,9.9227],[77.6275,9.9265],[77.6437,9.9118],[77.6392,9.9085],[77.6377,9.903],[77.6308,9.8997],[77.6309,9.8941],[77.6392,9.8956],[77.6398,9.8928],[77.6344,9.8815],[77.6169,9.87],[77.6182,9.8808],[77.6208,9.8846],[77.6129,9.8928],[77.6068,9.892],[77.5991,9.8966],[77.5947,9.8899],[77.5951,9.884],[77.6008,9.868],[77.6,9.8596],[77.5922,9.8598],[77.5793,9.8557],[77.5779,9.8604],[77.5738,9.86],[77.5802,9.8675],[77.5845,9.8697],[77.5853,9.8742],[77.5778,9.8724],[77.5826,9.8782],[77.5821,9.8871],[77.5716,9.8866],[77.5647,9.8807],[77.5577,9.8809],[77.5554,9.8873],[77.5499,9.8854],[77.544,9.8926],[77.5439,9.8976],[77.5383,9.8962],[77.5218,9.8974],[77.5229,9.8918],[77.5158,9.8814],[77.5104,9.8684],[77.5127,9.8621],[77.5072,9.8508],[77.4991,9.8416],[77.5026,9.8384],[77.5056,9.8416],[77.5115,9.8423],[77.5,9.8246],[77.5071,9.8228],[77.5098,9.8197],[77.5115,9.8305],[77.5161,9.8321],[77.5269,9.8403],[77.5324,9.8318],[77.5446,9.8411],[77.5493,9.8416],[77.5496,9.8375],[77.5338,9.8243],[77.5289,9.8231],[77.5274,9.8192],[77.5196,9.81],[77.5131,9.8116],[77.5116,9.8067],[77.5179,9.8065],[77.5231,9.7982],[77.5272,9.7969],[77.5231,9.7896],[77.5284,9.7904],[77.5523,9.8048],[77.5629,9.8143],[77.5824,9.8164],[77.5899,9.8185],[77.5808,9.8048],[77.5716,9.8038],[77.558,9.798],[77.5681,9.7981],[77.556,9.7932],[77.5591,9.7925],[77.5718,9.7957],[77.5786,9.796],[77.5859,9.8001],[77.5911,9.8059],[77.604,9.8247],[77.6006,9.8274],[77.6058,9.8337],[77.6109,9.8334],[77.6095,9.8218],[77.6073,9.8161],[77.6003,9.8061]]]},"properties":{"id":"megamalai-wls","name":"Megamalai Wildlife Sanctuary","category":"wls","area_km2":269.1}}]}