{"type":"FeatureCollection","features":[{"type":"Feature","geometry":{"type":"Polygon","coordinates":[[[95.9728,28.2202],[95.9676,28.232],[95.9344,28.243],[95.9024,28.2493],[95.877,28.2531],[95.8588,28.25],[95.8525,28.2425],[95.8513,28.2372],[95.8425,28.2322],[95.8343,28.236],[95.8146,28.2392],[95.8028,28.2352],[95.7891,28.2322],[95.781,28.2349],[95.7792,28.2307],[95.7916,28.219],[95.7931,28.2157],[95.8001,28.2136],[95.8107,28.2051],[95.8119,28.1892],[95.8193,28.1819],[95.8295,28.1832],[95.8375,28.178],[95.8506,28.1657],[95.8615,28.1632],[95.8611,28.1563],[95.8503,28.1527],[95.8518,28.1241],[95.8789,28.1107],[95.8918,28.1055],[95.8959,28.1006],[95.9236,28.0732],[95.9406,28.0617],[95.953,28.0566],[95.9587,28.0593],[95.9732,28.0724],[95.9766,28.0846],[96.0009,28.1002],[96.0036,28.1079],[96.0029,28.1163],[96.006,28.1214],[96.0039,28.1257],[96.0205,28.139],[96.0295,28.1488],[96.0275,28.1606],[96.0293,28.1649],[96.0466,28.1769],[96.0513,28.1963],[96.0473,28.1999],[96.0372,28.1998],[96.028,28.1965],[96.0045,28.1965],[95.9845,28.201],[95.9807,28.2037],[95.9728,28.2202]]]},"properties":{"id":"mehao-wls","name":"Mehao Wildlife Sanctuary","category":"wls","area_km2":281.5}}]}