{"type":"FeatureCollection","features":[{"type":"Feature","geometry":{"type":"Polygon","coordinates":[[[76.9051,21.3065],[76.9211,21.3129],[76.9405,21.3191],[76.952,21.3354],[76.9537,21.3645],[76.9579,21.3802],[76.9715,21.3873],[76.9698,21.3997],[76.967,21.4034],[76.9681,21.4139],[76.9721,21.4151],[76.9824,21.4086],[76.9908,21.409],[76.9936,21.4136],[77.0012,21.4174],[77.0185,21.4189],[77.0293,21.4138],[77.031,21.4055],[77.0347,21.3993],[77.0485,21.386],[77.0893,21.3767],[77.1113,21.3748],[77.1297,21.3826],[77.1226,21.3974],[77.1251,21.4011],[77.1206,21.4114],[77.109,21.4196],[77.1087,21.4263],[77.1194,21.4329],[77.135,21.4369],[77.1445,21.448],[77.1527,21.4495],[77.1657,21.4569],[77.1692,21.4602],[77.2192,21.4662],[77.2262,21.4689],[77.2305,21.4742],[77.2495,21.4775],[77.2912,21.4738],[77.2974,21.4603],[77.2881,21.4379],[77.2883,21.4278],[77.2806,21.4146],[77.268,21.407],[77.2619,21.4007],[77.2771,21.4026],[77.3123,21.4102],[77.3443,21.432],[77.3978,21.4636],[77.4414,21.4747],[77.4388,21.4786],[77.4422,21.4806],[77.4431,21.4873],[77.4359,21.4986],[77.4282,21.5068],[77.4223,21.517],[77.4224,21.5323],[77.4257,21.5379],[77.4404,21.5446],[77.4494,21.5413],[77.4563,21.5462],[77.455,21.5538],[77.4656,21.5532],[77.4724,21.5495],[77.4723,21.567],[77.4565,21.5718],[77.441,21.5747],[77.4095,21.5679],[77.3964,21.5728],[77.3877,21.5795],[77.3945,21.5882],[77.3956,21.5973],[77.4025,21.608],[77.4215,21.6265],[77.4421,21.6343],[77.4691,21.6504],[77.4891,21.6632],[77.5277,21.6912],[77.5193,21.6941],[77.5152,21.7062],[77.495,21.7082],[77.4788,21.7051],[77.4562,21.6976],[77.4253,21.6917],[77.3992,21.6734],[77.3915,21.6629],[77.3707,21.6616],[77.3535,21.6665],[77.3374,21.6726],[77.3091,21.6745],[77.276,21.6826],[77.2573,21.6841],[77.2414,21.6789],[77.2206,21.6667],[77.212,21.664],[77.1887,21.6613],[77.1734,21.6542],[77.1611,21.6678],[77.1532,21.6589],[77.1348,21.6471],[77.1165,21.6278],[77.1069,21.5968],[77.1027,21.5788],[77.1323,21.5494],[77.1405,21.5439],[77.1518,21.5408],[77.1644,21.532],[77.1673,21.5206],[77.1521,21.47],[77.1469,21.4571],[77.138,21.4512],[77.1268,21.4581],[77.128,21.4667],[77.116,21.4668],[77.1059,21.4701],[77.0999,21.4692],[77.0906,21.4739],[77.0678,21.4832],[77.0554,21.4862],[77.0466,21.4839],[77.0215,21.4738],[77.0064,21.4635],[77.0074,21.4568],[77.016,21.4506],[77.0088,21.4401],[76.9861,21.4346],[76.9752,21.4288],[76.9633,21.4242],[76.9461,21.4162],[76.9439,21.4077],[76.9379,21.404],[76.9369,21.398],[76.9383,21.3902],[76.9333,21.384],[76.9233,21.3796],[76.918,21.375],[76.9108,21.3751],[76.8973,21.3727],[76.888,21.3537],[76.8929,21.3437],[76.8967,21.331],[76.8916,21.3047],[76.8892,21.302],[76.9051,21.3065]]]},"properties":{"id":"melghat-tr","name":"Melghat Tiger Reserve","category":"tr","area_km2":778.8}}]}