{"type":"FeatureCollection","features":[{"type":"Feature","geometry":{"type":"Polygon","coordinates":[[[76.6251,12.6958],[76.6266,12.6996],[76.6328,12.7042],[76.6335,12.7119],[76.6374,12.716],[76.6495,12.7193],[76.6516,12.7333],[76.6453,12.7354],[76.6368,12.7292],[76.6333,12.7326],[76.6242,12.7354],[76.6194,12.7316],[76.6179,12.7349],[76.6093,12.7317],[76.5982,12.7418],[76.5933,12.7403],[76.5888,12.7437],[76.5888,12.749],[76.5843,12.7485],[76.5839,12.7536],[76.576,12.7442],[76.5701,12.7422],[76.5609,12.7291],[76.5611,12.722],[76.5576,12.7178],[76.5588,12.7025],[76.5632,12.7025],[76.5685,12.7092],[76.5722,12.7178],[76.5809,12.7211],[76.5816,12.7146],[76.5787,12.7112],[76.5859,12.7102],[76.5995,12.7142],[76.6017,12.7089],[76.601,12.7007],[76.5967,12.701],[76.5866,12.6916],[76.5872,12.6814],[76.5967,12.6834],[76.6021,12.6888],[76.6076,12.6883],[76.5975,12.6796],[76.6002,12.664],[76.5951,12.6662],[76.5948,12.6572],[76.5969,12.6459],[76.5926,12.6517],[76.5856,12.6517],[76.5851,12.644],[76.5888,12.6192],[76.5928,12.6205],[76.5913,12.6427],[76.5947,12.6416],[76.5953,12.629],[76.5973,12.6233],[76.6018,12.6225],[76.5994,12.6129],[76.6038,12.6116],[76.6074,12.6288],[76.6105,12.6319],[76.6162,12.6448],[76.6189,12.6445],[76.6195,12.624],[76.6257,12.6236],[76.6311,12.6364],[76.6305,12.6469],[76.6396,12.6454],[76.6392,12.6612],[76.6275,12.6646],[76.6217,12.6642],[76.6179,12.6699],[76.617,12.6795],[76.6251,12.6958]]]},"properties":{"id":"melkote-temple-wls","name":"Melkote Temple Wildlife Sanctuary","category":"wls","area_km2":49.8}}]}