{"type":"FeatureCollection","features":[{"type":"Feature","geometry":{"type":"MultiPolygon","coordinates":[[[[74.0623,24.5885],[74.0698,24.5867],[74.0727,24.589],[74.0877,24.589],[74.0914,24.5907],[74.1032,24.5894],[74.1092,24.5859],[74.1135,24.5879],[74.1145,24.5951],[74.1063,24.5971],[74.1038,24.5944],[74.096,24.5975],[74.0839,24.5991],[74.0818,24.5945],[74.0783,24.5964],[74.0667,24.5952],[74.0623,24.5885]]],[[[74.1024,24.6005],[74.1085,24.5994],[74.107,24.6101],[74.1053,24.6104],[74.1024,24.6005]]]]},"properties":{"id":"menar-wetland-ramsar","name":"Menar Wetland","category":"ramsar","area_km2":4.7}}]}