{"type":"FeatureCollection","features":[{"type":"Feature","geometry":{"type":"Polygon","coordinates":[[[71.2255,21.1649],[71.2302,21.159],[71.2387,21.1628],[71.2521,21.1588],[71.255,21.166],[71.2593,21.1625],[71.2568,21.1548],[71.259,21.1507],[71.2734,21.1486],[71.2815,21.1614],[71.2872,21.1667],[71.2803,21.1704],[71.2801,21.1754],[71.2733,21.1729],[71.2659,21.177],[71.28,21.195],[71.2717,21.1955],[71.2638,21.1982],[71.2497,21.1971],[71.2448,21.1941],[71.2389,21.1961],[71.2376,21.1907],[71.2301,21.187],[71.23,21.1775],[71.2255,21.1649]]]},"properties":{"id":"mitiyala-wls","name":"Mitiyala Wildlife Sanctuary","category":"wls","area_km2":18.2}}]}