{"type":"FeatureCollection","features":[{"type":"Feature","geometry":{"type":"Polygon","coordinates":[[[74.8012,13.9058],[74.7891,13.9097],[74.7802,13.9108],[74.7679,13.9142],[74.7519,13.9156],[74.7365,13.9128],[74.7248,13.9083],[74.7123,13.8998],[74.6993,13.8869],[74.6988,13.8809],[74.6936,13.8699],[74.7001,13.8678],[74.7032,13.8596],[74.7105,13.8597],[74.7283,13.8466],[74.7412,13.8459],[74.7449,13.8563],[74.7501,13.855],[74.7598,13.843],[74.7581,13.8367],[74.7638,13.833],[74.7613,13.827],[74.7524,13.8237],[74.749,13.8183],[74.752,13.8156],[74.7598,13.8207],[74.764,13.8257],[74.7659,13.8206],[74.7733,13.8223],[74.7769,13.8263],[74.7817,13.8224],[74.7826,13.8166],[74.7858,13.822],[74.7895,13.8217],[74.7946,13.8169],[74.792,13.8157],[74.7878,13.805],[74.7804,13.802],[74.7795,13.796],[74.7716,13.7971],[74.7691,13.7913],[74.7708,13.787],[74.7635,13.7847],[74.7605,13.7807],[74.7644,13.7744],[74.7504,13.7678],[74.7472,13.7641],[74.744,13.7541],[74.7445,13.7465],[74.7842,13.7059],[74.7913,13.7053],[74.7947,13.7086],[74.8031,13.7061],[74.8028,13.6995],[74.8087,13.6962],[74.8109,13.6999],[74.8186,13.6987],[74.8292,13.6912],[74.8332,13.695],[74.8351,13.6925],[74.8416,13.6982],[74.8474,13.6934],[74.8502,13.6962],[74.8553,13.6919],[74.8559,13.6955],[74.862,13.6945],[74.8617,13.6999],[74.8672,13.701],[74.8668,13.7149],[74.8718,13.7166],[74.8687,13.7252],[74.8709,13.7288],[74.8799,13.7313],[74.8815,13.734],[74.8879,13.7327],[74.891,13.7367],[74.8953,13.7361],[74.9006,13.7436],[74.9104,13.7453],[74.9105,13.7498],[74.9259,13.7574],[74.9317,13.7794],[74.929,13.7827],[74.9334,13.7859],[74.9322,13.7899],[74.94,13.8012],[74.9481,13.8005],[74.9544,13.8052],[74.9535,13.809],[74.9574,13.8161],[74.9503,13.8243],[74.9526,13.8343],[74.9584,13.8392],[74.959,13.849],[74.9504,13.8583],[74.9419,13.865],[74.938,13.8723],[74.9327,13.8745],[74.9299,13.8714],[74.9206,13.8692],[74.9129,13.8757],[74.8985,13.8759],[74.9098,13.8814],[74.9099,13.8954],[74.9018,13.8952],[74.8938,13.893],[74.8915,13.9015],[74.8934,13.9131],[74.8889,13.9159],[74.8831,13.9121],[74.8802,13.9032],[74.8705,13.9037],[74.8602,13.8974],[74.8571,13.8989],[74.8606,13.9084],[74.8542,13.9093],[74.8435,13.9042],[74.8428,13.9004],[74.8363,13.8968],[74.8324,13.9005],[74.8217,13.9037],[74.8099,13.9032],[74.8012,13.9058]]]},"properties":{"id":"mookambika-wls","name":"Mookambika Wildlife Sanctuary","category":"wls","area_km2":370.4}}]}