{"type":"FeatureCollection","features":[{"type":"Feature","geometry":{"type":"Polygon","coordinates":[[[76.8953,30.7181],[76.8883,30.7113],[76.8995,30.7063],[76.9055,30.7059],[76.9087,30.7099],[76.9129,30.7089],[76.9088,30.7039],[76.9017,30.7034],[76.8905,30.7075],[76.886,30.7072],[76.8812,30.6996],[76.8852,30.696],[76.8956,30.6939],[76.9012,30.6949],[76.9067,30.6925],[76.9122,30.6957],[76.9121,30.692],[76.8905,30.6892],[76.8844,30.6909],[76.8831,30.6788],[76.8911,30.6759],[76.9012,30.6753],[76.9075,30.6859],[76.9118,30.6893],[76.9221,30.6906],[76.9263,30.6867],[76.9388,30.6859],[76.949,30.6872],[76.9488,30.6763],[76.9449,30.6731],[76.949,30.6692],[76.9541,30.673],[76.9605,30.6708],[76.9692,30.6719],[76.9684,30.6797],[76.9797,30.6711],[76.9859,30.6789],[76.9902,30.6896],[76.9862,30.7042],[76.99,30.7084],[76.988,30.7113],[76.9816,30.7102],[76.9742,30.7122],[76.9746,30.7202],[76.9653,30.7266],[76.9512,30.7291],[76.9482,30.7328],[76.9412,30.7339],[76.9372,30.7374],[76.9285,30.7336],[76.9237,30.7368],[76.91,30.737],[76.9001,30.7313],[76.8924,30.7219],[76.8953,30.7181]]]},"properties":{"id":"morni-hills-khol-hi-raitan-wls","name":"Morni Hills (Khol-Hi Raitan) Wildlife Sanctuary","category":"wls","area_km2":48.8}}]}