{"type":"FeatureCollection","features":[{"type":"Feature","geometry":{"type":"Polygon","coordinates":[[[94.8608,28.4785],[94.9036,28.4816],[94.9246,28.48],[94.9345,28.485],[94.9527,28.4838],[94.9599,28.486],[94.9773,28.486],[94.9919,28.4919],[95.004,28.5167],[94.9953,28.5233],[94.9892,28.5583],[94.9847,28.5719],[94.9713,28.5915],[94.9644,28.6095],[94.9301,28.6442],[94.9123,28.6707],[94.9112,28.6888],[94.9117,28.6985],[94.8995,28.6956],[94.8847,28.6961],[94.8729,28.6911],[94.8616,28.6905],[94.8561,28.686],[94.8497,28.686],[94.8173,28.6954],[94.8098,28.7004],[94.8012,28.7017],[94.7695,28.6926],[94.7535,28.6864],[94.7371,28.6785],[94.7224,28.6773],[94.7171,28.6739],[94.7183,28.6645],[94.7132,28.6502],[94.7145,28.6252],[94.7138,28.6199],[94.7209,28.6134],[94.72,28.6061],[94.7257,28.5945],[94.7152,28.5323],[94.7298,28.5396],[94.741,28.5361],[94.7517,28.5361],[94.7602,28.5399],[94.7706,28.5377],[94.7786,28.5399],[94.787,28.5392],[94.798,28.5358],[94.8041,28.5277],[94.8137,28.527],[94.8151,28.522],[94.8148,28.5026],[94.8191,28.4932],[94.828,28.4873],[94.8397,28.4819],[94.8608,28.4785]]]},"properties":{"id":"mouling-np","name":"Mouling National Park","category":"np","area_km2":483}}]}