{"type":"FeatureCollection","features":[{"type":"Feature","geometry":{"type":"Polygon","coordinates":[[[72.6243,24.5356],[72.6227,24.5309],[72.6311,24.5287],[72.6455,24.5316],[72.6461,24.5257],[72.6422,24.5228],[72.6458,24.5167],[72.6585,24.5202],[72.6602,24.5295],[72.6671,24.529],[72.6739,24.5352],[72.6806,24.5351],[72.6964,24.5233],[72.695,24.5108],[72.7017,24.5098],[72.705,24.5125],[72.7207,24.519],[72.7251,24.5188],[72.7293,24.5251],[72.7371,24.5186],[72.7477,24.5205],[72.7441,24.5129],[72.7483,24.5098],[72.752,24.512],[72.764,24.5133],[72.7683,24.5169],[72.7733,24.5165],[72.7739,24.5205],[72.78,24.5196],[72.7898,24.5331],[72.7899,24.5385],[72.7939,24.547],[72.8033,24.5533],[72.8072,24.566],[72.8059,24.5688],[72.8124,24.5737],[72.8265,24.5898],[72.8282,24.6],[72.8355,24.6043],[72.8351,24.6082],[72.8388,24.6175],[72.8382,24.6214],[72.842,24.6253],[72.8472,24.6363],[72.8562,24.6429],[72.8599,24.6481],[72.864,24.6591],[72.8735,24.6615],[72.8785,24.6716],[72.8716,24.6754],[72.8774,24.6782],[72.8754,24.682],[72.8767,24.6931],[72.8743,24.6982],[72.8768,24.7086],[72.8657,24.7161],[72.8599,24.7154],[72.8564,24.7249],[72.8428,24.7224],[72.836,24.7249],[72.8244,24.7202],[72.8202,24.7143],[72.8028,24.7154],[72.7871,24.7103],[72.7773,24.7141],[72.7771,24.7232],[72.767,24.7241],[72.7648,24.7276],[72.7692,24.738],[72.7694,24.7454],[72.7648,24.7543],[72.7582,24.7467],[72.7615,24.7385],[72.7599,24.7313],[72.7516,24.7283],[72.7504,24.7205],[72.754,24.7142],[72.7448,24.7079],[72.7431,24.7033],[72.7455,24.698],[72.7514,24.6966],[72.7525,24.6924],[72.749,24.6833],[72.737,24.6805],[72.7362,24.6757],[72.7394,24.6703],[72.7368,24.6659],[72.732,24.6659],[72.7228,24.6734],[72.715,24.6718],[72.7111,24.6672],[72.7123,24.6625],[72.7078,24.6613],[72.7052,24.6698],[72.69,24.6608],[72.6972,24.6511],[72.7081,24.6491],[72.707,24.6422],[72.6952,24.6342],[72.6863,24.6223],[72.6818,24.6197],[72.6798,24.6143],[72.6738,24.6076],[72.6655,24.6011],[72.6635,24.5952],[72.6449,24.5789],[72.6367,24.5696],[72.6285,24.555],[72.6243,24.5356]]]},"properties":{"id":"mount-abu-wls","name":"Mount Abu Wildlife Sanctuary","category":"wls","area_km2":326.1}}]}