{"type":"FeatureCollection","features":[{"type":"Feature","geometry":{"type":"Polygon","coordinates":[[[92.745,11.7138],[92.7545,11.7017],[92.7578,11.7082],[92.7548,11.7182],[92.7561,11.7266],[92.759,11.7303],[92.7609,11.7446],[92.7658,11.7521],[92.7648,11.7677],[92.7681,11.7712],[92.7671,11.7798],[92.7709,11.7856],[92.7693,11.7988],[92.7749,11.8131],[92.7757,11.8251],[92.7784,11.8295],[92.7762,11.8342],[92.7781,11.8412],[92.7814,11.8439],[92.7806,11.851],[92.7862,11.8551],[92.7837,11.8599],[92.7862,11.8651],[92.7868,11.8777],[92.7712,11.8765],[92.765,11.8746],[92.7554,11.8635],[92.7505,11.8494],[92.7479,11.836],[92.7416,11.8131],[92.7397,11.8014],[92.7353,11.7852],[92.732,11.7664],[92.7326,11.7476],[92.7352,11.7347],[92.7397,11.7215],[92.745,11.7138]]]},"properties":{"id":"mount-harriett-np","name":"Mount Harriett National Park","category":"np","area_km2":46.6}}]}