{"type":"FeatureCollection","features":[{"type":"Feature","geometry":{"type":"Polygon","coordinates":[[[76.5595,11.6253],[76.5617,11.6289],[76.5586,11.6385],[76.5538,11.6458],[76.5543,11.6555],[76.5499,11.6612],[76.5513,11.6724],[76.5387,11.6896],[76.5311,11.6948],[76.5117,11.705],[76.5046,11.6991],[76.4884,11.6913],[76.4817,11.6925],[76.4826,11.6861],[76.4744,11.6812],[76.4582,11.6643],[76.4551,11.6658],[76.4421,11.6638],[76.4311,11.6664],[76.437,11.6531],[76.4431,11.6496],[76.4433,11.6437],[76.43,11.6308],[76.427,11.6335],[76.4065,11.6343],[76.388,11.6297],[76.3832,11.6241],[76.3838,11.6121],[76.3782,11.6085],[76.3779,11.6019],[76.367,11.5984],[76.3582,11.5927],[76.3586,11.5885],[76.3657,11.5832],[76.3821,11.5839],[76.3873,11.5801],[76.3897,11.5749],[76.3972,11.5728],[76.3999,11.5698],[76.4103,11.5685],[76.4149,11.5645],[76.4148,11.5705],[76.4223,11.5721],[76.4275,11.5782],[76.4479,11.5784],[76.4605,11.5821],[76.4671,11.5811],[76.4748,11.5746],[76.4854,11.5736],[76.5027,11.5673],[76.5057,11.5546],[76.5094,11.5528],[76.5127,11.5374],[76.5546,11.5352],[76.5663,11.5434],[76.5759,11.5429],[76.6042,11.5454],[76.6103,11.5505],[76.6281,11.5591],[76.6334,11.5668],[76.646,11.5729],[76.6488,11.5726],[76.6491,11.546],[76.6507,11.5408],[76.6603,11.5396],[76.6669,11.5426],[76.6736,11.5498],[76.6848,11.5549],[76.6883,11.5597],[76.6906,11.5681],[76.69,11.573],[76.6964,11.5745],[76.705,11.5722],[76.707,11.5741],[76.7042,11.5797],[76.7102,11.5845],[76.7163,11.5919],[76.7207,11.6011],[76.7254,11.5972],[76.737,11.602],[76.7466,11.6016],[76.75,11.6051],[76.7495,11.6138],[76.7368,11.6153],[76.7218,11.6144],[76.7027,11.6158],[76.6846,11.614],[76.6715,11.6159],[76.6502,11.6135],[76.6291,11.6136],[76.6135,11.6077],[76.6118,11.6103],[76.5972,11.6109],[76.5966,11.6158],[76.5922,11.6187],[76.5833,11.6138],[76.5764,11.6148],[76.5754,11.619],[76.5669,11.6188],[76.5595,11.6253]]]},"properties":{"id":"mudumalai-tr","name":"Mudumalai Tiger Reserve","category":"tr","area_km2":321}}]}