{"type":"FeatureCollection","features":[{"type":"Feature","geometry":{"type":"Polygon","coordinates":[[[76.5595,11.6253],[76.5551,11.6248],[76.5534,11.6198],[76.5444,11.6194],[76.5416,11.614],[76.5347,11.6109],[76.5258,11.6131],[76.5162,11.6122],[76.5099,11.6161],[76.5023,11.6173],[76.4967,11.616],[76.4922,11.6181],[76.4858,11.6174],[76.4787,11.6105],[76.4786,11.6056],[76.4749,11.596],[76.4637,11.5878],[76.4621,11.5821],[76.4671,11.5811],[76.4748,11.5746],[76.4854,11.5736],[76.5027,11.5673],[76.5057,11.5546],[76.5094,11.5528],[76.5127,11.5374],[76.5546,11.5352],[76.5663,11.5434],[76.5759,11.5429],[76.6042,11.5454],[76.6103,11.5505],[76.6281,11.5591],[76.6334,11.5668],[76.646,11.5729],[76.6488,11.5726],[76.6491,11.546],[76.6507,11.5408],[76.6603,11.5396],[76.6669,11.5426],[76.6736,11.5498],[76.6848,11.5549],[76.6883,11.5597],[76.6906,11.5681],[76.69,11.573],[76.6964,11.5745],[76.705,11.5722],[76.707,11.5741],[76.7042,11.5797],[76.7102,11.5845],[76.7163,11.5919],[76.7207,11.6011],[76.7254,11.5972],[76.737,11.602],[76.7466,11.6016],[76.75,11.6051],[76.7495,11.6138],[76.7368,11.6153],[76.7218,11.6144],[76.7027,11.6158],[76.6846,11.614],[76.6715,11.6159],[76.6502,11.6135],[76.6291,11.6136],[76.6135,11.6077],[76.6118,11.6103],[76.5972,11.6109],[76.5966,11.6158],[76.5922,11.6187],[76.5833,11.6138],[76.5764,11.6148],[76.5754,11.619],[76.5669,11.6188],[76.5595,11.6253]]]},"properties":{"id":"mudumalai-wls","name":"Mudumalai Wildlife Sanctuary","category":"wls","area_km2":217.8}}]}