{"type":"FeatureCollection","features":[{"type":"Feature","geometry":{"type":"Polygon","coordinates":[[[76.5205,11.7001],[76.5117,11.705],[76.5046,11.6991],[76.4884,11.6913],[76.4817,11.6925],[76.4826,11.6861],[76.4744,11.6812],[76.4582,11.6643],[76.4551,11.6658],[76.4421,11.6638],[76.4311,11.6664],[76.437,11.6531],[76.4431,11.6496],[76.4433,11.6437],[76.43,11.6308],[76.427,11.6335],[76.4065,11.6343],[76.388,11.6297],[76.3832,11.6241],[76.3838,11.6121],[76.3782,11.6085],[76.3779,11.6019],[76.367,11.5984],[76.3582,11.5927],[76.3586,11.5885],[76.3657,11.5832],[76.3821,11.5839],[76.3873,11.5801],[76.3897,11.5749],[76.3972,11.5728],[76.3999,11.5698],[76.4103,11.5685],[76.4149,11.5645],[76.4148,11.5705],[76.4223,11.5721],[76.4275,11.5782],[76.4479,11.5784],[76.4621,11.5821],[76.4637,11.5878],[76.4749,11.596],[76.4786,11.6056],[76.4787,11.6105],[76.4858,11.6174],[76.4922,11.6181],[76.4967,11.616],[76.5023,11.6173],[76.5099,11.6161],[76.5162,11.6122],[76.5258,11.6131],[76.5347,11.6109],[76.5416,11.614],[76.5444,11.6194],[76.5534,11.6198],[76.5551,11.6248],[76.5617,11.6289],[76.5586,11.6385],[76.5538,11.6458],[76.5543,11.6555],[76.5499,11.6612],[76.5513,11.6724],[76.5387,11.6896],[76.5311,11.6948],[76.5205,11.7001]]]},"properties":{"id":"mudumalai-np","name":"Mudumalai National Park","category":"np","area_km2":103.2}}]}