{"type":"FeatureCollection","features":[{"type":"Feature","geometry":{"type":"Polygon","coordinates":[[[76.4582,11.1882],[76.4666,11.1933],[76.4735,11.1949],[76.4724,11.2088],[76.4828,11.2107],[76.5042,11.2119],[76.5083,11.2163],[76.5203,11.2225],[76.5187,11.228],[76.5236,11.232],[76.523,11.2381],[76.5263,11.2353],[76.5286,11.2433],[76.5352,11.2433],[76.5438,11.255],[76.5448,11.251],[76.5498,11.2553],[76.5437,11.2581],[76.5278,11.259],[76.5267,11.2631],[76.5335,11.2616],[76.5344,11.2671],[76.5396,11.2615],[76.54,11.2665],[76.5468,11.2763],[76.5575,11.2818],[76.5646,11.2909],[76.5605,11.2922],[76.5569,11.3096],[76.5579,11.3152],[76.5623,11.3167],[76.5722,11.3164],[76.5747,11.3219],[76.5835,11.3278],[76.5808,11.3336],[76.5858,11.3457],[76.5841,11.3489],[76.5742,11.3448],[76.5685,11.3454],[76.5638,11.342],[76.5617,11.3448],[76.5704,11.3547],[76.5712,11.3601],[76.5646,11.3576],[76.5685,11.3659],[76.5616,11.3647],[76.5701,11.373],[76.5594,11.3688],[76.5599,11.3736],[76.5536,11.3713],[76.5462,11.3718],[76.5379,11.3787],[76.5393,11.3852],[76.5328,11.3879],[76.5387,11.3911],[76.5344,11.3944],[76.5289,11.3911],[76.5239,11.3982],[76.5151,11.4016],[76.5069,11.4023],[76.5006,11.4051],[76.4925,11.4033],[76.4899,11.3884],[76.4813,11.382],[76.5176,11.3716],[76.515,11.3597],[76.5081,11.3542],[76.5478,11.3589],[76.5473,11.3455],[76.5499,11.331],[76.5372,11.3141],[76.5392,11.3047],[76.5456,11.3003],[76.5421,11.2967],[76.5267,11.2886],[76.5216,11.2706],[76.5125,11.2683],[76.487,11.2583],[76.4662,11.2452],[76.453,11.2394],[76.4489,11.2055],[76.4392,11.203],[76.4385,11.199],[76.4522,11.1987],[76.4582,11.1882]]]},"properties":{"id":"mukurthi-np","name":"Mukurthi National Park","category":"np","area_km2":78.5}}]}