{"type":"FeatureCollection","features":[{"type":"Feature","geometry":{"type":"Polygon","coordinates":[[[75.983,24.7825],[75.9909,24.7874],[76.0064,24.7788],[76.0131,24.762],[76.0221,24.7587],[76.0292,24.7517],[76.0382,24.7389],[76.0497,24.7348],[76.0659,24.7163],[76.0722,24.7146],[76.09,24.7019],[76.0964,24.6953],[76.0988,24.6883],[76.1057,24.6802],[76.1187,24.6731],[76.1278,24.6656],[76.1326,24.6561],[76.1375,24.6512],[76.1448,24.652],[76.1573,24.641],[76.1822,24.6239],[76.1864,24.6227],[76.192,24.6252],[76.1818,24.6339],[76.1836,24.642],[76.1818,24.6464],[76.1819,24.664],[76.175,24.6677],[76.1729,24.6718],[76.1741,24.6788],[76.1676,24.6831],[76.1683,24.6874],[76.1795,24.6898],[76.1796,24.6843],[76.1893,24.6769],[76.1932,24.6766],[76.1965,24.6824],[76.1903,24.6969],[76.1949,24.7308],[76.1944,24.7376],[76.1864,24.7397],[76.1857,24.7513],[76.189,24.7587],[76.1843,24.7635],[76.1836,24.7739],[76.1793,24.7802],[76.1635,24.787],[76.1613,24.7971],[76.1453,24.7974],[76.1412,24.818],[76.1278,24.8224],[76.1244,24.8317],[76.1089,24.8275],[76.0899,24.8187],[76.076,24.8201],[76.072,24.8172],[76.0533,24.8141],[76.0452,24.8144],[76.0388,24.817],[76.0289,24.8104],[76.0244,24.8153],[76.0321,24.8193],[76.0328,24.823],[76.0251,24.8257],[76.0167,24.8215],[76.0109,24.8231],[76.0026,24.8206],[75.9989,24.8134],[75.9878,24.8169],[75.9831,24.8129],[75.9842,24.8057],[75.983,24.7825]]]},"properties":{"id":"mukundra-hills-np","name":"Mukundra Hills National Park","category":"np","area_km2":200.5}}]}