{"type":"FeatureCollection","features":[{"type":"Feature","geometry":{"type":"Polygon","coordinates":[[[77.301,8.8782],[77.2928,8.88],[77.2886,8.8771],[77.2729,8.8748],[77.2641,8.8791],[77.2574,8.8766],[77.26,8.8652],[77.2572,8.8616],[77.2624,8.8552],[77.2597,8.8513],[77.2639,8.842],[77.253,8.8277],[77.247,8.8236],[77.2466,8.8142],[77.2422,8.8093],[77.2319,8.8071],[77.2304,8.7978],[77.2311,8.7908],[77.2291,8.7839],[77.2239,8.7831],[77.2195,8.7785],[77.2129,8.7785],[77.2183,8.7688],[77.2093,8.7648],[77.2037,8.7689],[77.1968,8.7682],[77.2,8.7627],[77.1968,8.7495],[77.191,8.7415],[77.1831,8.7414],[77.1703,8.747],[77.1699,8.7418],[77.1789,8.7306],[77.1772,8.7257],[77.1847,8.7134],[77.1898,8.7124],[77.1949,8.7078],[77.1956,8.7029],[77.2067,8.6844],[77.2071,8.6808],[77.2008,8.669],[77.2082,8.6637],[77.2122,8.6569],[77.2143,8.649],[77.2247,8.6391],[77.2287,8.6403],[77.232,8.6357],[77.2345,8.6269],[77.2439,8.6218],[77.2489,8.6238],[77.2514,8.6202],[77.2519,8.6082],[77.2464,8.6036],[77.2543,8.5978],[77.2568,8.591],[77.2634,8.5886],[77.2693,8.5767],[77.282,8.5668],[77.3006,8.5646],[77.3095,8.5585],[77.3204,8.5569],[77.3404,8.5483],[77.3499,8.5422],[77.3538,8.5376],[77.3612,8.5376],[77.3634,8.5289],[77.3709,8.5198],[77.3767,8.5163],[77.3804,8.5198],[77.3891,8.5201],[77.3995,8.5187],[77.4077,8.5137],[77.4175,8.5132],[77.4191,8.5256],[77.4135,8.5281],[77.4067,8.5347],[77.4063,8.5404],[77.4281,8.562],[77.4333,8.5693],[77.4367,8.5776],[77.4384,8.591],[77.4356,8.5916],[77.4282,8.6068],[77.4216,8.6128],[77.4146,8.6143],[77.4117,8.6206],[77.4041,8.627],[77.4042,8.6351],[77.4065,8.6475],[77.4105,8.6511],[77.3998,8.6598],[77.3989,8.6657],[77.4037,8.6691],[77.4007,8.6763],[77.4007,8.6821],[77.3896,8.6952],[77.3732,8.7027],[77.3582,8.7152],[77.3562,8.7235],[77.3469,8.7324],[77.3517,8.7395],[77.3597,8.7372],[77.3622,8.7397],[77.3619,8.7488],[77.3599,8.7526],[77.3499,8.7604],[77.3331,8.7642],[77.3306,8.7679],[77.3206,8.7755],[77.3204,8.7801],[77.3143,8.7849],[77.3059,8.788],[77.3076,8.8037],[77.3188,8.806],[77.3214,8.8109],[77.3204,8.8189],[77.323,8.8285],[77.3149,8.843],[77.3098,8.8477],[77.3123,8.8549],[77.3181,8.8532],[77.324,8.8548],[77.3242,8.8587],[77.3193,8.8629],[77.3196,8.8696],[77.3129,8.8707],[77.301,8.8782]]]},"properties":{"id":"mundanthurai-wls","name":"Mundanthurai Wildlife Sanctuary","category":"wls","area_km2":582.1}}]}