{"type":"FeatureCollection","features":[{"type":"Feature","geometry":{"type":"Polygon","coordinates":[[[93.2397,23.632],[93.2369,23.6258],[93.2601,23.6065],[93.2704,23.6004],[93.2716,23.5933],[93.2821,23.5872],[93.2918,23.5777],[93.3039,23.5756],[93.3104,23.5776],[93.3176,23.5837],[93.3203,23.5822],[93.3212,23.5931],[93.3184,23.6052],[93.3271,23.6107],[93.3394,23.6166],[93.3103,23.6402],[93.2988,23.6445],[93.2857,23.6394],[93.2809,23.6358],[93.2768,23.637],[93.2641,23.6365],[93.2535,23.6381],[93.2397,23.632]]]},"properties":{"id":"murlen-np","name":"Murlen National Park","category":"np","area_km2":100}}]}