{"type":"FeatureCollection","features":[{"type":"Feature","geometry":{"type":"Polygon","coordinates":[[[79.4713,16.5929],[79.4592,16.599],[79.4564,16.6148],[79.4671,16.62],[79.4596,16.6237],[79.4472,16.6197],[79.4402,16.6148],[79.4369,16.6067],[79.4331,16.5907],[79.4186,16.5802],[79.3968,16.5798],[79.3779,16.5828],[79.356,16.5794],[79.3452,16.5821],[79.3372,16.582],[79.3264,16.5765],[79.3082,16.5741],[79.2955,16.563],[79.2875,16.5609],[79.2774,16.5615],[79.2665,16.5658],[79.2591,16.5669],[79.2522,16.5593],[79.251,16.5501],[79.2448,16.5318],[79.2397,16.5285],[79.2272,16.5238],[79.2192,16.5104],[79.2145,16.4847],[79.2171,16.4776],[79.2333,16.4593],[79.2318,16.4576],[79.2183,16.454],[79.2116,16.4474],[79.2098,16.4249],[79.2081,16.3801],[79.2124,16.3735],[79.2106,16.3562],[79.2143,16.3494],[79.2342,16.335],[79.2341,16.3246],[79.2311,16.3151],[79.2305,16.2831],[79.2257,16.2736],[79.2234,16.2467],[79.2208,16.2344],[79.2154,16.2262],[79.2061,16.2209],[79.1936,16.2175],[79.1697,16.2098],[79.1568,16.2093],[79.1441,16.2152],[79.1256,16.2297],[79.1199,16.2319],[79.108,16.2281],[79.1034,16.2233],[79.0951,16.224],[79.0866,16.2292],[79.0819,16.2301],[79.072,16.2271],[79.0612,16.2338],[79.048,16.2387],[79.0293,16.2417],[79.0139,16.2412],[79.0089,16.2397],[78.9987,16.2259],[78.9865,16.2112],[78.9819,16.2099],[78.9676,16.2111],[78.9604,16.2091],[78.949,16.2035],[78.9376,16.2012],[78.9111,16.1884],[78.9049,16.1828],[78.9047,16.1747],[78.9105,16.1641],[78.9165,16.1462],[78.923,16.1393],[78.9244,16.1309],[78.9215,16.1217],[78.9222,16.1059],[78.9179,16.1],[78.9063,16.0949],[78.8963,16.086],[78.889,16.0857],[78.8862,16.1011],[78.8793,16.1179],[78.8765,16.1354],[78.8706,16.145],[78.8566,16.1486],[78.8393,16.1467],[78.8335,16.144],[78.8335,16.1348],[78.838,16.1189],[78.8415,16.1016],[78.8426,16.0903],[78.8417,16.0825],[78.837,16.0703],[78.8281,16.0613],[78.8238,16.0538],[78.8162,16.0457],[78.8075,16.042],[78.8005,16.037],[78.7964,16.0289],[78.7898,16.0231],[78.7671,16.0166],[78.7509,16.0157],[78.7408,16.0087],[78.7356,16.0082],[78.7236,16.02],[78.7055,16.0264],[78.6994,16.0271],[78.6812,16.0348],[78.6786,16.0384],[78.665,16.0343],[78.6388,16.0385],[78.6348,16.0356],[78.6296,16.0272],[78.6295,16.0168],[78.6213,16.0063],[78.6168,16.0026],[78.618,15.9958],[78.6148,15.9829],[78.607,15.9769],[78.6051,15.9718],[78.6082,15.9683],[78.6118,15.9581],[78.632,15.9464],[78.6482,15.9279],[78.667,15.9155],[78.6699,15.9122],[78.6691,15.9005],[78.6795,15.8941],[78.6803,15.8746],[78.6861,15.8712],[78.7051,15.8648],[78.7195,15.8623],[78.7296,15.8592],[78.7386,15.8611],[78.7722,15.8764],[78.7779,15.8768],[78.784,15.8802],[78.8077,15.8878],[78.8162,15.8838],[78.8248,15.8826],[78.8483,15.8698],[78.8628,15.8741],[78.877,15.8741],[78.9196,15.8888],[78.935,15.8922],[78.9624,15.913],[78.9707,15.9162],[78.9942,15.9164],[79.0061,15.9191],[79.0341,15.9189],[79.0467,15.9198],[79.0491,15.9235],[79.0446,15.9264],[79.032,15.9278],[79.0123,15.9283],[79.0108,15.9335],[79.0168,15.9363],[79.0325,15.9386],[79.0436,15.9335],[79.0586,15.9322],[79.0762,15.9331],[79.1083,15.9246],[79.1159,15.9251],[79.1209,15.9285],[79.1187,15.9319],[79.1104,15.9374],[79.1035,15.9376],[79.0926,15.9445],[79.0859,15.9452],[79.075,15.9429],[79.0736,15.9456],[79.0774,15.9591],[79.0845,15.9616],[79.1249,15.968],[79.1599,15.9518],[79.1701,15.9491],[79.1855,15.9466],[79.1936,15.9495],[79.2152,15.9498],[79.2195,15.9582],[79.2179,15.9687],[79.211,15.9824],[79.2171,16.0188],[79.2148,16.0249],[79.2043,16.027],[79.1874,16.0224],[79.1808,16.0247],[79.1824,16.0389],[79.1865,16.0432],[79.1993,16.0448],[79.2036,16.0507],[79.2136,16.058],[79.2183,16.0647],[79.2162,16.0736],[79.2057,16.0765],[79.1989,16.0808],[79.2057,16.0952],[79.2059,16.1067],[79.2042,16.1153],[79.2166,16.1477],[79.2232,16.1586],[79.2312,16.1632],[79.2386,16.1774],[79.2399,16.1866],[79.2428,16.1909],[79.2572,16.2024],[79.2609,16.2079],[79.2654,16.224],[79.266,16.2368],[79.2738,16.2497],[79.2738,16.2663],[79.2784,16.2751],[79.278,16.2839],[79.2713,16.293],[79.269,16.3023],[79.2614,16.3083],[79.2626,16.3169],[79.2846,16.3269],[79.2903,16.3309],[79.2915,16.3371],[79.2898,16.3479],[79.2877,16.3496],[79.2772,16.3457],[79.2666,16.347],[79.2668,16.3528],[79.2715,16.362],[79.2776,16.3793],[79.2768,16.3904],[79.2839,16.3953],[79.2945,16.4003],[79.2964,16.4046],[79.3083,16.4163],[79.3114,16.4238],[79.3116,16.4315],[79.304,16.4461],[79.3104,16.4548],[79.3112,16.46],[79.3097,16.476],[79.3038,16.484],[79.2888,16.4867],[79.2874,16.502],[79.2943,16.5138],[79.2943,16.5172],[79.2869,16.5229],[79.2824,16.5357],[79.276,16.5416],[79.2781,16.5482],[79.2836,16.5496],[79.2969,16.548],[79.3107,16.5651],[79.3152,16.5694],[79.3349,16.5742],[79.3468,16.569],[79.353,16.5571],[79.3696,16.5546],[79.3756,16.5507],[79.3825,16.5389],[79.3893,16.5359],[79.4065,16.5334],[79.4124,16.5355],[79.4385,16.53],[79.4507,16.5307],[79.454,16.5558],[79.4478,16.5847],[79.4535,16.5913],[79.4571,16.5897],[79.458,16.5829],[79.4628,16.5788],[79.4768,16.5815],[79.4749,16.5886],[79.4713,16.5929]]]},"properties":{"id":"nagarjunasagar-srisailam-wls","name":"Nagarjunasagar Srisailam Wildlife Sanctuary","category":"wls","area_km2":2131.3}}]}