{"type":"FeatureCollection","features":[{"type":"Feature","geometry":{"type":"Polygon","coordinates":[[[76.0952,12.2569],[76.0938,12.2595],[76.0863,12.2566],[76.074,12.255],[76.0697,12.25],[76.0632,12.2485],[76.0384,12.2322],[76.0305,12.2312],[76.021,12.2257],[76.0205,12.2182],[76.0121,12.2191],[76.0061,12.2228],[76.0016,12.2205],[76.0026,12.2103],[76.0118,12.2116],[76.0167,12.2041],[76.0101,12.199],[76.0112,12.1899],[76.0288,12.1851],[76.0322,12.18],[76.0362,12.1788],[76.0409,12.1846],[76.0464,12.186],[76.0434,12.1824],[76.0464,12.1758],[76.0523,12.1775],[76.0587,12.1689],[76.0608,12.1631],[76.0728,12.163],[76.0833,12.169],[76.0975,12.1673],[76.0993,12.163],[76.0977,12.1576],[76.0886,12.1463],[76.0857,12.1364],[76.0835,12.1204],[76.0808,12.1093],[76.0743,12.1047],[76.0716,12.0985],[76.0662,12.0927],[76.0521,12.0987],[76.053,12.0903],[76.0585,12.0818],[76.0581,12.0745],[76.048,12.0704],[76.0417,12.0631],[76.0436,12.0599],[76.052,12.0591],[76.0541,12.055],[76.0527,12.0428],[76.0462,12.0347],[76.0459,12.0287],[76.0557,12.0221],[76.0619,12.0154],[76.0695,12.0133],[76.0722,12.0077],[76.0717,11.9945],[76.0762,11.9918],[76.0729,11.989],[76.0725,11.9836],[76.0887,11.9767],[76.0933,11.9685],[76.1045,11.9757],[76.1124,11.9788],[76.1125,11.9314],[76.1133,11.895],[76.1117,11.8876],[76.1148,11.8667],[76.1127,11.8585],[76.1172,11.8578],[76.1199,11.8504],[76.1308,11.8533],[76.1459,11.867],[76.1494,11.8665],[76.1574,11.8705],[76.1647,11.8676],[76.1735,11.8712],[76.1799,11.8702],[76.1903,11.8713],[76.1983,11.8666],[76.2019,11.8625],[76.2084,11.8649],[76.2093,11.8699],[76.2042,11.8738],[76.2051,11.8763],[76.213,11.8776],[76.2154,11.8829],[76.2066,11.8856],[76.2051,11.8902],[76.2118,11.9033],[76.2118,11.9077],[76.2061,11.9141],[76.2123,11.9187],[76.2202,11.9158],[76.2242,11.9117],[76.2307,11.9165],[76.2264,11.9273],[76.2287,11.933],[76.2374,11.9325],[76.2382,11.9464],[76.2459,11.9474],[76.2592,11.9433],[76.2657,11.9453],[76.2662,11.9583],[76.2707,11.9821],[76.2779,11.9835],[76.2868,11.997],[76.2872,12.0094],[76.2799,12.0134],[76.273,12.0147],[76.2619,12.0145],[76.2598,12.0181],[76.2623,12.0271],[76.2578,12.0319],[76.2552,12.0393],[76.2457,12.0468],[76.2465,12.0498],[76.2537,12.0515],[76.2555,12.057],[76.252,12.0736],[76.2531,12.0757],[76.2648,12.077],[76.2781,12.0866],[76.2645,12.0968],[76.2546,12.0972],[76.2486,12.0931],[76.2412,12.0829],[76.2344,12.0829],[76.2253,12.0997],[76.2215,12.1087],[76.215,12.1291],[76.2182,12.1416],[76.2364,12.153],[76.2435,12.1588],[76.2427,12.1711],[76.2396,12.1784],[76.2423,12.1858],[76.2495,12.1914],[76.2575,12.2008],[76.2541,12.2036],[76.2466,12.2014],[76.2435,12.2032],[76.2388,12.2117],[76.2409,12.2181],[76.2369,12.2207],[76.23,12.2143],[76.2146,12.2131],[76.2067,12.2182],[76.2028,12.2109],[76.2042,12.2072],[76.2226,12.1949],[76.2235,12.1912],[76.2203,12.1874],[76.2128,12.1843],[76.2048,12.1736],[76.1965,12.1703],[76.1943,12.176],[76.1829,12.185],[76.1676,12.1848],[76.1602,12.1821],[76.1495,12.1847],[76.1403,12.182],[76.1376,12.183],[76.132,12.1988],[76.1219,12.2057],[76.1213,12.2102],[76.1254,12.2141],[76.1194,12.2234],[76.1135,12.227],[76.107,12.2363],[76.0952,12.2407],[76.0968,12.2514],[76.0952,12.2569]]]},"properties":{"id":"nagarhole-tr","name":"Nagarhole Tiger Reserve","category":"tr","area_km2":643.4}}]}