{"type":"FeatureCollection","features":[{"type":"Feature","geometry":{"type":"Polygon","coordinates":[[[75.8272,27.0104],[75.8197,27.0088],[75.8176,27.0128],[75.8086,27.0083],[75.8038,26.9936],[75.7953,26.9887],[75.8012,26.9827],[75.8002,26.9673],[75.8026,26.9651],[75.8135,26.9657],[75.8155,26.9539],[75.8104,26.9544],[75.8102,26.946],[75.8122,26.942],[75.824,26.9431],[75.8243,26.9508],[75.832,26.9589],[75.8318,26.9626],[75.8366,26.9729],[75.8438,26.9812],[75.8473,26.9917],[75.8565,26.9948],[75.8574,26.9904],[75.8652,26.9952],[75.8712,27.0106],[75.8752,27.0172],[75.8708,27.0219],[75.8633,27.02],[75.8572,27.0215],[75.8582,27.0243],[75.8659,27.0287],[75.8744,27.0378],[75.868,27.0402],[75.87,27.046],[75.8648,27.0504],[75.8557,27.0511],[75.8475,27.0475],[75.8412,27.0405],[75.8414,27.0374],[75.849,27.0331],[75.8451,27.0249],[75.8376,27.0216],[75.8284,27.0144],[75.8361,27.0129],[75.8384,27.0088],[75.8447,27.009],[75.8409,27.004],[75.8343,27.0085],[75.8272,27.0104]]]},"properties":{"id":"nahargarh-wls","name":"Nahargarh Wildlife Sanctuary","category":"wls","area_km2":50}}]}