{"type":"FeatureCollection","features":[{"type":"Feature","geometry":{"type":"Polygon","coordinates":[[[75.5803,18.8907],[75.5824,18.8862],[75.5905,18.8812],[75.5973,18.8802],[75.6085,18.8875],[75.6072,18.8966],[75.603,18.8927],[75.5975,18.8941],[75.5917,18.8926],[75.5987,18.901],[75.6064,18.905],[75.6025,18.9113],[75.6108,18.9177],[75.6207,18.9183],[75.6247,18.9315],[75.6219,18.9425],[75.6191,18.9401],[75.6209,18.9345],[75.6162,18.9324],[75.6149,18.9433],[75.611,18.9393],[75.6121,18.936],[75.6002,18.9285],[75.595,18.9225],[75.5968,18.9171],[75.5869,18.9032],[75.5811,18.9036],[75.5825,18.9083],[75.5758,18.9064],[75.5751,18.9106],[75.5819,18.9159],[75.5863,18.9163],[75.5968,18.9315],[75.5938,18.9349],[75.5884,18.9303],[75.5807,18.9317],[75.5664,18.9293],[75.5694,18.9245],[75.5683,18.9199],[75.5602,18.918],[75.5641,18.9135],[75.5635,18.9081],[75.569,18.9037],[75.5694,18.898],[75.5656,18.8953],[75.5665,18.8908],[75.5599,18.8905],[75.56,18.8864],[75.5539,18.8884],[75.5501,18.8853],[75.5538,18.8833],[75.5537,18.8774],[75.5579,18.874],[75.56,18.8667],[75.5635,18.8729],[75.5683,18.8708],[75.5708,18.8774],[75.5735,18.8778],[75.5748,18.8843],[75.5789,18.8874],[75.5748,18.8901],[75.5803,18.8907]]]},"properties":{"id":"naigaon-mayur-wls","name":"Naigaon Mayur Wildlife Sanctuary","category":"wls","area_km2":29.9}}]}