{"type":"FeatureCollection","features":[{"type":"Feature","geometry":{"type":"Polygon","coordinates":[[[72.0205,22.8687],[72.0151,22.8715],[72.0053,22.8629],[71.9992,22.8498],[71.9953,22.8459],[71.9959,22.8416],[71.9896,22.8387],[71.985,22.8281],[71.9855,22.8244],[71.9912,22.8169],[71.9855,22.8165],[71.9855,22.8115],[71.9896,22.8121],[71.9924,22.8036],[71.9886,22.8067],[71.9864,22.8037],[71.9908,22.8015],[71.9927,22.7934],[71.9977,22.7945],[71.9998,22.7771],[71.9991,22.767],[71.9956,22.7651],[72.0022,22.76],[72.0015,22.7543],[72.009,22.7486],[72.0063,22.7344],[72.0083,22.7271],[72.0142,22.7255],[72.0217,22.7176],[72.0279,22.7056],[72.0315,22.7073],[72.0362,22.7049],[72.0404,22.6845],[72.055,22.6928],[72.0625,22.6992],[72.069,22.7006],[72.0844,22.7127],[72.0952,22.7186],[72.0986,22.7245],[72.1031,22.7265],[72.105,22.7338],[72.1031,22.7429],[72.1089,22.7499],[72.1091,22.7548],[72.1022,22.7491],[72.0966,22.7562],[72.0926,22.758],[72.0926,22.7473],[72.0893,22.7517],[72.0913,22.7564],[72.0854,22.7583],[72.0885,22.7687],[72.0873,22.7752],[72.0835,22.7759],[72.0861,22.77],[72.0821,22.7707],[72.0713,22.7819],[72.0647,22.7849],[72.0629,22.7962],[72.0561,22.7996],[72.0539,22.7947],[72.0525,22.8082],[72.0426,22.8217],[72.049,22.8203],[72.0506,22.8294],[72.0422,22.8371],[72.0399,22.843],[72.0423,22.8449],[72.0348,22.8464],[72.032,22.8543],[72.0254,22.8629],[72.0259,22.8662],[72.0205,22.8687]],[[72.0784,22.7537],[72.0822,22.7512],[72.081,22.7475],[72.0784,22.7537]]]},"properties":{"id":"nal-sarovar-wls","name":"Nal Sarovar Wildlife Sanctuary","category":"wls","area_km2":120.8}}]}