{"type":"FeatureCollection","features":[{"type":"Feature","geometry":{"type":"Polygon","coordinates":[[[72.0151,22.8715],[72.0053,22.8629],[71.9992,22.8498],[71.9953,22.8459],[71.9959,22.8416],[71.9896,22.8387],[71.985,22.8281],[71.9877,22.82],[71.9855,22.8115],[71.9896,22.8121],[71.9924,22.8053],[71.9864,22.8037],[71.9908,22.8015],[71.9927,22.7934],[71.9977,22.7945],[71.9944,22.7849],[71.9982,22.7852],[71.9998,22.7771],[71.9991,22.767],[71.9956,22.7651],[72.0025,22.7594],[72.0001,22.7562],[72.0085,22.7504],[72.0083,22.7379],[72.0063,22.7344],[72.0092,22.7279],[72.0142,22.7255],[72.0238,22.7144],[72.0279,22.7056],[72.0315,22.7029],[72.0362,22.7049],[72.0404,22.6845],[72.0577,22.6932],[72.0625,22.6992],[72.069,22.7006],[72.0871,22.7146],[72.094,22.7174],[72.0986,22.7245],[72.1031,22.7265],[72.105,22.7338],[72.1037,22.7476],[72.1089,22.7499],[72.1091,22.7548],[72.1016,22.7488],[72.0966,22.7562],[72.0893,22.7517],[72.0913,22.7564],[72.0863,22.7661],[72.0897,22.768],[72.0873,22.7752],[72.0842,22.7771],[72.0861,22.77],[72.0821,22.7707],[72.0717,22.7811],[72.0647,22.7849],[72.0617,22.7974],[72.0561,22.7996],[72.0539,22.7947],[72.0525,22.8082],[72.0426,22.8217],[72.049,22.8203],[72.0509,22.8284],[72.0422,22.8371],[72.0399,22.843],[72.0423,22.8449],[72.0348,22.8464],[72.032,22.8543],[72.0254,22.8629],[72.0259,22.8662],[72.0151,22.8715]],[[72.0113,22.8553],[72.0077,22.8571],[72.0109,22.861],[72.0113,22.8553]],[[72.0179,22.8375],[72.015,22.84],[72.015,22.846],[72.0179,22.8375]],[[72.0134,22.7798],[72.0167,22.7734],[72.0132,22.7749],[72.0134,22.7798]],[[72.0822,22.7512],[72.081,22.7475],[72.0755,22.7573],[72.0822,22.7512]]]},"properties":{"id":"nalsarovar-bird-sanctuary-ramsar","name":"Nalsarovar Bird Sanctuary","category":"ramsar","area_km2":120}}]}