{"type":"FeatureCollection","features":[{"type":"Feature","geometry":{"type":"MultiPolygon","coordinates":[[[[93.7804,26.3854],[93.7824,26.3809],[93.7892,26.3821],[93.7959,26.3865],[93.8017,26.3931],[93.8133,26.3996],[93.8124,26.3954],[93.816,26.3924],[93.8267,26.3971],[93.8287,26.4066],[93.8215,26.4069],[93.8261,26.4178],[93.8185,26.4201],[93.8155,26.4161],[93.803,26.4123],[93.7987,26.4094],[93.7931,26.3979],[93.784,26.392],[93.7804,26.3854]]],[[[93.8678,26.4236],[93.8659,26.4223],[93.8508,26.4237],[93.832,26.4209],[93.8302,26.4132],[93.8459,26.4063],[93.8512,26.4003],[93.8561,26.4004],[93.8543,26.3848],[93.8516,26.3836],[93.8531,26.3765],[93.8594,26.3792],[93.8713,26.3892],[93.8752,26.3889],[93.8765,26.394],[93.8843,26.3933],[93.8908,26.3962],[93.8913,26.406],[93.8996,26.4161],[93.8966,26.4193],[93.9001,26.4222],[93.9038,26.4204],[93.9026,26.4148],[93.9064,26.4081],[93.9159,26.4038],[93.9188,26.406],[93.9169,26.412],[93.9121,26.4143],[93.9145,26.4188],[93.9194,26.4155],[93.9199,26.4192],[93.9143,26.4221],[93.921,26.431],[93.9235,26.4274],[93.9199,26.4244],[93.9261,26.4237],[93.9337,26.4314],[93.9407,26.4305],[93.94,26.4348],[93.9313,26.4445],[93.9379,26.4465],[93.946,26.443],[93.947,26.4494],[93.9524,26.4499],[93.9512,26.458],[93.9469,26.4639],[93.9435,26.4637],[93.9373,26.4576],[93.9311,26.4565],[93.9266,26.4471],[93.9279,26.4411],[93.9216,26.4402],[93.9201,26.4444],[93.9149,26.4436],[93.9157,26.4402],[93.9107,26.4396],[93.9057,26.4342],[93.884,26.43],[93.8831,26.4262],[93.8726,26.423],[93.8678,26.4236]]],[[[93.8158,26.458],[93.8139,26.4836],[93.8073,26.4821],[93.8031,26.4763],[93.7968,26.4728],[93.7943,26.4673],[93.7847,26.4662],[93.7831,26.4586],[93.7861,26.4521],[93.797,26.4379],[93.7982,26.4298],[93.8066,26.4263],[93.813,26.4271],[93.8183,26.4304],[93.8173,26.4398],[93.8209,26.4466],[93.8174,26.4495],[93.8158,26.458]]]]},"properties":{"id":"nambor-doigrung-wls","name":"Nambor-Doigrung Wildlife Sanctuary","category":"wls","area_km2":97.2}}]}