{"type":"FeatureCollection","features":[{"type":"Feature","geometry":{"type":"Polygon","coordinates":[[[93.8426,26.3341],[93.853,26.332],[93.8624,26.3328],[93.8652,26.3371],[93.8797,26.3472],[93.8828,26.3552],[93.8879,26.3577],[93.885,26.3617],[93.8904,26.3678],[93.8812,26.372],[93.8875,26.3812],[93.8765,26.3814],[93.8752,26.3889],[93.8713,26.3892],[93.8594,26.3792],[93.8531,26.3765],[93.8505,26.3651],[93.8456,26.3623],[93.8497,26.3539],[93.8472,26.3466],[93.8401,26.3357],[93.8426,26.3341]]]},"properties":{"id":"nambor-wls","name":"Nambor Wildlife Sanctuary","category":"wls","area_km2":37}}]}