{"type":"FeatureCollection","features":[{"type":"Feature","geometry":{"type":"Polygon","coordinates":[[[96.7156,27.6535],[96.7105,27.6631],[96.7015,27.6621],[96.6885,27.6571],[96.677,27.651],[96.6724,27.6444],[96.6649,27.639],[96.649,27.6342],[96.6263,27.6403],[96.619,27.6448],[96.6126,27.6552],[96.6037,27.6602],[96.5973,27.6608],[96.59,27.6648],[96.5729,27.6648],[96.5539,27.6553],[96.5358,27.6562],[96.5315,27.6548],[96.5245,27.6458],[96.5138,27.652],[96.4968,27.6527],[96.4788,27.6557],[96.4717,27.648],[96.4651,27.6458],[96.451,27.6487],[96.4442,27.6574],[96.4332,27.658],[96.4225,27.6553],[96.4165,27.6566],[96.4012,27.6553],[96.4002,27.6506],[96.4081,27.6394],[96.4164,27.6332],[96.4152,27.6222],[96.402,27.6036],[96.3989,27.5965],[96.392,27.5907],[96.3873,27.5838],[96.3851,27.5749],[96.3879,27.556],[96.3857,27.5496],[96.3847,27.5347],[96.3861,27.5299],[96.3847,27.5206],[96.3889,27.5079],[96.3845,27.498],[96.3788,27.4948],[96.3718,27.5014],[96.364,27.5033],[96.3615,27.5098],[96.3534,27.5112],[96.344,27.5181],[96.3241,27.5189],[96.3143,27.5247],[96.3059,27.5253],[96.2919,27.5175],[96.2757,27.5155],[96.2768,27.5068],[96.2815,27.5021],[96.2839,27.4941],[96.293,27.484],[96.308,27.4709],[96.3099,27.461],[96.3133,27.4571],[96.3143,27.4439],[96.3133,27.4225],[96.3137,27.4107],[96.3204,27.4088],[96.3232,27.4044],[96.3344,27.3963],[96.3409,27.3946],[96.3531,27.3987],[96.3679,27.3943],[96.3727,27.4019],[96.385,27.3995],[96.3917,27.3921],[96.3958,27.3833],[96.4098,27.3696],[96.4154,27.3658],[96.4323,27.3607],[96.44,27.3542],[96.4356,27.3381],[96.4424,27.3351],[96.4464,27.3264],[96.4531,27.3169],[96.4517,27.3024],[96.4572,27.3065],[96.4624,27.3062],[96.4706,27.3007],[96.4841,27.2985],[96.4886,27.2963],[96.4906,27.3026],[96.5123,27.2967],[96.5123,27.2925],[96.5178,27.2856],[96.5241,27.2869],[96.5284,27.2939],[96.5432,27.3029],[96.5425,27.309],[96.5515,27.3141],[96.5512,27.3185],[96.5553,27.3204],[96.5641,27.3185],[96.5744,27.3241],[96.5795,27.3304],[96.5883,27.3356],[96.5957,27.3339],[96.5955,27.3392],[96.5909,27.3467],[96.6004,27.355],[96.6061,27.3658],[96.6246,27.3666],[96.6331,27.3647],[96.6452,27.3593],[96.6515,27.3597],[96.6605,27.3642],[96.6707,27.3604],[96.6753,27.3613],[96.6975,27.3577],[96.7021,27.3597],[96.7035,27.3721],[96.7115,27.3702],[96.7173,27.3653],[96.7299,27.3616],[96.7299,27.3594],[96.7461,27.358],[96.7517,27.3523],[96.7573,27.3544],[96.7706,27.3558],[96.7744,27.3517],[96.7812,27.3506],[96.7886,27.3459],[96.7965,27.3457],[96.8015,27.3394],[96.8051,27.3289],[96.8182,27.3152],[96.833,27.3209],[96.8463,27.3217],[96.8657,27.3277],[96.8759,27.3351],[96.8929,27.3355],[96.9124,27.3408],[96.9197,27.3463],[96.93,27.3494],[96.9339,27.355],[96.9604,27.3543],[96.9803,27.347],[96.9785,27.3566],[96.9707,27.3663],[96.9642,27.3702],[96.9625,27.3744],[96.9673,27.3806],[96.9665,27.3858],[96.9623,27.3902],[96.9602,27.3971],[96.9624,27.4011],[96.9594,27.4041],[96.9436,27.4092],[96.9316,27.4194],[96.9329,27.4305],[96.9247,27.4371],[96.9163,27.4464],[96.9079,27.4483],[96.9032,27.4531],[96.9055,27.4713],[96.9105,27.4809],[96.9108,27.4864],[96.9178,27.4971],[96.923,27.502],[96.9283,27.5116],[96.9298,27.5242],[96.9247,27.5333],[96.913,27.5439],[96.913,27.5709],[96.9122,27.5805],[96.9012,27.5801],[96.8967,27.5815],[96.8957,27.5873],[96.8967,27.6093],[96.9011,27.6189],[96.8877,27.6282],[96.87,27.6335],[96.8576,27.627],[96.8385,27.6307],[96.8327,27.6356],[96.8232,27.6362],[96.8108,27.6349],[96.7992,27.643],[96.7935,27.6447],[96.787,27.6411],[96.784,27.6358],[96.7851,27.6297],[96.7808,27.6207],[96.7671,27.6229],[96.7559,27.6358],[96.7376,27.6496],[96.7312,27.6514],[96.7199,27.6518],[96.7156,27.6535]]]},"properties":{"id":"namdapha-tr","name":"Namdapha Tiger Reserve","category":"tr","area_km2":1807.8}}]}