{"type":"FeatureCollection","features":[{"type":"Feature","geometry":{"type":"Polygon","coordinates":[[[92.7772,27.0232],[92.7632,27.0273],[92.7532,27.0228],[92.733,27.0227],[92.7229,27.0182],[92.7128,27.0227],[92.6977,27.0227],[92.6927,27.0272],[92.6876,27.0272],[92.6775,27.0317],[92.6725,27.0316],[92.6674,27.0271],[92.656,27.0068],[92.6754,26.9953],[92.6849,26.9928],[92.694,26.9928],[92.7144,26.9985],[92.7311,26.9945],[92.748,26.9951],[92.7604,26.9918],[92.768,26.9916],[92.78,26.9867],[92.7885,26.9738],[92.7941,26.9711],[92.8036,26.9696],[92.8053,26.9655],[92.8117,26.9611],[92.8142,26.9411],[92.8042,26.9425],[92.806,26.9302],[92.8019,26.9124],[92.7998,26.888],[92.8206,26.8885],[92.8168,26.8928],[92.8148,26.901],[92.8192,26.9173],[92.8169,26.9265],[92.8101,26.9295],[92.8101,26.9337],[92.8221,26.9321],[92.8252,26.9299],[92.8263,26.9225],[92.8372,26.9212],[92.8384,26.9115],[92.8414,26.9052],[92.8306,26.8948],[92.8306,26.881],[92.8333,26.8762],[92.8439,26.8783],[92.8491,26.8702],[92.8474,26.8659],[92.851,26.8646],[92.8612,26.8665],[92.8638,26.8536],[92.87,26.8521],[92.8749,26.8628],[92.8867,26.8818],[92.8969,26.8839],[92.9057,26.8914],[92.9147,26.8969],[92.9229,26.8979],[92.9357,26.905],[92.9412,26.9065],[92.95,26.9148],[92.9595,26.9192],[92.9625,26.9227],[92.9709,26.9264],[92.9836,26.9351],[92.9171,26.9629],[92.9155,26.9739],[92.9184,26.9823],[92.8891,26.9986],[92.8838,27.0004],[92.8573,27.0016],[92.8389,27.0048],[92.8237,27.0093],[92.7935,27.0228],[92.7772,27.0232]]]},"properties":{"id":"nameri-np","name":"Nameri National Park","category":"np","area_km2":200}}]}