{"type":"FeatureCollection","features":[{"type":"Feature","geometry":{"type":"Polygon","coordinates":[[[74.0328,20.035],[74.0331,20.0288],[74.0373,20.0208],[74.0466,20.013],[74.0528,19.9987],[74.0592,19.9961],[74.0792,19.9906],[74.0864,19.9912],[74.0911,20.0016],[74.0983,20.0029],[74.0985,19.9927],[74.0951,19.9868],[74.1085,19.9806],[74.1257,19.9791],[74.1475,19.9809],[74.1546,19.9866],[74.1627,19.9852],[74.1734,19.9895],[74.1816,20.0148],[74.1826,20.0317],[74.1809,20.0361],[74.1714,20.0504],[74.1586,20.0537],[74.1503,20.058],[74.1473,20.057],[74.1426,20.0422],[74.1372,20.041],[74.1297,20.0443],[74.1226,20.05],[74.1112,20.049],[74.094,20.0598],[74.0783,20.0648],[74.0584,20.0698],[74.0534,20.0696],[74.0459,20.0618],[74.0388,20.0591],[74.0429,20.0533],[74.0475,20.0519],[74.0397,20.0478],[74.0328,20.035]]]},"properties":{"id":"nandur-madhameshwar-wls","name":"Nandur Madhameshwar Wildlife Sanctuary","category":"wls","area_km2":100.1}}]}