{"type":"FeatureCollection","features":[{"type":"Feature","geometry":{"type":"Polygon","coordinates":[[[79.8673,30.5184],[79.8657,30.5177],[79.8341,30.5157],[79.8256,30.514],[79.7997,30.5126],[79.783,30.5164],[79.7692,30.5224],[79.7483,30.5291],[79.7402,30.5293],[79.7376,30.5267],[79.7345,30.5119],[79.7288,30.5062],[79.7212,30.5017],[79.7046,30.497],[79.6922,30.49],[79.6922,30.4857],[79.7026,30.4744],[79.7073,30.4711],[79.7252,30.469],[79.7332,30.4652],[79.7335,30.4573],[79.7234,30.4345],[79.7228,30.4263],[79.7266,30.4129],[79.7418,30.3965],[79.7522,30.3871],[79.7632,30.3745],[79.7694,30.3583],[79.7685,30.3507],[79.7543,30.333],[79.7516,30.3258],[79.7534,30.3148],[79.7605,30.3073],[79.7748,30.3012],[79.7999,30.2857],[79.8182,30.2867],[79.8292,30.2906],[79.8502,30.2881],[79.872,30.272],[79.8967,30.2779],[79.9043,30.285],[79.9194,30.2886],[79.9327,30.2978],[79.9418,30.2991],[79.9501,30.2932],[79.9594,30.293],[79.9739,30.3016],[79.9936,30.3336],[79.9952,30.3469],[79.9742,30.3672],[79.9728,30.3801],[79.9777,30.3841],[79.9999,30.382],[80.022,30.3881],[80.0352,30.4009],[80.0373,30.4058],[80.0321,30.4138],[80.0316,30.4185],[80.0362,30.4388],[80.0354,30.4431],[80.0228,30.4476],[80.017,30.4526],[80.0061,30.4733],[80.0147,30.4865],[80.0092,30.4955],[80.0096,30.5027],[80.006,30.5054],[80.0032,30.52],[79.9993,30.5224],[79.987,30.5212],[79.9581,30.5108],[79.9289,30.5012],[79.9211,30.5012],[79.9129,30.504],[79.9054,30.5114],[79.8929,30.5212],[79.8815,30.5218],[79.8673,30.5184]]]},"properties":{"id":"nanda-devi-np","name":"Nanda Devi National Park","category":"np","area_km2":624.6}}]}