{"type":"FeatureCollection","features":[{"type":"Feature","geometry":{"type":"Polygon","coordinates":[[[85.7911,20.417],[85.7896,20.4193],[85.7929,20.4261],[85.7845,20.4338],[85.779,20.4227],[85.7812,20.4106],[85.7716,20.4071],[85.7711,20.4026],[85.7793,20.3932],[85.784,20.4029],[85.7825,20.4056],[85.7905,20.4143],[85.8022,20.4038],[85.8072,20.4024],[85.8001,20.3958],[85.8202,20.3865],[85.8178,20.392],[85.8236,20.3931],[85.8289,20.4068],[85.8198,20.4122],[85.8206,20.4146],[85.8151,20.4197],[85.8113,20.4166],[85.8011,20.415],[85.7964,20.4191],[85.7911,20.417]]]},"properties":{"id":"nandankanan-wls","name":"Nandankanan Wildlife Sanctuary","category":"wls","area_km2":14.2}}]}