{"type":"FeatureCollection","features":[{"type":"Feature","geometry":{"type":"Polygon","coordinates":[[[74.9179,32.8787],[74.9203,32.8712],[74.9273,32.8656],[74.9304,32.8597],[74.9379,32.8553],[74.9464,32.8431],[74.9629,32.825],[74.9681,32.8063],[74.9771,32.8021],[74.9777,32.8057],[74.9846,32.8079],[74.9895,32.8059],[74.9906,32.8157],[74.9884,32.8216],[74.9823,32.8277],[74.982,32.8456],[74.9693,32.8592],[74.9551,32.8787],[74.9528,32.8892],[74.9471,32.8981],[74.9433,32.899],[74.9367,32.8935],[74.9238,32.8894],[74.9181,32.8847],[74.9179,32.8787]]]},"properties":{"id":"nandni-wls","name":"Nandni Wildlife Sanctuary","category":"wls","area_km2":33.3}}]}