{"type":"FeatureCollection","features":[{"type":"Feature","geometry":{"type":"Polygon","coordinates":[[[74.0701,20.0426],[74.0682,20.0362],[74.0601,20.0413],[74.0587,20.038],[74.0643,20.0363],[74.0671,20.0236],[74.0636,20.0216],[74.0752,20.0207],[74.0805,20.0249],[74.0902,20.0255],[74.0973,20.0243],[74.1043,20.0194],[74.1009,20.0097],[74.1135,20.0024],[74.1243,20.0044],[74.1323,20.0083],[74.133,20.0049],[74.1386,20.0094],[74.1445,20.0082],[74.1479,20.0118],[74.1471,20.0244],[74.1431,20.0264],[74.1419,20.0189],[74.1382,20.0202],[74.127,20.0195],[74.1268,20.0253],[74.1226,20.0315],[74.1238,20.019],[74.1199,20.0226],[74.1161,20.0203],[74.0993,20.036],[74.0852,20.0367],[74.0786,20.0427],[74.0701,20.0426]],[[74.0689,20.0354],[74.0824,20.0281],[74.0711,20.0242],[74.0679,20.0314],[74.0689,20.0354]]]},"properties":{"id":"nandur-madhameshwar-ramsar","name":"Nandur Madhameshwar","category":"ramsar","area_km2":14.4}}]}