{"type":"FeatureCollection","features":[{"type":"Feature","geometry":{"type":"Polygon","coordinates":[[[79.7095,29.1471],[79.7067,29.1422],[79.7067,29.135],[79.7123,29.126],[79.7187,29.1256],[79.78,29.1053],[79.7877,29.0987],[79.7903,29.0839],[79.7944,29.0779],[79.8007,29.0748],[79.8164,29.0703],[79.848,29.0643],[79.8577,29.0597],[79.8748,29.0608],[79.8837,29.0592],[79.8999,29.0588],[79.9161,29.0604],[79.9524,29.0585],[79.9623,29.0566],[79.9681,29.0528],[79.9936,29.0504],[79.9997,29.0546],[80.0108,29.0716],[80.0129,29.0768],[80.0156,29.0938],[80.0144,29.1038],[80.0111,29.1151],[80.0045,29.1255],[80.0106,29.1328],[80.0099,29.1383],[79.997,29.1395],[79.9941,29.1426],[79.9776,29.1459],[79.9734,29.1439],[79.9604,29.1435],[79.9588,29.1527],[79.9617,29.1607],[79.9593,29.1638],[79.951,29.1647],[79.9252,29.1634],[79.9046,29.1672],[79.877,29.1654],[79.859,29.158],[79.8479,29.1628],[79.8388,29.1605],[79.8323,29.1642],[79.8062,29.1677],[79.7964,29.1728],[79.7929,29.1612],[79.7899,29.1585],[79.7896,29.1513],[79.7825,29.1525],[79.7787,29.1497],[79.7754,29.1532],[79.7578,29.1519],[79.7568,29.1554],[79.749,29.1587],[79.7379,29.1704],[79.7233,29.1741],[79.7149,29.1737],[79.7087,29.1673],[79.7152,29.1575],[79.7095,29.1471]]]},"properties":{"id":"nandhaur-wls","name":"Nandhaur Wildlife Sanctuary","category":"wls","area_km2":270}}]}