{"type":"FeatureCollection","features":[{"type":"Feature","geometry":{"type":"Polygon","coordinates":[[[68.7933,23.6675],[68.7904,23.6586],[68.791,23.642],[68.7972,23.637],[68.7969,23.6252],[68.799,23.6187],[68.8102,23.6093],[68.8107,23.6048],[68.8061,23.6031],[68.7964,23.6044],[68.7917,23.6072],[68.7875,23.6048],[68.7888,23.6107],[68.786,23.6204],[68.7864,23.6281],[68.7809,23.6376],[68.7762,23.6317],[68.7786,23.6159],[68.7699,23.6133],[68.7655,23.6201],[68.7583,23.6195],[68.7467,23.6103],[68.7352,23.5994],[68.7315,23.6044],[68.7301,23.6216],[68.7211,23.6278],[68.7189,23.6316],[68.7215,23.6355],[68.7287,23.635],[68.7372,23.6382],[68.7489,23.652],[68.7478,23.6707],[68.7407,23.6745],[68.7251,23.676],[68.7162,23.672],[68.7067,23.6727],[68.7034,23.6754],[68.6885,23.6731],[68.6691,23.672],[68.6474,23.6779],[68.6416,23.6832],[68.629,23.6835],[68.6244,23.6851],[68.623,23.6789],[68.6023,23.6663],[68.5894,23.662],[68.5826,23.6667],[68.576,23.6686],[68.5729,23.6737],[68.5638,23.6775],[68.5483,23.6583],[68.5339,23.6454],[68.5387,23.643],[68.5531,23.6317],[68.5546,23.6253],[68.5484,23.6128],[68.5419,23.6049],[68.5343,23.5815],[68.5328,23.5691],[68.5266,23.5583],[68.5303,23.5551],[68.5387,23.5526],[68.5419,23.5476],[68.537,23.5412],[68.5295,23.5369],[68.531,23.528],[68.5273,23.5259],[68.5263,23.5153],[68.5295,23.5067],[68.5382,23.5071],[68.5676,23.5213],[68.5822,23.515],[68.5949,23.5158],[68.6115,23.5257],[68.6235,23.5394],[68.6179,23.555],[68.6143,23.5734],[68.6341,23.5863],[68.651,23.5807],[68.6615,23.5805],[68.6772,23.582],[68.6844,23.5789],[68.6852,23.572],[68.6825,23.557],[68.7,23.551],[68.7358,23.5375],[68.7536,23.5339],[68.7693,23.5386],[68.7833,23.5394],[68.7936,23.5361],[68.813,23.5424],[68.8234,23.5492],[68.832,23.5587],[68.8448,23.565],[68.8513,23.564],[68.8637,23.5704],[68.8783,23.5855],[68.8772,23.5915],[68.8731,23.5982],[68.8592,23.6103],[68.8595,23.6188],[68.8668,23.6299],[68.8734,23.6436],[68.8788,23.6516],[68.8676,23.661],[68.8611,23.676],[68.8497,23.6822],[68.8341,23.6831],[68.7989,23.6934],[68.7961,23.6846],[68.8001,23.6801],[68.7974,23.6709],[68.7933,23.6675]]]},"properties":{"id":"narayan-sarovar-wls","name":"Narayan Sarovar Wildlife Sanctuary","category":"wls","area_km2":442.9}}]}