{"type":"FeatureCollection","features":[{"type":"Feature","geometry":{"type":"Polygon","coordinates":[[[76.9727,32.113],[76.9655,32.1144],[76.9526,32.1138],[76.9455,32.109],[76.9374,32.0975],[76.9362,32.0814],[76.9422,32.0705],[76.9417,32.0665],[76.931,32.0609],[76.8923,32.0587],[76.8754,32.0542],[76.8661,32.0476],[76.8576,32.0484],[76.8462,32.043],[76.8417,32.0377],[76.8459,32.0364],[76.8496,32.029],[76.8495,32.0202],[76.8566,32.0138],[76.8578,32.0088],[76.8634,32.0013],[76.8713,31.9863],[76.8782,31.98],[76.8811,31.9716],[76.8859,31.9704],[76.892,31.9637],[76.9016,31.9619],[76.9,31.9531],[76.9083,31.9497],[76.905,31.9464],[76.9048,31.9396],[76.9098,31.9388],[76.907,31.9351],[76.914,31.9357],[76.9137,31.9302],[76.9213,31.9286],[76.9192,31.9239],[76.9237,31.9208],[76.9257,31.9119],[76.9354,31.9086],[76.9344,31.9055],[76.9469,31.8875],[76.9518,31.8864],[76.9488,31.883],[76.9495,31.8736],[76.9558,31.8749],[76.9558,31.8704],[76.961,31.8717],[76.9574,31.8672],[76.9625,31.863],[76.9605,31.8549],[76.9638,31.8557],[76.9678,31.8468],[76.9635,31.8435],[76.9656,31.8338],[76.9704,31.8304],[76.9663,31.8273],[76.9681,31.8219],[76.9736,31.8205],[76.9773,31.8154],[76.9795,31.8001],[76.9714,31.7962],[76.9757,31.7956],[76.9749,31.7913],[76.9806,31.7882],[76.979,31.7809],[76.984,31.7791],[76.9825,31.7756],[76.9889,31.7763],[76.9876,31.7805],[77.0007,31.7834],[77.0052,31.7825],[77.0101,31.7883],[77.0105,31.7933],[77.0156,31.7969],[77.0314,31.7949],[77.035,31.8023],[77.0474,31.8079],[77.067,31.8202],[77.0722,31.8256],[77.0823,31.8271],[77.0788,31.8362],[77.0636,31.8357],[77.0576,31.838],[77.0547,31.8452],[77.0583,31.8516],[77.0589,31.8587],[77.0479,31.8698],[77.0464,31.8738],[77.0372,31.8806],[77.0241,31.9053],[77.0208,31.9164],[77.0241,31.9247],[77.03,31.9343],[77.0327,31.9426],[77.0324,31.959],[77.0309,31.9729],[77.0095,31.986],[77,31.9898],[76.9875,32.0004],[76.9774,32.0152],[76.9754,32.0208],[76.9766,32.0324],[76.9857,32.0501],[76.9748,32.0618],[76.9777,32.0699],[76.9766,32.0815],[76.9798,32.0905],[76.9783,32.1001],[76.9727,32.113]]]},"properties":{"id":"nargu-wls","name":"Nargu Wildlife Sanctuary","category":"wls","area_km2":132.4}}]}