{"type":"FeatureCollection","features":[{"type":"Feature","geometry":{"type":"Polygon","coordinates":[[[92.5371,25.1037],[92.5289,25.1154],[92.5231,25.126],[92.5212,25.1386],[92.5159,25.1382],[92.5118,25.1472],[92.4981,25.1497],[92.4962,25.1422],[92.4877,25.1352],[92.4715,25.1412],[92.4659,25.1389],[92.455,25.146],[92.4491,25.1531],[92.4437,25.1532],[92.4389,25.1569],[92.4399,25.152],[92.4278,25.1483],[92.4137,25.1376],[92.3991,25.1336],[92.3897,25.1326],[92.3898,25.1273],[92.3852,25.1199],[92.3737,25.1119],[92.3627,25.1095],[92.3554,25.1011],[92.3528,25.0945],[92.36,25.0937],[92.3631,25.0884],[92.3754,25.0859],[92.3811,25.0815],[92.3918,25.0795],[92.4022,25.0888],[92.4107,25.0927],[92.4179,25.0887],[92.4397,25.0906],[92.4652,25.0965],[92.4792,25.1053],[92.4804,25.108],[92.492,25.1078],[92.497,25.1095],[92.5059,25.1047],[92.5184,25.1062],[92.5278,25.104],[92.5306,25.1003],[92.5394,25.0993],[92.5371,25.1037]]]},"properties":{"id":"narpuh-wls","name":"Narpuh Wildlife Sanctuary","category":"wls","area_km2":59.9}}]}