{"type":"FeatureCollection","features":[{"type":"Feature","geometry":{"type":"Polygon","coordinates":[[[77.1127,23.6324],[77.1096,23.6335],[77.1145,23.6217],[77.121,23.6218],[77.1238,23.6248],[77.1308,23.6449],[77.1227,23.6493],[77.1222,23.6522],[77.138,23.6606],[77.134,23.6623],[77.1345,23.6674],[77.115,23.6779],[77.1206,23.683],[77.1134,23.6882],[77.1181,23.6919],[77.11,23.6927],[77.0906,23.7004],[77.089,23.7057],[77.0835,23.7088],[77.0803,23.7053],[77.0716,23.7041],[77.0696,23.6962],[77.0756,23.6945],[77.0733,23.681],[77.0735,23.674],[77.0668,23.6655],[77.0702,23.6572],[77.0773,23.6553],[77.0748,23.6464],[77.0624,23.649],[77.0575,23.6419],[77.0569,23.6369],[77.0488,23.634],[77.0457,23.6363],[77.0364,23.6315],[77.0513,23.6304],[77.0549,23.6346],[77.0626,23.6199],[77.0669,23.6235],[77.0653,23.6279],[77.0696,23.629],[77.0733,23.6219],[77.0846,23.619],[77.0848,23.6252],[77.0794,23.6296],[77.0901,23.6332],[77.0977,23.6303],[77.1058,23.6325],[77.1087,23.6391],[77.1066,23.644],[77.1183,23.6499],[77.1212,23.6456],[77.1156,23.6443],[77.1127,23.639],[77.1127,23.6324]],[[77.1075,23.6547],[77.1036,23.6664],[77.1116,23.6689],[77.1156,23.6623],[77.1075,23.6547]]]},"properties":{"id":"narsighgarh-wls","name":"Narsighgarh Wildlife Sanctuary","category":"wls","area_km2":57.2}}]}