{"type":"FeatureCollection","features":[{"type":"Feature","geometry":{"type":"Polygon","coordinates":[[[78.2103,26.8254],[78.212,26.8263],[78.2158,26.8175],[78.2254,26.82],[78.2396,26.8143],[78.2509,26.8071],[78.2629,26.8029],[78.2724,26.8039],[78.2835,26.8115],[78.2853,26.8184],[78.2963,26.8222],[78.2976,26.8268],[78.2959,26.8351],[78.298,26.839],[78.3115,26.8445],[78.3296,26.8471],[78.3341,26.8507],[78.3515,26.8427],[78.3523,26.8344],[78.3681,26.8328],[78.3702,26.8268],[78.3773,26.816],[78.3836,26.8111],[78.3945,26.8089],[78.4089,26.8091],[78.4267,26.8119],[78.4305,26.81],[78.4291,26.7974],[78.4388,26.7802],[78.4496,26.7747],[78.465,26.7736],[78.4725,26.7709],[78.4837,26.759],[78.4868,26.753],[78.4944,26.7512],[78.4985,26.7546],[78.508,26.7478],[78.5125,26.7506],[78.5274,26.7471],[78.53,26.743],[78.5353,26.7427],[78.5394,26.7364],[78.5465,26.7398],[78.5534,26.7394],[78.5598,26.7364],[78.5676,26.728],[78.5747,26.724],[78.5843,26.7232],[78.5901,26.7204],[78.5968,26.7208],[78.6045,26.7244],[78.5984,26.7377],[78.594,26.7417],[78.6028,26.7402],[78.612,26.7409],[78.6257,26.7485],[78.6277,26.753],[78.6325,26.7515],[78.6424,26.7535],[78.6558,26.7436],[78.6675,26.7395],[78.6761,26.7416],[78.6777,26.7549],[78.6855,26.7618],[78.6885,26.775],[78.6916,26.7794],[78.6972,26.7798],[78.6955,26.7687],[78.699,26.7645],[78.71,26.7606],[78.7167,26.7598],[78.7219,26.7564],[78.7333,26.758],[78.7554,26.7531],[78.7596,26.7508],[78.7584,26.7458],[78.7528,26.7396],[78.7456,26.7356],[78.7466,26.7322],[78.7562,26.7303],[78.761,26.7319],[78.7636,26.7374],[78.7721,26.7369],[78.7847,26.7461],[78.7986,26.7489],[78.8047,26.7478],[78.8121,26.7429],[78.8189,26.7299],[78.8202,26.7202],[78.8228,26.7143],[78.8337,26.702],[78.8352,26.6939],[78.8679,26.684],[78.8878,26.6827],[78.8927,26.6878],[78.9003,26.6861],[78.9037,26.6896],[78.9115,26.6894],[78.9148,26.6945],[78.9236,26.6909],[78.9293,26.6951],[78.9307,26.6911],[78.926,26.6873],[78.925,26.676],[78.9186,26.6736],[78.9175,26.6691],[78.9204,26.6626],[78.9244,26.6598],[78.9307,26.6431],[78.9475,26.6377],[78.9552,26.6433],[78.978,26.6463],[78.9802,26.6365],[78.9876,26.6302],[78.9904,26.6171],[78.9977,26.6119],[78.9922,26.6082],[78.9942,26.6027],[79.0029,26.5987],[78.9876,26.5931],[78.9911,26.5774],[79.0002,26.5784],[79.0072,26.5655],[79.007,26.5582],[79.0143,26.5511],[79.007,26.5486],[79.0106,26.5436],[79.0146,26.5462],[79.0203,26.5416],[79.0272,26.547],[79.0293,26.5454],[79.0265,26.5373],[79.0278,26.5346],[79.0377,26.5316],[79.0401,26.5286],[79.0383,26.5185],[79.0418,26.5146],[79.0462,26.5182],[79.0486,26.5162],[79.0453,26.5095],[79.0535,26.5029],[79.0564,26.4951],[79.0679,26.4969],[79.0678,26.4854],[79.0738,26.4823],[79.0776,26.4867],[79.0845,26.4881],[79.0977,26.4852],[79.1026,26.4823],[79.1158,26.4846],[79.1208,26.4929],[79.1241,26.4915],[79.1266,26.4841],[79.1308,26.4874],[79.1356,26.4861],[79.1388,26.4777],[79.1375,26.4751],[79.1298,26.4735],[79.1271,26.4687],[79.1301,26.4653],[79.1361,26.466],[79.1394,26.4694],[79.146,26.4675],[79.15,26.4692],[79.1548,26.4665],[79.1556,26.4619],[79.1608,26.4573],[79.1754,26.4518],[79.1753,26.4488],[79.1631,26.4475],[79.1643,26.4428],[79.1757,26.4429],[79.1782,26.439],[79.1752,26.4349],[79.1829,26.4328],[79.1951,26.4268],[79.2002,26.4277],[79.2065,26.4358],[79.2123,26.4395],[79.2198,26.4381],[79.2245,26.4449],[79.2476,26.4534],[79.255,26.4553],[79.2631,26.4609],[79.2688,26.4698],[79.2715,26.4783],[79.2699,26.4852],[79.2645,26.4926],[79.2555,26.4945],[79.2484,26.4927],[79.2519,26.4988],[79.2699,26.509],[79.2841,26.5092],[79.2939,26.5112],[79.3044,26.5164],[79.3007,26.5248],[79.2901,26.5263],[79.2759,26.5198],[79.2552,26.5117],[79.244,26.5126],[79.2403,26.5361],[79.2356,26.5397],[79.213,26.5354],[79.2088,26.5359],[79.2054,26.5417],[79.2089,26.5476],[79.2182,26.548],[79.2147,26.5539],[79.2055,26.5558],[79.1955,26.5621],[79.1865,26.5696],[79.191,26.5787],[79.1894,26.5836],[79.1767,26.5846],[79.1461,26.5925],[79.1327,26.6035],[79.121,26.6],[79.1179,26.591],[79.1104,26.5808],[79.1043,26.5752],[79.0875,26.574],[79.0675,26.5838],[79.0604,26.5985],[79.0514,26.6032],[79.0378,26.6042],[79.0316,26.6121],[79.0253,26.6238],[79.0206,26.6288],[79.0154,26.6383],[79.0152,26.6464],[79.0102,26.6588],[79.013,26.6721],[78.9973,26.6837],[78.9962,26.6891],[78.9781,26.7081],[78.9666,26.7153],[78.9552,26.7165],[78.9417,26.702],[78.9356,26.6977],[78.9242,26.7033],[78.9136,26.7069],[78.9093,26.7068],[78.8999,26.7005],[78.892,26.6971],[78.8715,26.699],[78.8647,26.7025],[78.8516,26.7133],[78.8425,26.7278],[78.8299,26.7421],[78.8251,26.7531],[78.8165,26.7633],[78.8109,26.7634],[78.7944,26.7603],[78.7772,26.7586],[78.7707,26.7599],[78.7659,26.7639],[78.7634,26.7772],[78.7734,26.7695],[78.777,26.7818],[78.775,26.7854],[78.7619,26.7943],[78.7509,26.7959],[78.7397,26.7948],[78.7327,26.8041],[78.723,26.8059],[78.7137,26.8036],[78.6922,26.8006],[78.6772,26.7946],[78.6628,26.7788],[78.6557,26.7776],[78.6388,26.7807],[78.621,26.7814],[78.6113,26.7762],[78.604,26.7657],[78.5911,26.7619],[78.5855,26.7633],[78.5716,26.774],[78.5493,26.7827],[78.519,26.7973],[78.5105,26.7993],[78.4747,26.8012],[78.4655,26.8047],[78.4545,26.8211],[78.4404,26.8353],[78.4338,26.8382],[78.4223,26.8372],[78.4044,26.8333],[78.4008,26.8356],[78.3857,26.861],[78.3826,26.8678],[78.3746,26.8744],[78.3554,26.8783],[78.3421,26.8777],[78.3252,26.8715],[78.3023,26.8699],[78.2873,26.8649],[78.2757,26.8591],[78.2666,26.8513],[78.2639,26.8467],[78.2629,26.8294],[78.2597,26.8277],[78.2524,26.8294],[78.2348,26.8376],[78.2238,26.8389],[78.224,26.8303],[78.2119,26.8272],[78.2094,26.8356],[78.1775,26.8339],[78.1623,26.8304],[78.1578,26.8263],[78.1562,26.8146],[78.1623,26.8031],[78.1618,26.7976],[78.1582,26.7959],[78.1474,26.7997],[78.1415,26.8041],[78.1314,26.8084],[78.1225,26.809],[78.111,26.8061],[78.0982,26.7979],[78.0913,26.7858],[78.0889,26.7704],[78.0947,26.756],[78.0955,26.7509],[78.0879,26.7441],[78.0786,26.7333],[78.0764,26.7193],[78.0835,26.6916],[78.0831,26.6876],[78.0777,26.6836],[78.0652,26.6906],[78.045,26.6949],[78.0259,26.7016],[78,26.7026],[77.9899,26.6999],[77.9847,26.6962],[77.9719,26.681],[77.9546,26.672],[77.9388,26.6705],[77.9281,26.6706],[77.9048,26.6675],[77.8944,26.6638],[77.8878,26.6544],[77.8834,26.6298],[77.8779,26.624],[77.8721,26.6221],[77.8477,26.6202],[77.8411,26.6181],[77.8197,26.6058],[77.8154,26.6007],[77.8149,26.5924],[77.82,26.5813],[77.8214,26.5744],[77.8167,26.5628],[77.8129,26.5597],[77.7834,26.5612],[77.7695,26.5587],[77.7457,26.5503],[77.7326,26.544],[77.7248,26.5339],[77.7192,26.5138],[77.7084,26.5078],[77.6913,26.5098],[77.6831,26.5129],[77.6728,26.5115],[77.6543,26.4987],[77.6336,26.4902],[77.6219,26.4819],[77.6171,26.471],[77.6104,26.4614],[77.605,26.4583],[77.5909,26.4561],[77.5715,26.4474],[77.5553,26.4432],[77.5488,26.439],[77.5395,26.4279],[77.5265,26.4192],[77.5202,26.4185],[77.5,26.4202],[77.4837,26.4197],[77.4613,26.4137],[77.443,26.4132],[77.4288,26.4082],[77.425,26.4034],[77.426,26.395],[77.4298,26.382],[77.4349,26.372],[77.431,26.3693],[77.4102,26.3711],[77.3968,26.3682],[77.388,26.3687],[77.3835,26.3722],[77.3749,26.3745],[77.3637,26.3723],[77.3517,26.3664],[77.3286,26.3571],[77.3238,26.354],[77.3133,26.3408],[77.3003,26.3135],[77.2903,26.3009],[77.2722,26.2875],[77.2484,26.275],[77.2167,26.2545],[77.2106,26.2474],[77.2009,26.2421],[77.1968,26.2415],[77.1811,26.2468],[77.1736,26.2462],[77.159,26.2404],[77.1529,26.2402],[77.1426,26.2428],[77.1316,26.2416],[77.1116,26.2293],[77.1036,26.2197],[77.0953,26.2013],[77.0912,26.1955],[77.0847,26.1915],[77.0445,26.1856],[77.0401,26.1857],[77.0081,26.1653],[77.0014,26.1586],[76.996,26.1497],[76.9929,26.1401],[76.9827,26.137],[76.9661,26.1289],[76.9455,26.1147],[76.9392,26.1112],[76.9181,26.1081],[76.9101,26.1057],[76.894,26.0971],[76.8899,26.091],[76.8849,26.0743],[76.8741,26.0557],[76.8645,26.0466],[76.8429,26.0414],[76.8359,26.038],[76.8269,26.0296],[76.816,26.0139],[76.8068,26.0078],[76.7934,25.9935],[76.7885,25.9779],[76.7837,25.9681],[76.7811,25.9575],[76.7775,25.9524],[76.7715,25.9495],[76.7493,25.949],[76.7407,25.9462],[76.7375,25.9431],[76.7349,25.9288],[76.7296,25.9212],[76.7126,25.9124],[76.7031,25.9126],[76.6765,25.9188],[76.669,25.9196],[76.6498,25.9194],[76.6402,25.9182],[76.63,25.9134],[76.6233,25.9063],[76.6192,25.8962],[76.6166,25.8808],[76.6141,25.8784],[76.5962,25.8819],[76.5879,25.8816],[76.575,25.8735],[76.5601,25.8554],[76.5656,25.8474],[76.578,25.8655],[76.5882,25.8745],[76.5958,25.875],[76.6152,25.8681],[76.6238,25.8713],[76.6318,25.9],[76.6363,25.905],[76.6431,25.9083],[76.6711,25.9102],[76.6874,25.9074],[76.7072,25.9],[76.7153,25.9006],[76.7309,25.9055],[76.7408,25.912],[76.751,25.9164],[76.7581,25.9226],[76.7572,25.9268],[76.748,25.9322],[76.7462,25.9385],[76.7509,25.9413],[76.768,25.9383],[76.7795,25.9386],[76.791,25.9432],[76.8051,25.9609],[76.8082,25.9718],[76.8023,25.9773],[76.8052,25.9869],[76.8134,25.9978],[76.8255,26.0062],[76.8342,26.0205],[76.84,26.0261],[76.8571,26.0349],[76.8674,26.0333],[76.8781,26.0441],[76.8861,26.0492],[76.8897,26.0629],[76.8978,26.0744],[76.9018,26.0936],[76.916,26.0985],[76.9366,26.1018],[76.9392,26.1005],[76.9481,26.1029],[76.9535,26.1085],[76.9777,26.125],[76.9989,26.1301],[77.0027,26.1357],[77.0015,26.1416],[77.0084,26.1532],[77.0188,26.1603],[77.0232,26.1665],[77.0324,26.1729],[77.0555,26.1798],[77.0821,26.1792],[77.0916,26.1813],[77.1004,26.1859],[77.108,26.1987],[77.1119,26.202],[77.1143,26.2169],[77.1226,26.226],[77.1351,26.2334],[77.1425,26.2345],[77.155,26.232],[77.1687,26.2329],[77.1708,26.2373],[77.1784,26.2386],[77.1926,26.232],[77.2039,26.2301],[77.2131,26.2341],[77.2171,26.2403],[77.2301,26.2456],[77.2518,26.2598],[77.2706,26.2674],[77.2785,26.2755],[77.2864,26.2807],[77.2981,26.2908],[77.3167,26.3118],[77.3176,26.3173],[77.3144,26.3183],[77.3209,26.3333],[77.3305,26.3439],[77.3343,26.3414],[77.3425,26.3522],[77.3556,26.355],[77.3674,26.3638],[77.3765,26.3653],[77.3898,26.3567],[77.3978,26.361],[77.4178,26.3638],[77.4364,26.3611],[77.4443,26.3616],[77.4485,26.3677],[77.4462,26.3754],[77.4399,26.3842],[77.4353,26.3934],[77.4353,26.4013],[77.4395,26.4039],[77.4643,26.4046],[77.4879,26.4109],[77.501,26.4087],[77.5235,26.4073],[77.5382,26.4113],[77.5476,26.4178],[77.5547,26.4305],[77.5621,26.4368],[77.5704,26.4361],[77.5757,26.4381],[77.5886,26.4464],[77.6062,26.4499],[77.6149,26.4537],[77.6245,26.4643],[77.6274,26.4723],[77.6361,26.4808],[77.6494,26.4875],[77.6599,26.4912],[77.6755,26.503],[77.6852,26.5041],[77.6892,26.5002],[77.7127,26.4983],[77.7225,26.5],[77.7298,26.5052],[77.7352,26.514],[77.7388,26.5294],[77.7422,26.5361],[77.7471,26.5394],[77.758,26.5401],[77.7681,26.5475],[77.7834,26.5521],[77.8129,26.5472],[77.8255,26.5522],[77.8325,26.5615],[77.8357,26.5779],[77.8281,26.5893],[77.8274,26.5961],[77.8323,26.5993],[77.8358,26.6064],[77.8487,26.6123],[77.8555,26.6136],[77.8902,26.6131],[77.8967,26.6175],[77.8986,26.6328],[77.8971,26.65],[77.8984,26.6555],[77.9058,26.6598],[77.9149,26.6612],[77.9354,26.6604],[77.9447,26.6582],[77.9536,26.6592],[77.9597,26.6631],[77.9717,26.6672],[77.9845,26.6747],[77.989,26.6833],[77.9975,26.694],[78.018,26.6926],[78.0318,26.6864],[78.0508,26.6848],[78.06,26.6817],[78.0744,26.6706],[78.0788,26.6705],[78.0897,26.6745],[78.0952,26.6793],[78.0956,26.6952],[78.0921,26.715],[78.0959,26.7278],[78.1022,26.7377],[78.1093,26.7381],[78.1173,26.7416],[78.1235,26.747],[78.1238,26.7503],[78.1172,26.757],[78.1047,26.7608],[78.101,26.7744],[78.1027,26.7839],[78.1061,26.79],[78.1165,26.7966],[78.1258,26.7966],[78.1353,26.7945],[78.1561,26.7839],[78.1836,26.7838],[78.1874,26.79],[78.1868,26.7951],[78.179,26.8056],[78.1689,26.8126],[78.167,26.8168],[78.1692,26.8215],[78.1763,26.8258],[78.201,26.8217],[78.2103,26.8254]]]},"properties":{"id":"national-chambal-wls","name":"National Chambal Wildlife Sanctuary","category":"wls","area_km2":435}}]}