{"type":"FeatureCollection","features":[{"type":"Feature","geometry":{"type":"Polygon","coordinates":[[[80.1203,20.8953],[80.1309,20.8769],[80.1439,20.8882],[80.16,20.8983],[80.1706,20.8985],[80.1836,20.9012],[80.2017,20.9072],[80.2116,20.9149],[80.2235,20.9148],[80.2253,20.9061],[80.2341,20.905],[80.2409,20.9016],[80.2427,20.9088],[80.2401,20.9219],[80.2413,20.9293],[80.2399,20.9369],[80.2594,20.9641],[80.254,20.9863],[80.2489,20.9994],[80.2258,21.0044],[80.1952,21.008],[80.1976,21.0311],[80.1907,21.0423],[80.1664,21.0391],[80.1525,21.0343],[80.1437,21.0187],[80.1347,20.9931],[80.1264,20.9767],[80.127,20.9715],[80.132,20.9635],[80.1274,20.9535],[80.1304,20.9491],[80.131,20.9415],[80.1286,20.9362],[80.1157,20.9416],[80.1134,20.9407],[80.109,20.9048],[80.1106,20.8951],[80.115,20.8922],[80.1203,20.8953]]]},"properties":{"id":"nawegaon-np","name":"Nawegaon National Park","category":"np","area_km2":133.9}}]}