{"type":"FeatureCollection","features":[{"type":"Feature","geometry":{"type":"Polygon","coordinates":[[[80.2399,20.9369],[80.2546,20.9351],[80.2697,20.9305],[80.2847,20.9228],[80.2863,20.935],[80.2897,20.9391],[80.2996,20.9411],[80.3008,20.9434],[80.2943,20.9602],[80.301,20.9718],[80.3085,20.9692],[80.3053,20.963],[80.3058,20.956],[80.3099,20.9527],[80.3172,20.9407],[80.3168,20.9356],[80.3223,20.9253],[80.3373,20.9273],[80.3495,20.9255],[80.3541,20.9389],[80.3522,20.9553],[80.3535,20.9614],[80.3593,20.9687],[80.3624,20.9864],[80.3495,20.9857],[80.3417,20.9882],[80.335,20.9978],[80.3297,21],[80.3259,21.0091],[80.3119,21.011],[80.2949,21.0036],[80.2912,21.0038],[80.2906,21.0104],[80.2986,21.0182],[80.2992,21.036],[80.3038,21.0428],[80.3006,21.059],[80.2897,21.0577],[80.2844,21.0614],[80.2714,21.0632],[80.2617,21.0577],[80.2477,21.0557],[80.2393,21.0602],[80.2405,21.052],[80.2436,21.0494],[80.2426,21.0443],[80.2356,21.0443],[80.2317,21.0368],[80.2226,21.0371],[80.2167,21.0291],[80.1976,21.0311],[80.1952,21.008],[80.2258,21.0044],[80.2489,20.9994],[80.254,20.9863],[80.2594,20.9641],[80.2399,20.9369]]]},"properties":{"id":"nawegaon-wls","name":"Nawegaon Wildlife Sanctuary","category":"wls","area_km2":122.8}}]}