{"type":"FeatureCollection","features":[{"type":"Feature","geometry":{"type":"MultiPolygon","coordinates":[[[[80.1203,20.8953],[80.1309,20.8769],[80.1439,20.8882],[80.16,20.8983],[80.1706,20.8985],[80.1836,20.9012],[80.2017,20.9072],[80.2116,20.9149],[80.2235,20.9148],[80.2253,20.9061],[80.2341,20.905],[80.2409,20.9016],[80.2427,20.9088],[80.2401,20.9219],[80.2413,20.9293],[80.2399,20.9369],[80.2594,20.9641],[80.254,20.9863],[80.2489,20.9994],[80.2258,21.0044],[80.1952,21.008],[80.1976,21.0311],[80.1907,21.0423],[80.1664,21.0391],[80.1525,21.0343],[80.1437,21.0187],[80.1347,20.9931],[80.1264,20.9767],[80.127,20.9715],[80.132,20.9635],[80.1274,20.9535],[80.1304,20.9491],[80.131,20.9415],[80.1286,20.9362],[80.1157,20.9416],[80.1134,20.9407],[80.109,20.9048],[80.1106,20.8951],[80.115,20.8922],[80.1203,20.8953]]],[[[80.1901,21.3284],[80.1768,21.3182],[80.1734,21.3102],[80.1742,21.3027],[80.1674,21.2973],[80.156,21.2985],[80.1435,21.2915],[80.126,21.2876],[80.1168,21.3002],[80.1041,21.3054],[80.0892,21.3066],[80.0848,21.3094],[80.0791,21.3308],[80.081,21.3354],[80.0908,21.3377],[80.0973,21.3446],[80.0957,21.3513],[80.1011,21.3567],[80.1018,21.3848],[80.1042,21.3928],[80.1032,21.4057],[80.0896,21.4084],[80.0651,21.4083],[80.0636,21.4008],[80.061,21.3642],[80.062,21.3525],[80.048,21.3304],[80.0423,21.3277],[80.0455,21.3232],[80.0385,21.3244],[80.0314,21.3291],[80.0266,21.3371],[80.0098,21.3443],[80.0039,21.3504],[80.0001,21.3439],[80.0035,21.3314],[79.9921,21.3274],[79.9826,21.3285],[79.9782,21.3245],[79.9766,21.3166],[79.9795,21.307],[79.9775,21.3026],[79.9728,21.3017],[79.9691,21.2971],[79.9675,21.2906],[79.9704,21.279],[79.9693,21.2755],[79.9568,21.27],[80.0214,21.2241],[80.022,21.217],[80.0434,21.2106],[80.051,21.2018],[80.0613,21.1996],[80.0645,21.2023],[80.065,21.2111],[80.0676,21.2135],[80.0624,21.2198],[80.0618,21.2284],[80.0711,21.2271],[80.0673,21.2306],[80.0612,21.2419],[80.0608,21.2471],[80.0749,21.2516],[80.08,21.2486],[80.083,21.2434],[80.0834,21.2363],[80.0754,21.2239],[80.0771,21.2212],[80.0814,21.2304],[80.0883,21.237],[80.0863,21.2455],[80.0866,21.2549],[80.0917,21.2545],[80.1017,21.2456],[80.0994,21.2306],[80.1087,21.2207],[80.1092,21.2234],[80.1043,21.2319],[80.1171,21.2317],[80.12,21.2259],[80.1323,21.2283],[80.1347,21.2413],[80.1404,21.242],[80.1548,21.2395],[80.1552,21.2363],[80.1615,21.247],[80.1706,21.2555],[80.1732,21.2646],[80.1709,21.2697],[80.178,21.2923],[80.1763,21.2944],[80.1809,21.3094],[80.1901,21.3284]]]]},"properties":{"id":"nawegaon-nagzira-tr","name":"Nawegaon-Nagzira Tiger Reserve","category":"tr","area_km2":1894.9}}]}