{"type":"FeatureCollection","features":[{"type":"Feature","geometry":{"type":"Polygon","coordinates":[[[77.3826,9.3907],[77.3785,9.3834],[77.3782,9.3674],[77.3664,9.3476],[77.3529,9.3398],[77.3425,9.343],[77.338,9.3414],[77.3318,9.3349],[77.3355,9.3305],[77.3368,9.3245],[77.3339,9.3172],[77.3169,9.3024],[77.3189,9.2925],[77.3189,9.2786],[77.3129,9.2731],[77.3066,9.2546],[77.3047,9.2455],[77.3002,9.24],[77.3057,9.2232],[77.3019,9.2174],[77.2885,9.2054],[77.28,9.2023],[77.2751,9.1934],[77.2852,9.1867],[77.284,9.1559],[77.2775,9.1468],[77.2712,9.143],[77.2617,9.1299],[77.2545,9.1286],[77.2465,9.1197],[77.2361,9.1104],[77.2309,9.1097],[77.2229,9.1039],[77.2123,9.0856],[77.214,9.0784],[77.2126,9.0735],[77.2031,9.0643],[77.2001,9.0595],[77.2006,9.0516],[77.1958,9.0461],[77.1867,9.0511],[77.1806,9.0515],[77.1703,9.0492],[77.1623,9.0445],[77.1603,9.0343],[77.1556,9.0291],[77.1472,9.0265],[77.1442,9.0231],[77.1488,9.019],[77.1481,9.0124],[77.1521,9.0085],[77.1565,8.9996],[77.169,8.9947],[77.1725,8.9849],[77.1722,8.974],[77.1755,8.9717],[77.184,8.9718],[77.1881,8.9647],[77.1919,8.9539],[77.1854,8.9345],[77.1849,8.9289],[77.1895,8.9238],[77.1977,8.9235],[77.2135,8.919],[77.2188,8.9141],[77.2211,8.904],[77.2278,8.9036],[77.2384,8.8978],[77.2401,8.8945],[77.2375,8.8857],[77.2448,8.8801],[77.2552,8.8792],[77.259,8.8824],[77.2739,8.8864],[77.2912,8.8828],[77.3,8.8827],[77.3087,8.8768],[77.3221,8.8761],[77.3192,8.8887],[77.3141,8.8944],[77.3073,8.8977],[77.3021,8.9059],[77.2971,8.9058],[77.2929,8.9091],[77.286,8.9189],[77.2748,8.9246],[77.2694,8.9251],[77.2628,8.9201],[77.2598,8.9213],[77.2615,8.9264],[77.2578,8.93],[77.2508,8.9289],[77.2351,8.9301],[77.2308,8.9345],[77.2287,8.9453],[77.2242,8.9461],[77.2262,8.9528],[77.2173,8.955],[77.2128,8.9525],[77.2121,8.9459],[77.2075,8.947],[77.2104,8.9555],[77.2108,8.9651],[77.2167,8.9716],[77.2096,8.9775],[77.2023,8.98],[77.1955,8.9856],[77.1797,8.9895],[77.1798,8.9994],[77.1761,9.0036],[77.1644,9.0009],[77.1672,9.0097],[77.1659,9.0163],[77.173,9.0219],[77.1756,9.0283],[77.1847,9.0287],[77.1962,9.0266],[77.2026,9.0285],[77.2117,9.026],[77.218,9.0282],[77.2178,9.0372],[77.2208,9.0388],[77.2201,9.0469],[77.2236,9.0491],[77.2232,9.0545],[77.2133,9.0537],[77.2095,9.0578],[77.217,9.0652],[77.2209,9.0803],[77.2342,9.0818],[77.2426,9.0853],[77.2461,9.0763],[77.2556,9.0732],[77.2609,9.0775],[77.2612,9.0823],[77.2653,9.0851],[77.2786,9.0881],[77.2866,9.0822],[77.2923,9.0838],[77.2877,9.0904],[77.2961,9.0938],[77.3064,9.0922],[77.3168,9.087],[77.3204,9.0883],[77.3197,9.0928],[77.3138,9.1011],[77.3047,9.1196],[77.3046,9.1241],[77.3148,9.1276],[77.3198,9.1223],[77.324,9.123],[77.3236,9.1269],[77.3146,9.1412],[77.3173,9.1424],[77.3201,9.1503],[77.3247,9.1519],[77.3275,9.1444],[77.3325,9.1385],[77.3377,9.1359],[77.3495,9.134],[77.3606,9.1411],[77.3654,9.1457],[77.3795,9.152],[77.3886,9.154],[77.3958,9.1535],[77.4028,9.1561],[77.4013,9.1684],[77.3985,9.1719],[77.3897,9.1742],[77.3797,9.1749],[77.3787,9.1785],[77.3674,9.1822],[77.3628,9.1854],[77.3667,9.1897],[77.3702,9.1982],[77.3608,9.1981],[77.3551,9.1946],[77.3524,9.2063],[77.3584,9.2086],[77.3685,9.2081],[77.3718,9.2097],[77.3803,9.209],[77.3812,9.2237],[77.3713,9.2205],[77.3639,9.2243],[77.3613,9.2321],[77.3658,9.2349],[77.3737,9.2348],[77.3816,9.2322],[77.3868,9.2338],[77.3899,9.2441],[77.3941,9.2469],[77.4101,9.2493],[77.4164,9.2566],[77.4111,9.2607],[77.4021,9.2576],[77.3989,9.2644],[77.3926,9.2646],[77.394,9.2695],[77.4036,9.2724],[77.4056,9.2805],[77.3964,9.2861],[77.3939,9.2924],[77.3953,9.2972],[77.3897,9.3028],[77.3899,9.3077],[77.4018,9.3073],[77.41,9.3056],[77.4202,9.3115],[77.4246,9.321],[77.4251,9.3409],[77.4272,9.3463],[77.4326,9.3482],[77.4337,9.3534],[77.4303,9.3575],[77.4417,9.3638],[77.4437,9.3698],[77.4409,9.3758],[77.4348,9.3778],[77.4368,9.3812],[77.4346,9.3854],[77.4263,9.3906],[77.4241,9.3963],[77.4268,9.4009],[77.4208,9.4107],[77.4051,9.4163],[77.3983,9.4156],[77.3896,9.3998],[77.3826,9.3907]]]},"properties":{"id":"nellai-wls","name":"Nellai Wildlife Sanctuary","category":"wls","area_km2":356.7}}]}