{"type":"FeatureCollection","features":[{"type":"Feature","geometry":{"type":"Polygon","coordinates":[[[88.754,27.1416],[88.7479,27.1438],[88.7389,27.1362],[88.7268,27.1347],[88.7209,27.1381],[88.7091,27.136],[88.7045,27.1261],[88.69,27.1145],[88.6827,27.1054],[88.6821,27.0976],[88.6742,27.0996],[88.6707,27.0983],[88.6667,27.0855],[88.6731,27.0753],[88.6741,27.0706],[88.6833,27.0657],[88.6926,27.0672],[88.6953,27.0745],[88.6997,27.075],[88.7025,27.0711],[88.7228,26.9886],[88.7323,26.9739],[88.7455,26.9648],[88.7773,26.9882],[88.7847,26.9986],[88.7867,27.0087],[88.7853,27.0175],[88.7811,27.029],[88.7867,27.0393],[88.7891,27.0491],[88.7946,27.0592],[88.7952,27.0721],[88.7973,27.0795],[88.8005,27.0821],[88.815,27.0866],[88.8335,27.0895],[88.8354,27.0913],[88.844,27.1114],[88.8399,27.1164],[88.8336,27.1157],[88.8262,27.1217],[88.8197,27.1221],[88.8118,27.1268],[88.8041,27.1388],[88.784,27.1345],[88.7737,27.1353],[88.7642,27.1402],[88.754,27.1416]]]},"properties":{"id":"neora-valley-np","name":"Neora Valley National Park","category":"np","area_km2":159.9}}]}