{"type":"FeatureCollection","features":[{"type":"Feature","geometry":{"type":"Polygon","coordinates":[[[74.2219,15.203],[74.2174,15.2086],[74.2032,15.2144],[74.1968,15.2137],[74.2037,15.2047],[74.1968,15.2014],[74.1855,15.2023],[74.1837,15.194],[74.1776,15.1973],[74.1777,15.1921],[74.1854,15.1909],[74.185,15.1846],[74.1921,15.1863],[74.193,15.1969],[74.1975,15.197],[74.2007,15.1907],[74.2055,15.1867],[74.2059,15.1824],[74.1996,15.1818],[74.1987,15.1772],[74.207,15.175],[74.2036,15.1702],[74.2026,15.1605],[74.1963,15.1593],[74.1925,15.1614],[74.1936,15.1552],[74.2002,15.1554],[74.2078,15.1524],[74.2075,15.1463],[74.2184,15.1544],[74.2273,15.154],[74.2267,15.1399],[74.2231,15.1344],[74.2141,15.1271],[74.2139,15.1228],[74.2181,15.1168],[74.2094,15.1031],[74.2109,15.1002],[74.2203,15.102],[74.2228,15.0982],[74.2295,15.0969],[74.2359,15.0902],[74.2384,15.085],[74.2379,15.079],[74.2274,15.0749],[74.2236,15.0702],[74.2114,15.0828],[74.1725,15.0655],[74.165,15.0593],[74.1625,15.0498],[74.1633,15.0428],[74.1712,15.0123],[74.1807,14.9924],[74.1838,14.994],[74.1923,14.9917],[74.1981,14.9952],[74.2092,15.0069],[74.2101,15.0171],[74.2143,15.017],[74.2169,15.0235],[74.2145,15.0291],[74.217,15.032],[74.2115,15.0427],[74.2176,15.0443],[74.2298,15.034],[74.2318,15.0305],[74.2297,15.0201],[74.2315,15.0168],[74.2398,15.0171],[74.2407,15.0195],[74.2518,15.024],[74.2636,15.0211],[74.2717,15.0233],[74.2775,15.0186],[74.2836,15.024],[74.2832,15.0316],[74.2882,15.0368],[74.2965,15.0413],[74.2946,15.0492],[74.2902,15.0537],[74.2895,15.0649],[74.2807,15.0689],[74.2797,15.0881],[74.2726,15.0976],[74.2765,15.1054],[74.2825,15.1068],[74.2847,15.1139],[74.2836,15.1429],[74.2851,15.1491],[74.2956,15.1513],[74.3046,15.1637],[74.3142,15.1805],[74.3171,15.1836],[74.3161,15.1879],[74.3104,15.1947],[74.3099,15.2053],[74.3056,15.2098],[74.2962,15.2074],[74.2863,15.2015],[74.2773,15.2],[74.2779,15.194],[74.2662,15.1811],[74.2662,15.1721],[74.2614,15.1683],[74.2557,15.168],[74.2537,15.1652],[74.2427,15.1639],[74.2308,15.1667],[74.2302,15.173],[74.2243,15.1774],[74.2261,15.1808],[74.2264,15.1986],[74.2219,15.203]]]},"properties":{"id":"netravali-wls","name":"Netravali Wildlife Sanctuary","category":"wls","area_km2":211.1}}]}