{"type":"FeatureCollection","features":[{"type":"Feature","geometry":{"type":"MultiPolygon","coordinates":[[[[78.7942,20.9717],[78.7938,20.9778],[78.7759,20.975],[78.7664,20.9717],[78.7593,20.9717],[78.7522,20.9667],[78.7491,20.9559],[78.7311,20.9562],[78.7265,20.96],[78.7194,20.9581],[78.7149,20.9529],[78.7195,20.9483],[78.7247,20.9486],[78.7254,20.9425],[78.7304,20.9374],[78.7384,20.938],[78.7491,20.9231],[78.7579,20.9213],[78.7534,20.9132],[78.7613,20.9071],[78.7658,20.911],[78.7836,20.9101],[78.7871,20.9055],[78.7833,20.9012],[78.7892,20.8943],[78.8017,20.9026],[78.7995,20.9092],[78.8051,20.9126],[78.8249,20.9211],[78.822,20.9264],[78.8121,20.9229],[78.8088,20.9265],[78.8018,20.9289],[78.8011,20.9208],[78.7972,20.9171],[78.7921,20.9174],[78.7738,20.9284],[78.7678,20.9342],[78.7673,20.9394],[78.7739,20.9438],[78.7706,20.9483],[78.7726,20.9509],[78.7689,20.9574],[78.7646,20.9566],[78.7566,20.9626],[78.7651,20.9635],[78.7722,20.959],[78.7757,20.9616],[78.7781,20.9569],[78.7813,20.9641],[78.7864,20.959],[78.7889,20.963],[78.7936,20.9598],[78.801,20.96],[78.7962,20.9658],[78.7942,20.9717]]],[[[78.6051,21.0321],[78.5996,21.033],[78.5995,21.0517],[78.5963,21.0592],[78.591,21.0663],[78.5826,21.0709],[78.5694,21.0618],[78.5681,21.0571],[78.5769,21.0521],[78.5841,21.0413],[78.5768,21.034],[78.5772,21.0274],[78.5801,21.0237],[78.5777,21.0207],[78.5725,21.0046],[78.5693,20.9998],[78.5553,21.0043],[78.551,20.999],[78.5511,20.9823],[78.555,20.9764],[78.5605,20.991],[78.5633,20.9882],[78.5689,20.9756],[78.5761,20.9728],[78.584,20.9605],[78.5918,20.9537],[78.609,20.9562],[78.6207,20.951],[78.6282,20.9501],[78.6359,20.9531],[78.6317,20.9566],[78.6323,20.9602],[78.6408,20.9553],[78.649,20.9566],[78.6444,20.9491],[78.6548,20.9497],[78.6617,20.9556],[78.672,20.9569],[78.6694,20.9656],[78.6481,20.9667],[78.6325,20.9727],[78.634,20.9828],[78.6399,20.9962],[78.6366,21],[78.6413,21.0035],[78.6404,21.0118],[78.6421,21.0253],[78.6329,21.0233],[78.6267,21.0197],[78.6239,21.0277],[78.6285,21.032],[78.6264,21.0371],[78.6221,21.0384],[78.6208,21.0463],[78.629,21.0497],[78.6256,21.0551],[78.6188,21.0492],[78.612,21.0495],[78.6095,21.0434],[78.6088,21.0336],[78.6051,21.0321]],[[78.5933,21.0144],[78.6048,21.0143],[78.6058,21.0066],[78.5974,21.0057],[78.5933,21.0144]],[[78.6031,21.0032],[78.6082,21.0015],[78.5946,20.9961],[78.5953,20.9998],[78.6031,21.0032]],[[78.5848,21.0087],[78.5811,21.007],[78.5807,21.0142],[78.5925,21.0112],[78.5884,21.0073],[78.5848,21.0087]]],[[[78.6913,21.0676],[78.6816,21.0697],[78.6832,21.056],[78.6879,21.0479],[78.6843,21.0404],[78.6804,21.0388],[78.6761,21.0327],[78.6769,21.0298],[78.6853,21.0235],[78.6819,21.0199],[78.6902,21.0159],[78.7074,21.0036],[78.7187,20.9969],[78.7229,21.0034],[78.7159,21.0045],[78.7138,21.0085],[78.718,21.0116],[78.7218,21.019],[78.712,21.0227],[78.7088,21.0202],[78.7058,21.0234],[78.6949,21.0227],[78.6862,21.0254],[78.6828,21.0307],[78.7,21.03],[78.7116,21.0339],[78.7046,21.0368],[78.7068,21.0437],[78.6984,21.0461],[78.7076,21.0508],[78.7002,21.0612],[78.6913,21.0676]]]]},"properties":{"id":"new-bor-wls","name":"New Bor Wildlife Sanctuary","category":"wls","area_km2":60.7}}]}