{"type":"FeatureCollection","features":[{"type":"Feature","geometry":{"type":"Polygon","coordinates":[[[80.051,21.2018],[80.0434,21.2106],[80.022,21.217],[80.0214,21.2241],[79.9568,21.27],[79.9485,21.2683],[79.949,21.2755],[79.9463,21.2823],[79.9383,21.2922],[79.9307,21.2989],[79.9218,21.2981],[79.9154,21.2826],[79.9046,21.2723],[79.8932,21.2673],[79.8826,21.2713],[79.8781,21.2769],[79.868,21.2794],[79.8616,21.2775],[79.8674,21.2756],[79.8715,21.2714],[79.8706,21.2666],[79.8642,21.2665],[79.8641,21.2612],[79.8585,21.2576],[79.8643,21.2556],[79.8579,21.2541],[79.848,21.2557],[79.8423,21.2542],[79.8422,21.2465],[79.833,21.2422],[79.8245,21.2287],[79.854,21.2185],[79.8873,21.1979],[79.8962,21.1989],[79.902,21.1916],[79.9054,21.1797],[79.9093,21.1801],[79.9117,21.1864],[79.9179,21.1881],[79.9226,21.1867],[79.9289,21.1933],[79.9332,21.2046],[79.9417,21.2064],[79.9447,21.1998],[79.945,21.1929],[79.9424,21.1898],[79.9415,21.1817],[79.9448,21.1717],[79.9436,21.1675],[79.9514,21.1649],[79.9485,21.1695],[79.9509,21.1741],[79.957,21.1766],[79.9633,21.1759],[79.9752,21.1692],[79.9846,21.161],[79.9854,21.1556],[79.9932,21.1485],[80.0007,21.1506],[79.9988,21.1571],[80.0007,21.1598],[80.0069,21.1576],[80.0072,21.1472],[80.015,21.1441],[80.0151,21.1379],[80.0026,21.1298],[80.0077,21.1239],[80.0183,21.1232],[80.0127,21.1163],[80.0154,21.1108],[80.0245,21.1123],[80.0256,21.1212],[80.0243,21.1281],[80.0197,21.1368],[80.0236,21.145],[80.0217,21.1524],[80.0272,21.1657],[80.0284,21.1722],[80.0351,21.1893],[80.0469,21.1942],[80.051,21.2018]]]},"properties":{"id":"new-nagzira-wls","name":"New Nagzira Wildlife Sanctuary","category":"wls","area_km2":151.3}}]}