{"type":"FeatureCollection","features":[{"type":"Feature","geometry":{"type":"Polygon","coordinates":[[[77.2402,8.624],[77.2336,8.6284],[77.2215,8.6156],[77.2162,8.6077],[77.2114,8.5922],[77.1968,8.5807],[77.18,8.5734],[77.1687,8.5741],[77.1603,8.5642],[77.1652,8.552],[77.1624,8.5485],[77.1708,8.5387],[77.1728,8.5447],[77.1776,8.5492],[77.1737,8.552],[77.1859,8.5527],[77.1888,8.5456],[77.1928,8.5469],[77.1916,8.5534],[77.2004,8.5507],[77.1946,8.5483],[77.221,8.5389],[77.2084,8.5403],[77.1903,8.5443],[77.1852,8.5479],[77.1803,8.5476],[77.1743,8.5428],[77.1733,8.5376],[77.1779,8.5327],[77.1861,8.53],[77.1936,8.5224],[77.1942,8.517],[77.1907,8.5191],[77.1933,8.511],[77.2,8.5063],[77.2024,8.5016],[77.2102,8.506],[77.2134,8.5119],[77.2204,8.5117],[77.2309,8.5068],[77.2386,8.4959],[77.2436,8.4969],[77.2511,8.5054],[77.262,8.5066],[77.2652,8.512],[77.2667,8.5199],[77.275,8.5385],[77.2837,8.5467],[77.2822,8.5505],[77.2741,8.5597],[77.2749,8.5657],[77.2702,8.5725],[77.2668,8.5839],[77.2634,8.5886],[77.2568,8.591],[77.2543,8.5978],[77.2464,8.6036],[77.2519,8.6082],[77.2514,8.6202],[77.2489,8.6238],[77.2439,8.6218],[77.2402,8.624]]]},"properties":{"id":"neyyar-wls","name":"Neyyar Wildlife Sanctuary","category":"wls","area_km2":128}}]}