{"type":"FeatureCollection","features":[{"type":"Feature","geometry":{"type":"Polygon","coordinates":[[[92.8333,22.4022],[92.8358,22.3951],[92.8453,22.395],[92.8474,22.4074],[92.8443,22.4092],[92.8439,22.4205],[92.8417,22.4269],[92.8464,22.4327],[92.8432,22.4347],[92.8465,22.4403],[92.8443,22.4504],[92.8412,22.455],[92.8328,22.4559],[92.8158,22.4524],[92.8087,22.4443],[92.8049,22.4468],[92.8028,22.4568],[92.7979,22.4576],[92.7875,22.4522],[92.7873,22.4608],[92.7802,22.4637],[92.7835,22.4669],[92.7802,22.47],[92.7812,22.4815],[92.777,22.4894],[92.7802,22.4931],[92.7769,22.4981],[92.7696,22.5036],[92.7608,22.4976],[92.7582,22.4915],[92.7568,22.4812],[92.7604,22.4699],[92.7627,22.4562],[92.7669,22.4519],[92.7675,22.4466],[92.7455,22.4367],[92.7485,22.4241],[92.756,22.4221],[92.7593,22.4126],[92.7601,22.3898],[92.7641,22.3798],[92.7614,22.3684],[92.7639,22.3644],[92.7715,22.3628],[92.7791,22.3643],[92.7877,22.3565],[92.7898,22.3584],[92.8007,22.3572],[92.7968,22.3702],[92.7978,22.3824],[92.794,22.3905],[92.8036,22.3932],[92.8077,22.3895],[92.8106,22.381],[92.8138,22.3855],[92.8213,22.3878],[92.8333,22.4022]]]},"properties":{"id":"ngengpui-wls","name":"Ngengpui Wildlife Sanctuary","category":"wls","area_km2":110}}]}