{"type":"FeatureCollection","features":[{"type":"Feature","geometry":{"type":"MultiPolygon","coordinates":[[[[76.4593,11.1872],[76.4666,11.1933],[76.4735,11.1949],[76.4724,11.2088],[76.4828,11.2107],[76.5042,11.2119],[76.5083,11.2163],[76.5203,11.2225],[76.5187,11.228],[76.5236,11.232],[76.523,11.2381],[76.5263,11.2353],[76.5286,11.2433],[76.5352,11.2433],[76.5438,11.255],[76.5448,11.251],[76.5498,11.2553],[76.5437,11.2581],[76.5278,11.259],[76.5267,11.2631],[76.5335,11.2616],[76.5344,11.2671],[76.5396,11.2615],[76.54,11.2665],[76.5468,11.2763],[76.5575,11.2818],[76.5646,11.2909],[76.5605,11.2922],[76.5569,11.3096],[76.5579,11.3152],[76.5623,11.3167],[76.5722,11.3164],[76.5747,11.3219],[76.5835,11.3278],[76.5808,11.3336],[76.5858,11.3457],[76.5841,11.3489],[76.5742,11.3448],[76.5685,11.3454],[76.5638,11.342],[76.5617,11.3448],[76.5704,11.3547],[76.5712,11.3601],[76.5646,11.3576],[76.5685,11.3659],[76.5616,11.3647],[76.5701,11.373],[76.5594,11.3688],[76.5599,11.3736],[76.5536,11.3713],[76.5462,11.3718],[76.5379,11.3787],[76.5393,11.3852],[76.5328,11.3879],[76.5387,11.3911],[76.5344,11.3944],[76.5289,11.3911],[76.5239,11.3982],[76.5151,11.4016],[76.5069,11.4023],[76.5006,11.4051],[76.4925,11.4033],[76.4899,11.3884],[76.4813,11.382],[76.5176,11.3716],[76.515,11.3597],[76.5081,11.3542],[76.5478,11.3589],[76.5473,11.3455],[76.5499,11.331],[76.5372,11.3141],[76.5392,11.3047],[76.5456,11.3003],[76.5421,11.2967],[76.5267,11.2886],[76.5216,11.2706],[76.5125,11.2683],[76.487,11.2583],[76.4662,11.2452],[76.453,11.2394],[76.4489,11.2055],[76.4392,11.203],[76.433,11.2041],[76.4306,11.2073],[76.4204,11.2092],[76.4135,11.2073],[76.4081,11.2024],[76.4058,11.1868],[76.4091,11.1775],[76.4142,11.1719],[76.4122,11.1633],[76.4069,11.1537],[76.412,11.1475],[76.4148,11.1406],[76.4115,11.133],[76.4156,11.121],[76.4078,11.1141],[76.3914,11.1131],[76.3875,11.1097],[76.3913,11.0984],[76.3999,11.0954],[76.4077,11.0881],[76.4124,11.0876],[76.4259,11.0786],[76.4386,11.082],[76.4435,11.0873],[76.4436,11.0927],[76.4514,11.0999],[76.4631,11.1046],[76.4697,11.1122],[76.4796,11.1172],[76.4812,11.1305],[76.4875,11.1372],[76.4847,11.1417],[76.4759,11.1387],[76.4707,11.1408],[76.4715,11.154],[76.4739,11.1623],[76.4641,11.1695],[76.4618,11.1733],[76.4619,11.1843],[76.4593,11.1872]]],[[[76.4605,11.5821],[76.4671,11.5811],[76.4748,11.5746],[76.4854,11.5736],[76.5027,11.5673],[76.5057,11.5546],[76.5094,11.5528],[76.5127,11.5374],[76.5546,11.5352],[76.5663,11.5434],[76.5759,11.5429],[76.6042,11.5454],[76.6103,11.5505],[76.6281,11.5591],[76.6334,11.5668],[76.646,11.5729],[76.6488,11.5726],[76.6491,11.546],[76.6507,11.5408],[76.6603,11.5396],[76.6669,11.5426],[76.6736,11.5498],[76.6848,11.5549],[76.6883,11.5597],[76.6906,11.5681],[76.69,11.573],[76.6964,11.5745],[76.705,11.5722],[76.707,11.5741],[76.7042,11.5797],[76.7102,11.5845],[76.7163,11.5919],[76.7207,11.6011],[76.7254,11.5972],[76.737,11.602],[76.7466,11.6016],[76.75,11.6051],[76.7505,11.6164],[76.7568,11.6185],[76.7647,11.6142],[76.7701,11.6158],[76.7746,11.6124],[76.7914,11.6128],[76.7956,11.6088],[76.8091,11.6084],[76.8174,11.6048],[76.8227,11.6081],[76.8396,11.597],[76.8445,11.5962],[76.8486,11.5911],[76.8462,11.5855],[76.8472,11.5815],[76.8541,11.577],[76.8745,11.5807],[76.8832,11.5733],[76.892,11.5724],[76.8996,11.5758],[76.906,11.581],[76.9122,11.5756],[76.9161,11.5641],[76.9184,11.565],[76.9197,11.5769],[76.9251,11.5777],[76.9322,11.5744],[76.9391,11.5791],[76.9457,11.5729],[76.9534,11.5728],[76.9552,11.5694],[76.9608,11.5713],[76.9684,11.5643],[76.974,11.5654],[76.9732,11.5575],[76.9795,11.5534],[76.9843,11.5556],[76.9903,11.552],[76.9929,11.5471],[77.0077,11.5452],[77.0053,11.5363],[77.0095,11.5287],[77.0073,11.5231],[77.0148,11.5256],[77.0039,11.5137],[76.9979,11.5134],[76.994,11.5087],[76.9962,11.5],[76.9919,11.4916],[76.9923,11.4782],[77.0001,11.4735],[77.0086,11.457],[77.014,11.4503],[77.0179,11.4486],[77.0263,11.4526],[77.0398,11.4526],[77.0477,11.4618],[77.059,11.4602],[77.0619,11.4615],[77.0747,11.4552],[77.0751,11.4594],[77.0792,11.4608],[77.0749,11.4635],[77.0742,11.4682],[77.0697,11.4698],[77.0696,11.4761],[77.0663,11.4818],[77.0682,11.4884],[77.0687,11.4999],[77.0789,11.4979],[77.0961,11.4897],[77.1126,11.4932],[77.1145,11.4881],[77.1205,11.4872],[77.1229,11.4944],[77.1258,11.4959],[77.1379,11.4954],[77.1435,11.497],[77.142,11.5067],[77.1373,11.5079],[77.1261,11.5047],[77.1163,11.5056],[77.1137,11.5081],[77.1151,11.5157],[77.1124,11.5347],[77.1215,11.5358],[77.1222,11.5391],[77.1392,11.5396],[77.1426,11.5426],[77.1553,11.5428],[77.1597,11.5453],[77.1718,11.5421],[77.1785,11.5575],[77.1953,11.5794],[77.2009,11.58],[77.2048,11.5871],[77.2144,11.5838],[77.2174,11.5686],[77.2224,11.5627],[77.2223,11.5575],[77.2284,11.5528],[77.2534,11.5519],[77.2649,11.5553],[77.2667,11.5543],[77.2694,11.5425],[77.2773,11.5397],[77.2903,11.5454],[77.2927,11.5509],[77.2929,11.5603],[77.303,11.5692],[77.31,11.5716],[77.313,11.5694],[77.317,11.5542],[77.3158,11.5469],[77.3111,11.5395],[77.3177,11.5311],[77.3278,11.5258],[77.3436,11.525],[77.3454,11.5261],[77.3545,11.5436],[77.3597,11.5493],[77.3662,11.5648],[77.3744,11.5643],[77.3726,11.5509],[77.3687,11.5342],[77.3705,11.5282],[77.39,11.5275],[77.4084,11.5289],[77.4312,11.5371],[77.4338,11.5482],[77.4474,11.5616],[77.4503,11.567],[77.4525,11.5763],[77.4509,11.5934],[77.4589,11.6035],[77.4586,11.6068],[77.4497,11.6129],[77.4448,11.6197],[77.4409,11.6349],[77.4394,11.646],[77.4503,11.6542],[77.455,11.664],[77.4507,11.6692],[77.4398,11.6743],[77.4426,11.681],[77.4362,11.7034],[77.4422,11.7069],[77.44,11.7113],[77.4436,11.7131],[77.4403,11.7186],[77.4395,11.7146],[77.4356,11.7151],[77.4357,11.7313],[77.427,11.7327],[77.4239,11.7279],[77.4197,11.7287],[77.4186,11.7334],[77.4075,11.7301],[77.4081,11.7368],[77.407,11.7523],[77.4046,11.7609],[77.4044,11.7716],[77.4081,11.7717],[77.4124,11.7667],[77.4216,11.7602],[77.4221,11.7724],[77.4136,11.7748],[77.3953,11.7862],[77.3879,11.7885],[77.3691,11.7869],[77.3647,11.7903],[77.3599,11.7799],[77.3498,11.7754],[77.3348,11.7714],[77.3274,11.7756],[77.3126,11.7935],[77.2937,11.809],[77.2878,11.8005],[77.2746,11.803],[77.2733,11.8054],[77.2623,11.8097],[77.2498,11.813],[77.2494,11.8042],[77.2384,11.7947],[77.2293,11.7958],[77.2173,11.7954],[77.1891,11.7925],[77.1816,11.7863],[77.1474,11.782],[77.1379,11.7727],[77.1305,11.7737],[77.1228,11.7725],[77.1155,11.7747],[77.1107,11.7735],[77.1125,11.7657],[77.1123,11.7572],[77.1086,11.754],[77.1112,11.7504],[77.1116,11.7431],[77.1147,11.7389],[77.1141,11.7346],[77.1173,11.731],[77.1176,11.7213],[77.1147,11.7218],[77.1047,11.7329],[77.0802,11.7361],[77.0823,11.7402],[77.0711,11.7513],[77.0598,11.7642],[77.0564,11.7698],[77.0612,11.776],[77.0669,11.7784],[77.0696,11.7823],[77.0631,11.7903],[77.0503,11.7896],[77.0445,11.7861],[77.0399,11.7806],[77.0349,11.77],[77.0288,11.7746],[77.0282,11.7638],[77.0234,11.7548],[77.0194,11.7515],[77.0093,11.7514],[77.0052,11.7455],[76.9977,11.7407],[76.9947,11.7301],[76.9856,11.7172],[76.9703,11.7035],[76.9455,11.6732],[76.933,11.6617],[76.9035,11.6419],[76.8941,11.6393],[76.8885,11.636],[76.8804,11.6368],[76.8771,11.6472],[76.877,11.6603],[76.875,11.6717],[76.8764,11.6911],[76.876,11.707],[76.8789,11.7221],[76.8782,11.7262],[76.8715,11.7218],[76.8625,11.7111],[76.8635,11.7054],[76.8561,11.6976],[76.85,11.6867],[76.8472,11.678],[76.8449,11.6833],[76.8449,11.6979],[76.8436,11.7007],[76.8372,11.7009],[76.8253,11.6919],[76.8097,11.6843],[76.8114,11.678],[76.8081,11.6743],[76.7964,11.6723],[76.774,11.6764],[76.7696,11.6752],[76.763,11.6687],[76.7471,11.666],[76.7438,11.6639],[76.7361,11.6462],[76.7235,11.6391],[76.7208,11.6341],[76.6999,11.6353],[76.6936,11.6338],[76.6851,11.6257],[76.6869,11.619],[76.6821,11.617],[76.6666,11.6256],[76.6606,11.6308],[76.6584,11.6376],[76.645,11.6382],[76.6471,11.6474],[76.6455,11.6586],[76.6498,11.6658],[76.6674,11.6632],[76.677,11.6599],[76.6786,11.6635],[76.6704,11.6775],[76.6548,11.6769],[76.6514,11.6783],[76.6449,11.6882],[76.6178,11.7035],[76.6165,11.7074],[76.6346,11.7058],[76.6407,11.7118],[76.6407,11.7181],[76.6291,11.7188],[76.6303,11.7255],[76.596,11.7277],[76.5921,11.7332],[76.5764,11.7476],[76.5541,11.7483],[76.5477,11.7631],[76.5458,11.772],[76.5489,11.7758],[76.5447,11.7793],[76.5403,11.7892],[76.551,11.7884],[76.5568,11.7953],[76.5666,11.802],[76.5626,11.8087],[76.5626,11.8183],[76.5657,11.8478],[76.5658,11.8569],[76.5606,11.86],[76.5652,11.8803],[76.5899,11.9268],[76.5889,11.9289],[76.5777,11.9279],[76.5739,11.9205],[76.5651,11.9158],[76.558,11.9157],[76.5467,11.9183],[76.5449,11.9161],[76.5453,11.901],[76.5384,11.8924],[76.5281,11.8888],[76.5205,11.8924],[76.5183,11.9164],[76.5115,11.9343],[76.5083,11.935],[76.5027,11.9283],[76.5033,11.901],[76.4965,11.8943],[76.484,11.8798],[76.473,11.8782],[76.4657,11.8741],[76.4399,11.8537],[76.4393,11.851],[76.4467,11.8194],[76.4385,11.8187],[76.422,11.8277],[76.4206,11.8329],[76.4084,11.8357],[76.4079,11.8523],[76.4116,11.8664],[76.4091,11.8757],[76.4122,11.8867],[76.4249,11.8914],[76.4284,11.8977],[76.4275,11.9042],[76.4342,11.9155],[76.4322,11.9199],[76.4354,11.926],[76.4402,11.9264],[76.4304,11.9317],[76.4378,11.9332],[76.4391,11.9358],[76.4335,11.9395],[76.4384,11.94],[76.4412,11.9444],[76.4366,11.9437],[76.4339,11.9493],[76.4215,11.9487],[76.4206,11.9413],[76.4154,11.9335],[76.402,11.9205],[76.3846,11.9191],[76.3825,11.9172],[76.3886,11.9075],[76.4007,11.9077],[76.4023,11.9035],[76.3904,11.8887],[76.3919,11.8663],[76.3843,11.8579],[76.3793,11.8551],[76.3643,11.8528],[76.3573,11.856],[76.3455,11.8573],[76.3435,11.8765],[76.3389,11.883],[76.3402,11.8896],[76.349,11.9012],[76.3533,11.9115],[76.3521,11.9159],[76.3316,11.924],[76.3166,11.9223],[76.3118,11.9133],[76.3093,11.9015],[76.3019,11.9012],[76.2824,11.9043],[76.2704,11.9008],[76.2658,11.9053],[76.253,11.9083],[76.2267,11.91],[76.2242,11.9117],[76.2307,11.9165],[76.2264,11.9273],[76.2287,11.933],[76.2374,11.9325],[76.2382,11.9464],[76.2459,11.9474],[76.2592,11.9433],[76.2657,11.9453],[76.2662,11.9583],[76.2707,11.9821],[76.2779,11.9835],[76.2868,11.997],[76.2872,12.0094],[76.2799,12.0134],[76.273,12.0147],[76.2619,12.0145],[76.2598,12.0181],[76.2623,12.0271],[76.2578,12.0319],[76.2552,12.0393],[76.2457,12.0468],[76.2465,12.0498],[76.2537,12.0515],[76.2555,12.057],[76.252,12.0736],[76.2531,12.0757],[76.2648,12.077],[76.2781,12.0866],[76.2645,12.0968],[76.2546,12.0972],[76.2486,12.0931],[76.2412,12.0829],[76.2344,12.0829],[76.2253,12.0997],[76.2215,12.1087],[76.215,12.1291],[76.2182,12.1416],[76.2364,12.153],[76.2435,12.1588],[76.2427,12.1711],[76.2396,12.1784],[76.2423,12.1858],[76.2495,12.1914],[76.2575,12.2008],[76.2541,12.2036],[76.2466,12.2014],[76.2435,12.2032],[76.2388,12.2117],[76.2409,12.2181],[76.2369,12.2207],[76.23,12.2143],[76.2146,12.2131],[76.2067,12.2182],[76.2028,12.2109],[76.2042,12.2072],[76.2226,12.1949],[76.2235,12.1912],[76.2203,12.1874],[76.2128,12.1843],[76.2048,12.1736],[76.1965,12.1703],[76.1943,12.176],[76.1829,12.185],[76.1676,12.1848],[76.1602,12.1821],[76.1495,12.1847],[76.1403,12.182],[76.1376,12.183],[76.132,12.1988],[76.1219,12.2057],[76.1213,12.2102],[76.1254,12.2141],[76.1194,12.2234],[76.1135,12.227],[76.107,12.2363],[76.0952,12.2407],[76.0968,12.2514],[76.0938,12.2595],[76.0863,12.2566],[76.074,12.255],[76.0697,12.25],[76.0632,12.2485],[76.0384,12.2322],[76.0305,12.2312],[76.021,12.2257],[76.0205,12.2182],[76.0121,12.2191],[76.0061,12.2228],[76.0016,12.2205],[76.0026,12.2103],[76.0118,12.2116],[76.0167,12.2041],[76.0101,12.199],[76.0112,12.1899],[76.0288,12.1851],[76.0322,12.18],[76.0362,12.1788],[76.0409,12.1846],[76.0464,12.186],[76.0434,12.1824],[76.0464,12.1758],[76.0523,12.1775],[76.0587,12.1689],[76.0608,12.1631],[76.0728,12.163],[76.0833,12.169],[76.0975,12.1673],[76.0993,12.163],[76.0977,12.1576],[76.0886,12.1463],[76.0857,12.1364],[76.0835,12.1204],[76.0808,12.1093],[76.0743,12.1047],[76.0716,12.0985],[76.0662,12.0927],[76.0521,12.0987],[76.053,12.0903],[76.0585,12.0818],[76.0581,12.0745],[76.048,12.0704],[76.0417,12.0631],[76.0436,12.0599],[76.052,12.0591],[76.0541,12.055],[76.0527,12.0428],[76.0462,12.0347],[76.0459,12.0287],[76.0557,12.0221],[76.0619,12.0154],[76.0695,12.0133],[76.0722,12.0077],[76.0717,11.9945],[76.0762,11.9918],[76.0729,11.989],[76.0725,11.9836],[76.0887,11.9767],[76.0933,11.9685],[76.1045,11.9757],[76.1124,11.9788],[76.1125,11.9314],[76.1133,11.895],[76.1117,11.8876],[76.1148,11.8667],[76.1127,11.8585],[76.1172,11.8578],[76.1199,11.8504],[76.1308,11.8533],[76.1459,11.867],[76.1494,11.8665],[76.1574,11.8705],[76.1647,11.8676],[76.1735,11.8712],[76.1799,11.8702],[76.1903,11.8713],[76.1983,11.8666],[76.2019,11.8625],[76.2068,11.862],[76.2117,11.8404],[76.2096,11.8282],[76.2181,11.8187],[76.2176,11.8016],[76.2212,11.793],[76.2212,11.7824],[76.2249,11.7677],[76.2209,11.7523],[76.2258,11.7341],[76.2208,11.7198],[76.2216,11.7074],[76.2261,11.696],[76.2268,11.6874],[76.2319,11.6803],[76.2505,11.6698],[76.2566,11.6694],[76.2527,11.6809],[76.2533,11.6882],[76.2634,11.7069],[76.2726,11.7129],[76.2885,11.7129],[76.3084,11.6903],[76.3191,11.6844],[76.3244,11.678],[76.3339,11.6745],[76.3384,11.6703],[76.3381,11.6583],[76.3296,11.6469],[76.3282,11.64],[76.3293,11.6234],[76.3325,11.6124],[76.3322,11.6042],[76.339,11.5968],[76.3435,11.5886],[76.3534,11.5897],[76.358,11.5919],[76.3586,11.5885],[76.3657,11.5832],[76.3821,11.5839],[76.3873,11.5801],[76.3897,11.5749],[76.3972,11.5728],[76.3999,11.5698],[76.4103,11.5685],[76.4149,11.5645],[76.4148,11.5705],[76.4223,11.5721],[76.4275,11.5782],[76.4479,11.5784],[76.4605,11.5821]]],[[[75.8376,11.9817],[75.83,11.9837],[75.8291,11.9752],[75.8234,11.9743],[75.8122,11.962],[75.7942,11.9617],[75.7946,11.956],[75.8045,11.9534],[75.8109,11.9476],[75.8074,11.9415],[75.8013,11.942],[75.7935,11.9309],[75.7952,11.9289],[75.7907,11.9226],[75.7932,11.921],[75.8021,11.9266],[75.801,11.9327],[75.8049,11.9337],[75.8139,11.9307],[75.8194,11.9312],[75.8225,11.9282],[75.827,11.9307],[75.8402,11.9313],[75.8427,11.9293],[75.8494,11.9307],[75.8545,11.9294],[75.865,11.931],[75.8787,11.9278],[75.8862,11.9236],[75.895,11.9209],[75.9168,11.9192],[75.9239,11.9202],[75.9251,11.9301],[75.9281,11.9349],[75.9366,11.9342],[75.937,11.94],[75.9307,11.9391],[75.9292,11.9413],[75.9134,11.9462],[75.8968,11.9447],[75.8865,11.9505],[75.8797,11.949],[75.8665,11.9565],[75.8584,11.9589],[75.8541,11.9637],[75.8529,11.9702],[75.8477,11.9741],[75.8495,11.9781],[75.8468,11.9821],[75.8376,11.9817]]],[[[77.1315,11.4469],[77.1291,11.4592],[77.1288,11.4671],[77.1195,11.4684],[77.1193,11.4613],[77.1066,11.4548],[77.1032,11.4558],[77.096,11.4508],[77.0884,11.4328],[77.077,11.4033],[77.0896,11.4051],[77.0955,11.4016],[77.1036,11.4027],[77.1072,11.406],[77.1093,11.4133],[77.1149,11.4151],[77.1138,11.4079],[77.1239,11.4073],[77.1332,11.414],[77.1362,11.4125],[77.1362,11.4064],[77.1399,11.4084],[77.141,11.4263],[77.15,11.4309],[77.1734,11.4323],[77.1865,11.4312],[77.1909,11.4335],[77.203,11.4308],[77.2052,11.435],[77.1949,11.4397],[77.1927,11.4434],[77.1954,11.4505],[77.184,11.451],[77.1804,11.4455],[77.1689,11.4365],[77.1634,11.4355],[77.1604,11.4605],[77.1544,11.4683],[77.1525,11.465],[77.1564,11.4609],[77.156,11.4568],[77.1487,11.4533],[77.1512,11.4425],[77.1341,11.434],[77.1306,11.4397],[77.1315,11.4469]]],[[[76.923,11.7018],[76.9255,11.6994],[76.9332,11.7033],[76.9408,11.719],[76.9364,11.7316],[76.9223,11.7308],[76.9204,11.7272],[76.9209,11.7153],[76.923,11.7018]]]]},"properties":{"id":"nilgiri-br","name":"Nilgiri Biosphere Reserve","category":"br","area_km2":5520}}]}