{"type":"FeatureCollection","features":[{"type":"Feature","geometry":{"type":"Polygon","coordinates":[[[90.29,25.495],[90.2672,25.5094],[90.2612,25.5107],[90.2565,25.5066],[90.255,25.499],[90.257,25.4902],[90.2651,25.4819],[90.3002,25.4635],[90.3146,25.4581],[90.3283,25.4544],[90.3563,25.4494],[90.3739,25.4475],[90.4241,25.4449],[90.4493,25.4408],[90.4853,25.438],[90.4963,25.4418],[90.4885,25.447],[90.455,25.4575],[90.4378,25.4602],[90.4192,25.4662],[90.4025,25.4684],[90.384,25.4671],[90.374,25.4704],[90.3632,25.4711],[90.349,25.4689],[90.3411,25.4699],[90.3182,25.4778],[90.3093,25.4816],[90.29,25.495]]]},"properties":{"id":"nokrek-br","name":"Nokrek Biosphere Reserve","category":"br","area_km2":820}}]}