{"type":"FeatureCollection","features":[{"type":"Feature","geometry":{"type":"Polygon","coordinates":[[[91.7889,25.8899],[91.7884,25.8846],[91.7377,25.862],[91.7391,25.8437],[91.7522,25.8307],[91.7632,25.8327],[91.7914,25.849],[91.7995,25.8565],[91.7971,25.8669],[91.7986,25.8715],[91.8092,25.8772],[91.8132,25.8845],[91.8123,25.8984],[91.7887,25.9178],[91.7773,25.9288],[91.7729,25.9255],[91.77,25.9095],[91.7744,25.9011],[91.7793,25.8991],[91.7889,25.8899]]]},"properties":{"id":"nongkhyllem-wls","name":"Nongkhyllem Wildlife Sanctuary","category":"wls","area_km2":29}}]}