{"type":"FeatureCollection","features":[{"type":"Feature","geometry":{"type":"Polygon","coordinates":[[[79.3052,23.6882],[79.3057,23.692],[79.2763,23.7069],[79.2726,23.7079],[79.267,23.7027],[79.2651,23.6959],[79.2612,23.6914],[79.2527,23.6896],[79.2436,23.6712],[79.2367,23.6676],[79.2421,23.6638],[79.2431,23.6598],[79.2319,23.6581],[79.2263,23.6523],[79.2237,23.642],[79.2184,23.6411],[79.209,23.6352],[79.2162,23.6306],[79.2145,23.6244],[79.2156,23.6163],[79.2092,23.6117],[79.1932,23.6169],[79.191,23.6264],[79.1768,23.6221],[79.1735,23.6162],[79.1729,23.6085],[79.1766,23.6049],[79.1859,23.6008],[79.1828,23.5914],[79.1751,23.5925],[79.1736,23.5903],[79.1765,23.5676],[79.1828,23.556],[79.1821,23.5491],[79.164,23.5413],[79.1535,23.5326],[79.1516,23.5286],[79.1616,23.5276],[79.1726,23.5308],[79.1784,23.5283],[79.1752,23.5227],[79.1758,23.5171],[79.1515,23.5049],[79.1419,23.5023],[79.1459,23.5083],[79.1434,23.5114],[79.1318,23.5137],[79.1278,23.5042],[79.1329,23.4952],[79.133,23.488],[79.1374,23.4832],[79.1469,23.4808],[79.1504,23.4737],[79.141,23.4705],[79.1368,23.464],[79.1283,23.4588],[79.1282,23.4475],[79.1228,23.4394],[79.1275,23.4313],[79.1328,23.4282],[79.1326,23.4221],[79.1286,23.4163],[79.1343,23.4125],[79.1315,23.4085],[79.1266,23.4102],[79.1175,23.4088],[79.1205,23.398],[79.1087,23.4022],[79.1073,23.3995],[79.0964,23.3917],[79.0922,23.3803],[79.0882,23.3757],[79.0877,23.3703],[79.0977,23.3626],[79.1059,23.3594],[79.1096,23.3555],[79.1107,23.3491],[79.1035,23.3418],[79.1109,23.3321],[79.1107,23.3289],[79.1038,23.3249],[79.106,23.317],[79.1126,23.3138],[79.1156,23.309],[79.1155,23.2995],[79.111,23.2938],[79.1118,23.2858],[79.1035,23.2635],[79.1138,23.2586],[79.1098,23.2475],[79.1062,23.2435],[79.096,23.2423],[79.093,23.2473],[79.0887,23.246],[79.0871,23.241],[79.0796,23.2438],[79.0688,23.2394],[79.0716,23.2347],[79.0789,23.2344],[79.0819,23.2313],[79.0771,23.2277],[79.0666,23.2285],[79.0634,23.2258],[79.0658,23.2218],[79.0623,23.209],[79.0723,23.2074],[79.0765,23.2128],[79.0758,23.2174],[79.0903,23.2172],[79.0909,23.2105],[79.0971,23.2085],[79.0768,23.2029],[79.0723,23.1984],[79.0791,23.1939],[79.0833,23.1848],[79.0896,23.1797],[79.0879,23.1739],[79.0918,23.1664],[79.0991,23.1666],[79.1012,23.1632],[79.0976,23.1602],[79.0995,23.1543],[79.109,23.1455],[79.1045,23.1414],[79.1054,23.1384],[79.1183,23.1347],[79.1187,23.1221],[79.1076,23.1119],[79.1098,23.0969],[79.1182,23.0935],[79.119,23.1004],[79.1228,23.1008],[79.1277,23.1067],[79.1329,23.1057],[79.135,23.1017],[79.1421,23.1052],[79.1575,23.1077],[79.1678,23.1115],[79.1804,23.1132],[79.2178,23.1142],[79.2422,23.1164],[79.2593,23.1126],[79.2775,23.1142],[79.2883,23.1227],[79.3076,23.1268],[79.3213,23.1407],[79.3561,23.1587],[79.3893,23.1767],[79.4457,23.2123],[79.4677,23.2354],[79.4394,23.2683],[79.4178,23.2713],[79.4095,23.2819],[79.3905,23.2807],[79.3795,23.272],[79.3762,23.2664],[79.359,23.2621],[79.3492,23.2489],[79.3425,23.2482],[79.3391,23.2549],[79.3301,23.2468],[79.3219,23.2427],[79.3181,23.2387],[79.303,23.2328],[79.3017,23.2405],[79.3089,23.2511],[79.3011,23.2508],[79.3015,23.2577],[79.3042,23.2608],[79.3067,23.271],[79.3033,23.2769],[79.2978,23.2797],[79.2873,23.2816],[79.2793,23.2885],[79.2798,23.2922],[79.2941,23.3043],[79.3005,23.3069],[79.3143,23.306],[79.3204,23.3042],[79.3298,23.2902],[79.3341,23.2943],[79.3262,23.3049],[79.32,23.3109],[79.3146,23.32],[79.31,23.3222],[79.3064,23.3279],[79.3161,23.3322],[79.3263,23.3338],[79.3359,23.3381],[79.3258,23.3416],[79.3241,23.346],[79.3307,23.356],[79.335,23.3706],[79.343,23.3821],[79.334,23.3777],[79.3302,23.3797],[79.3303,23.3718],[79.32,23.368],[79.3141,23.3676],[79.3146,23.3734],[79.3191,23.3757],[79.3144,23.3845],[79.3031,23.3778],[79.2964,23.3854],[79.2931,23.3845],[79.2877,23.3778],[79.2803,23.3755],[79.2762,23.3694],[79.2676,23.3665],[79.2563,23.3672],[79.2485,23.3715],[79.2534,23.3762],[79.2666,23.3807],[79.267,23.3861],[79.2572,23.3847],[79.2494,23.3975],[79.2522,23.4017],[79.2609,23.4023],[79.2655,23.4073],[79.265,23.4106],[79.2699,23.421],[79.2739,23.4236],[79.2868,23.4252],[79.2911,23.4299],[79.3033,23.4279],[79.3122,23.4333],[79.3242,23.4354],[79.3288,23.44],[79.3323,23.4504],[79.3315,23.4559],[79.3251,23.4597],[79.3276,23.4667],[79.332,23.4651],[79.3363,23.4709],[79.3346,23.478],[79.3373,23.4835],[79.3416,23.4828],[79.3421,23.4779],[79.3453,23.4834],[79.3493,23.4817],[79.3538,23.4841],[79.3527,23.4928],[79.3598,23.4994],[79.3516,23.5028],[79.3543,23.5087],[79.3533,23.515],[79.3494,23.5204],[79.3514,23.5254],[79.3656,23.5282],[79.3708,23.5279],[79.3755,23.5381],[79.3767,23.556],[79.3848,23.5623],[79.3798,23.5701],[79.3694,23.5789],[79.3555,23.5816],[79.3556,23.5773],[79.3449,23.575],[79.3377,23.5591],[79.3336,23.5565],[79.3318,23.5454],[79.3295,23.5428],[79.3197,23.5418],[79.3134,23.5468],[79.3172,23.5628],[79.3119,23.5628],[79.3162,23.5663],[79.3137,23.5733],[79.315,23.5781],[79.3094,23.5825],[79.3046,23.5815],[79.3035,23.5693],[79.2962,23.5741],[79.2969,23.5811],[79.3042,23.5856],[79.304,23.5912],[79.2986,23.5952],[79.2891,23.5949],[79.2883,23.6064],[79.2946,23.6007],[79.3014,23.6014],[79.3065,23.6048],[79.3116,23.5986],[79.3138,23.6027],[79.3194,23.6055],[79.3169,23.611],[79.3177,23.616],[79.3245,23.6175],[79.3236,23.6239],[79.3273,23.6252],[79.3284,23.6185],[79.3272,23.6107],[79.3311,23.6072],[79.3284,23.6004],[79.329,23.5933],[79.3256,23.5927],[79.3261,23.5869],[79.3363,23.5914],[79.3456,23.5929],[79.3466,23.6006],[79.3393,23.6031],[79.3448,23.607],[79.35,23.6068],[79.3541,23.6135],[79.3536,23.6222],[79.3593,23.6291],[79.3573,23.6354],[79.3607,23.6391],[79.3592,23.6478],[79.3554,23.6541],[79.349,23.6595],[79.343,23.655],[79.3277,23.6491],[79.3207,23.6504],[79.313,23.6584],[79.3218,23.656],[79.3182,23.6667],[79.3211,23.6678],[79.3238,23.6567],[79.339,23.6551],[79.3459,23.6599],[79.3516,23.6698],[79.3099,23.69],[79.3052,23.6882]],[[79.309,23.6259],[79.3129,23.6253],[79.3063,23.6213],[79.3085,23.6143],[79.3025,23.6144],[79.2985,23.6174],[79.301,23.6206],[79.2952,23.6217],[79.3009,23.6257],[79.306,23.6231],[79.309,23.6259]],[[79.2118,23.5331],[79.2104,23.5404],[79.2143,23.547],[79.2231,23.543],[79.2276,23.5363],[79.2407,23.5407],[79.2366,23.5361],[79.2337,23.5225],[79.226,23.5211],[79.2241,23.5155],[79.2174,23.5153],[79.2153,23.5251],[79.2118,23.5331]],[[79.2697,23.4984],[79.2722,23.5011],[79.2759,23.4936],[79.2677,23.4893],[79.2601,23.493],[79.2581,23.497],[79.266,23.5031],[79.2697,23.4984]]]},"properties":{"id":"noradehi-wls","name":"Noradehi Wildlife Sanctuary","category":"wls","area_km2":1197}}]}