{"type":"FeatureCollection","features":[{"type":"Feature","geometry":{"type":"Polygon","coordinates":[[[76.446,11.9653],[76.4447,11.9669],[76.4421,11.988],[76.4373,11.981],[76.4349,11.9669],[76.4304,11.9641],[76.434,11.9584],[76.4324,11.9557],[76.4382,11.9536],[76.4339,11.9493],[76.4366,11.9437],[76.4412,11.9444],[76.4384,11.94],[76.4335,11.9395],[76.4391,11.9358],[76.4378,11.9332],[76.4304,11.9317],[76.4402,11.9264],[76.4381,11.9245],[76.4397,11.9102],[76.4349,11.911],[76.436,11.9038],[76.4316,11.8877],[76.4444,11.8818],[76.4507,11.8865],[76.4507,11.8976],[76.4556,11.8998],[76.4642,11.8968],[76.4689,11.9052],[76.4746,11.9029],[76.4718,11.9143],[76.4706,11.9346],[76.4734,11.9439],[76.4647,11.9445],[76.4583,11.9474],[76.4557,11.9526],[76.464,11.9594],[76.461,11.9722],[76.451,11.9688],[76.446,11.9653]]]},"properties":{"id":"nugu-wls","name":"Nugu Wildlife Sanctuary","category":"wls","area_km2":30.3}}]}