{"type":"FeatureCollection","features":[{"type":"Feature","geometry":{"type":"Polygon","coordinates":[[[92.2524,26.511],[92.2467,26.5007],[92.2489,26.4942],[92.2543,26.49],[92.2713,26.5049],[92.2721,26.5116],[92.2803,26.5173],[92.289,26.5125],[92.3104,26.5203],[92.3214,26.5267],[92.3281,26.5287],[92.3432,26.5304],[92.3468,26.5326],[92.3513,26.541],[92.3634,26.5436],[92.3726,26.5491],[92.3798,26.5497],[92.4061,26.561],[92.4093,26.5701],[92.418,26.5774],[92.4078,26.5792],[92.4036,26.5845],[92.3879,26.5828],[92.3851,26.5772],[92.3702,26.572],[92.3689,26.5758],[92.3568,26.582],[92.3549,26.5867],[92.3418,26.5906],[92.3349,26.5974],[92.324,26.5948],[92.29,26.5807],[92.2907,26.5701],[92.2887,26.5648],[92.2801,26.5577],[92.2743,26.544],[92.2496,26.5257],[92.256,26.5254],[92.2524,26.511]]]},"properties":{"id":"orang-np","name":"Orang National Park","category":"np","area_km2":78.8}}]}