{"type":"FeatureCollection","features":[{"type":"Feature","geometry":{"type":"Polygon","coordinates":[[[78.6567,25.3737],[78.6539,25.3705],[78.6493,25.359],[78.6507,25.3528],[78.6491,25.3449],[78.6441,25.3446],[78.6395,25.3403],[78.6216,25.3348],[78.6168,25.3265],[78.6078,25.3202],[78.6008,25.3107],[78.5996,25.2994],[78.5927,25.2821],[78.5929,25.271],[78.5783,25.256],[78.5787,25.2525],[78.5697,25.2406],[78.5703,25.232],[78.5739,25.2315],[78.5827,25.2389],[78.589,25.2418],[78.6005,25.2539],[78.6082,25.256],[78.6134,25.2636],[78.6082,25.2691],[78.6088,25.2739],[78.6166,25.2831],[78.6255,25.2967],[78.6348,25.2999],[78.6485,25.3077],[78.6523,25.3152],[78.6549,25.3305],[78.6593,25.3367],[78.6675,25.3431],[78.6684,25.3496],[78.6664,25.3567],[78.6586,25.3735],[78.6567,25.3737]],[[78.6097,25.302],[78.603,25.3034],[78.6039,25.3082],[78.6097,25.311],[78.6097,25.302]]]},"properties":{"id":"orcha-wls","name":"Orcha Wildlife Sanctuary","category":"wls","area_km2":44.9}}]}