{"type":"FeatureCollection","features":[{"type":"Feature","geometry":{"type":"Polygon","coordinates":[[[75.2884,33.9587],[75.2996,33.967],[75.3118,33.9854],[75.3133,34.0034],[75.3113,34.0063],[75.3018,34.0079],[75.3095,34.0187],[75.3052,34.0235],[75.3037,34.0317],[75.3075,34.0463],[75.3069,34.0618],[75.2971,34.0788],[75.2952,34.0989],[75.2877,34.1162],[75.2801,34.1289],[75.2721,34.1399],[75.2862,34.1733],[75.3022,34.1946],[75.3092,34.2134],[75.2912,34.2242],[75.2708,34.2268],[75.2526,34.2163],[75.2325,34.2105],[75.2088,34.1949],[75.1818,34.1837],[75.1676,34.1561],[75.1401,34.1402],[75.1413,34.1281],[75.1451,34.1207],[75.1413,34.1154],[75.1413,34.1077],[75.1477,34.0952],[75.1578,34.08],[75.1703,34.0679],[75.1873,34.0531],[75.1935,34.0336],[75.2126,34.032],[75.223,34.0272],[75.2213,34.0053],[75.2215,33.9839],[75.223,33.9681],[75.2493,33.959],[75.2687,33.9565],[75.2884,33.9587]]]},"properties":{"id":"overa-aru-wls","name":"Overa-Aru Wildlife Sanctuary","category":"wls","area_km2":511}}]}