{"type":"FeatureCollection","features":[{"type":"Feature","geometry":{"type":"MultiPolygon","coordinates":[[[[92.0753,26.2394],[92.0583,26.2441],[92.0572,26.248],[92.0524,26.248],[92.0494,26.2435],[92.0402,26.2439],[92.0363,26.2404],[92.034,26.2269],[92.0234,26.2188],[92.0295,26.2166],[92.0334,26.2213],[92.0414,26.2237],[92.0504,26.2192],[92.0603,26.2175],[92.0641,26.2106],[92.0713,26.2104],[92.088,26.206],[92.089,26.2178],[92.0851,26.2184],[92.085,26.2229],[92.0888,26.2355],[92.0783,26.2414],[92.0753,26.2394]]],[[[92.0139,26.2776],[92.0047,26.2771],[91.9991,26.2711],[91.9963,26.2592],[91.9924,26.2601],[91.9915,26.2655],[91.9849,26.2658],[91.9861,26.2739],[91.9786,26.2738],[91.9751,26.2603],[91.9769,26.2526],[91.9814,26.2446],[91.9936,26.238],[92.004,26.2364],[92.0085,26.2382],[92.0114,26.2442],[92.0084,26.2633],[92.0139,26.2776]]]]},"properties":{"id":"pabitora-wls","name":"Pabitora Wildlife Sanctuary","category":"wls","area_km2":38.8}}]}