{"type":"FeatureCollection","features":[{"type":"Feature","geometry":{"type":"Polygon","coordinates":[[[78.3685,22.4168],[78.3708,22.4103],[78.3811,22.3987],[78.3879,22.3978],[78.3892,22.3946],[78.4048,22.3917],[78.4079,22.3874],[78.4248,22.3816],[78.4298,22.3836],[78.432,22.3808],[78.4372,22.383],[78.443,22.3796],[78.4492,22.3794],[78.4476,22.3825],[78.4526,22.3837],[78.4553,22.377],[78.4637,22.3794],[78.4716,22.3758],[78.4702,22.3822],[78.476,22.3825],[78.4817,22.3797],[78.4853,22.3845],[78.4924,22.3893],[78.4972,22.3993],[78.5052,22.4046],[78.5118,22.4023],[78.5187,22.4076],[78.5253,22.4186],[78.5317,22.4202],[78.5445,22.4149],[78.5496,22.4199],[78.5591,22.4183],[78.5647,22.429],[78.5588,22.4369],[78.5572,22.4421],[78.5666,22.4444],[78.576,22.454],[78.5773,22.4685],[78.5752,22.474],[78.5677,22.485],[78.5589,22.4918],[78.5639,22.502],[78.5805,22.5094],[78.5927,22.5123],[78.5964,22.5146],[78.599,22.5242],[78.59,22.5333],[78.5931,22.554],[78.5912,22.5579],[78.5758,22.5676],[78.5502,22.5704],[78.5365,22.5738],[78.5158,22.5735],[78.5087,22.5781],[78.5036,22.584],[78.503,22.5909],[78.4852,22.5918],[78.4501,22.5818],[78.4373,22.579],[78.429,22.5789],[78.4132,22.5857],[78.3988,22.5825],[78.3967,22.5868],[78.3876,22.5919],[78.3891,22.5993],[78.3988,22.6035],[78.4111,22.6029],[78.4217,22.6001],[78.4406,22.6028],[78.4491,22.6049],[78.4512,22.6079],[78.461,22.6118],[78.4777,22.6156],[78.492,22.6168],[78.5017,22.6139],[78.5002,22.631],[78.4968,22.6367],[78.4888,22.6364],[78.4839,22.6403],[78.4751,22.6374],[78.4666,22.6424],[78.4538,22.6417],[78.4561,22.6464],[78.4584,22.6596],[78.4514,22.6645],[78.4495,22.6685],[78.45,22.6806],[78.4622,22.6889],[78.4614,22.6964],[78.4565,22.6987],[78.4497,22.6967],[78.4479,22.685],[78.4384,22.6757],[78.4299,22.676],[78.4141,22.6727],[78.4052,22.6675],[78.4095,22.6618],[78.4078,22.6589],[78.3964,22.6606],[78.3917,22.6641],[78.3879,22.6615],[78.3941,22.6485],[78.3919,22.6401],[78.3823,22.636],[78.3569,22.6311],[78.3534,22.6262],[78.339,22.6216],[78.3287,22.6067],[78.3187,22.605],[78.3063,22.6092],[78.3031,22.6194],[78.2907,22.6164],[78.2918,22.6302],[78.2882,22.636],[78.2896,22.6501],[78.2877,22.6555],[78.2768,22.6562],[78.2736,22.6478],[78.2704,22.6464],[78.2666,22.6381],[78.2671,22.619],[78.2605,22.6085],[78.2637,22.6027],[78.2692,22.5988],[78.274,22.5915],[78.2734,22.5823],[78.2565,22.5691],[78.257,22.5631],[78.2525,22.5607],[78.2437,22.5654],[78.2358,22.5648],[78.2269,22.5603],[78.2139,22.558],[78.2036,22.5594],[78.1953,22.5541],[78.1846,22.5515],[78.1709,22.5558],[78.1693,22.5624],[78.155,22.5665],[78.1504,22.5706],[78.1439,22.5725],[78.1316,22.5705],[78.1236,22.5734],[78.0992,22.5692],[78.0735,22.5573],[78.0574,22.5556],[78.0457,22.5595],[78.0376,22.5701],[78.0409,22.5792],[78.0237,22.5806],[78.0244,22.5681],[78.0227,22.5644],[78.0119,22.5642],[78.0045,22.5601],[78.0013,22.5518],[78.0022,22.5449],[77.9995,22.5383],[78.0099,22.5303],[78.0168,22.5268],[78.0165,22.5183],[78.009,22.504],[78.004,22.5111],[77.9971,22.5139],[77.9903,22.5142],[77.9856,22.504],[77.9775,22.5048],[77.9772,22.5106],[77.9823,22.5216],[77.979,22.5257],[77.9734,22.5276],[77.9674,22.5246],[77.9645,22.5177],[77.9582,22.512],[77.96,22.4988],[77.9579,22.4949],[77.9472,22.4963],[77.9443,22.493],[77.9434,22.484],[77.9466,22.4787],[77.9594,22.4733],[77.9662,22.4631],[77.9775,22.4598],[77.9802,22.4513],[77.9752,22.4439],[77.9716,22.4337],[77.9648,22.4354],[77.9567,22.4472],[77.9508,22.4466],[77.9493,22.4409],[77.9392,22.4315],[77.9243,22.4347],[77.9172,22.4257],[77.9141,22.4124],[77.9164,22.4028],[77.9158,22.3906],[77.9194,22.3806],[77.919,22.3767],[77.9122,22.3651],[77.9119,22.362],[77.9183,22.3456],[77.9213,22.3429],[77.9316,22.3417],[77.9429,22.3377],[77.9467,22.3411],[77.9524,22.3393],[77.9549,22.3327],[77.9635,22.3324],[77.9718,22.3349],[78.0001,22.3329],[78.0108,22.338],[78.0219,22.3355],[78.0334,22.3302],[78.0397,22.3349],[78.049,22.3377],[78.0728,22.3493],[78.0825,22.3516],[78.0987,22.3622],[78.1243,22.3671],[78.1308,22.3747],[78.1508,22.3871],[78.1633,22.3885],[78.18,22.3987],[78.2025,22.3982],[78.2146,22.3968],[78.2648,22.3968],[78.2681,22.398],[78.2791,22.4142],[78.2844,22.4177],[78.2939,22.4179],[78.3061,22.4144],[78.3183,22.4235],[78.3274,22.4223],[78.3348,22.4195],[78.3553,22.4163],[78.3685,22.4168]],[[78.4839,22.5687],[78.4871,22.5659],[78.4942,22.5647],[78.4979,22.5557],[78.4944,22.5534],[78.4837,22.5528],[78.4704,22.5547],[78.4815,22.5625],[78.4839,22.5687]]]},"properties":{"id":"pachmarhi-br","name":"Pachmarhi Biosphere Reserve","category":"br","area_km2":4982}}]}