{"type":"FeatureCollection","features":[{"type":"Feature","geometry":{"type":"Polygon","coordinates":[[[78.4491,22.6783],[78.45,22.6806],[78.4622,22.6889],[78.4614,22.6964],[78.4565,22.6987],[78.4497,22.6967],[78.4479,22.685],[78.4384,22.6757],[78.4299,22.676],[78.4141,22.6727],[78.4052,22.6675],[78.4095,22.6618],[78.4078,22.6589],[78.3964,22.6606],[78.3917,22.6641],[78.3879,22.6615],[78.3941,22.6485],[78.3919,22.6401],[78.3823,22.636],[78.3569,22.6311],[78.3534,22.6262],[78.339,22.6216],[78.3287,22.6067],[78.3187,22.605],[78.3063,22.6092],[78.3031,22.6194],[78.2907,22.6164],[78.2918,22.6302],[78.2882,22.636],[78.2896,22.6501],[78.2877,22.6555],[78.2768,22.6562],[78.2736,22.6478],[78.2704,22.6464],[78.2666,22.6381],[78.2671,22.619],[78.2605,22.6085],[78.2637,22.6027],[78.2692,22.5988],[78.274,22.5915],[78.2734,22.5823],[78.2565,22.5691],[78.257,22.5631],[78.2543,22.5613],[78.255,22.5551],[78.2712,22.5489],[78.3041,22.5439],[78.3234,22.5435],[78.3261,22.5389],[78.3396,22.5449],[78.3694,22.5409],[78.376,22.5413],[78.3812,22.5524],[78.3876,22.5536],[78.4042,22.5529],[78.3949,22.5293],[78.4117,22.5245],[78.4345,22.5139],[78.4378,22.5052],[78.4476,22.4916],[78.4484,22.4863],[78.4419,22.4827],[78.4261,22.4785],[78.422,22.4724],[78.4153,22.4681],[78.3957,22.4619],[78.3947,22.4503],[78.3964,22.4472],[78.4092,22.4467],[78.4199,22.451],[78.4273,22.451],[78.4615,22.4483],[78.4779,22.4538],[78.4921,22.4573],[78.4989,22.4554],[78.5052,22.4499],[78.515,22.4326],[78.5407,22.4399],[78.5572,22.4421],[78.5666,22.4444],[78.576,22.454],[78.5773,22.4685],[78.5752,22.474],[78.5677,22.485],[78.5589,22.4918],[78.5639,22.502],[78.5805,22.5094],[78.5927,22.5123],[78.5964,22.5146],[78.599,22.5242],[78.59,22.5333],[78.5931,22.554],[78.5912,22.5579],[78.5758,22.5676],[78.5502,22.5704],[78.5365,22.5738],[78.5158,22.5735],[78.5087,22.5781],[78.5036,22.584],[78.503,22.5909],[78.4852,22.5918],[78.4501,22.5818],[78.4373,22.579],[78.429,22.5789],[78.4132,22.5857],[78.3988,22.5825],[78.3967,22.5868],[78.3876,22.5919],[78.3891,22.5993],[78.3988,22.6035],[78.4111,22.6029],[78.4217,22.6001],[78.4406,22.6028],[78.4491,22.6049],[78.4512,22.6079],[78.461,22.6118],[78.4777,22.6156],[78.492,22.6168],[78.5017,22.6139],[78.5002,22.631],[78.4968,22.6367],[78.4888,22.6364],[78.4839,22.6403],[78.4751,22.6374],[78.4666,22.6424],[78.4538,22.6417],[78.4561,22.6464],[78.4584,22.6596],[78.4514,22.6645],[78.4495,22.6685],[78.4491,22.6783]],[[78.4864,22.5668],[78.4942,22.5647],[78.4979,22.5557],[78.4944,22.5534],[78.4837,22.5528],[78.4704,22.5547],[78.4815,22.5625],[78.4839,22.5687],[78.4864,22.5668]]]},"properties":{"id":"pachmarhi-wls","name":"Pachmarhi Wildlife Sanctuary","category":"wls","area_km2":491.6}}]}