{"type":"FeatureCollection","features":[{"type":"Feature","geometry":{"type":"Polygon","coordinates":[[[77.8652,19.6262],[77.8727,19.6233],[77.8769,19.6239],[77.8786,19.6328],[77.8837,19.6272],[77.8883,19.6318],[77.8832,19.6375],[77.8901,19.648],[77.8986,19.6475],[77.9017,19.6452],[77.9108,19.6443],[77.9083,19.6411],[77.8977,19.6366],[77.9009,19.6341],[77.896,19.6283],[77.9037,19.6249],[77.909,19.6267],[77.9102,19.631],[77.9157,19.6273],[77.9135,19.6222],[77.9193,19.6232],[77.8969,19.6049],[77.893,19.6046],[77.8838,19.6104],[77.8819,19.6051],[77.8846,19.602],[77.8779,19.5899],[77.8824,19.5907],[77.879,19.5728],[77.8864,19.5713],[77.8941,19.5722],[77.8974,19.5911],[77.9036,19.5902],[77.917,19.5843],[77.9205,19.5913],[77.9273,19.5899],[77.9288,19.5808],[77.932,19.5807],[77.9356,19.5655],[77.941,19.5625],[77.9392,19.5524],[77.9457,19.554],[77.9411,19.55],[77.9518,19.5456],[77.9514,19.5383],[77.9733,19.5253],[77.9741,19.5182],[77.9822,19.5138],[77.9803,19.508],[77.9853,19.5031],[77.9857,19.4986],[77.9921,19.4964],[77.9921,19.4885],[77.9948,19.4837],[78.0007,19.4838],[78.0055,19.4879],[78.0224,19.4963],[78.0314,19.4972],[78.0291,19.4916],[78.0397,19.4846],[78.046,19.4743],[78.0548,19.4722],[78.0592,19.4684],[78.0588,19.4646],[78.065,19.4606],[78.0686,19.4617],[78.0844,19.4751],[78.0854,19.4775],[78.0957,19.4849],[78.1062,19.4817],[78.1118,19.4839],[78.1189,19.4944],[78.1213,19.51],[78.1242,19.5136],[78.1201,19.5151],[78.1131,19.5133],[78.1115,19.5192],[78.116,19.5221],[78.117,19.5265],[78.1072,19.5277],[78.1113,19.5327],[78.1176,19.5338],[78.1165,19.5399],[78.1116,19.5378],[78.1109,19.5488],[78.1184,19.556],[78.1214,19.5518],[78.1292,19.5523],[78.1466,19.547],[78.1523,19.547],[78.16,19.5499],[78.1671,19.5551],[78.1837,19.5562],[78.1874,19.559],[78.1874,19.5678],[78.1843,19.5705],[78.1845,19.579],[78.1903,19.5872],[78.1883,19.599],[78.1896,19.6015],[78.1765,19.6021],[78.1736,19.6073],[78.1742,19.6136],[78.1696,19.6171],[78.1743,19.622],[78.1742,19.6302],[78.1776,19.6345],[78.1878,19.6328],[78.18,19.6486],[78.1749,19.6504],[78.1767,19.6435],[78.1725,19.6451],[78.1689,19.6364],[78.1593,19.6388],[78.1563,19.6446],[78.1403,19.6479],[78.1342,19.6558],[78.14,19.6608],[78.1293,19.6625],[78.1254,19.6496],[78.1188,19.6499],[78.1086,19.6554],[78.1049,19.6544],[78.0976,19.6469],[78.0972,19.6388],[78.0907,19.6356],[78.0798,19.6398],[78.0756,19.6509],[78.0687,19.66],[78.0576,19.661],[78.0542,19.6505],[78.0555,19.6481],[78.0562,19.6323],[78.0399,19.6352],[78.0371,19.6404],[78.0324,19.641],[78.0332,19.6478],[78.038,19.6471],[78.0427,19.655],[78.0448,19.6627],[78.0533,19.6608],[78.0556,19.6732],[78.05,19.6885],[78.037,19.6925],[78.0363,19.6888],[78.0435,19.6897],[78.0412,19.6836],[78.0405,19.6747],[78.0367,19.676],[78.0228,19.6743],[78.0186,19.6657],[78.0142,19.6613],[78.011,19.6541],[78.0069,19.656],[78.0035,19.6496],[78.0049,19.6455],[78.0103,19.641],[78.0089,19.6371],[78.0146,19.635],[78.0132,19.6303],[78.0075,19.6309],[78.0007,19.6375],[77.9973,19.6383],[77.9967,19.6433],[77.9928,19.6432],[77.9895,19.6481],[77.9853,19.6419],[77.9755,19.6394],[77.979,19.6347],[77.9689,19.6417],[77.957,19.6452],[77.9519,19.6494],[77.9529,19.6522],[77.9597,19.6547],[77.9674,19.6543],[77.9736,19.6652],[77.9622,19.6675],[77.9635,19.6737],[77.9684,19.6729],[77.9733,19.682],[77.9683,19.6861],[77.9621,19.6835],[77.9579,19.6868],[77.9604,19.6925],[77.9654,19.6961],[77.9606,19.7032],[77.9504,19.6982],[77.9495,19.6909],[77.934,19.6835],[77.9423,19.6776],[77.9457,19.6689],[77.9484,19.6714],[77.9527,19.6658],[77.9516,19.657],[77.9479,19.6517],[77.9349,19.6574],[77.9377,19.6524],[77.9307,19.6567],[77.927,19.6524],[77.9184,19.6524],[77.9184,19.6599],[77.9215,19.6632],[77.9131,19.6644],[77.9119,19.6694],[77.9153,19.6757],[77.9008,19.6692],[77.8997,19.6637],[77.8791,19.6677],[77.8773,19.6602],[77.8829,19.659],[77.8858,19.6516],[77.8821,19.643],[77.8774,19.6393],[77.8714,19.6433],[77.8694,19.6318],[77.8652,19.6262]],[[78.1088,19.6299],[78.1091,19.6386],[78.1234,19.6366],[78.1286,19.639],[78.1329,19.6279],[78.136,19.6159],[78.1356,19.6116],[78.1302,19.6102],[78.1244,19.6055],[78.1102,19.6069],[78.1037,19.6009],[78.1003,19.6014],[78.1001,19.61],[78.1095,19.6192],[78.1042,19.6215],[78.1088,19.6299]],[[78.103,19.5959],[78.0986,19.5937],[78.0974,19.5885],[78.1051,19.5871],[78.1033,19.5819],[78.0924,19.5837],[78.0954,19.5973],[78.103,19.5959]],[[78.015,19.59],[78.0142,19.5672],[77.9957,19.5682],[77.9948,19.5739],[77.9956,19.5904],[78.015,19.59]],[[78.0159,19.5559],[78.0331,19.5517],[78.0289,19.5379],[78.0228,19.5396],[78.0186,19.5455],[78.0205,19.5508],[78.0149,19.5519],[78.0159,19.5559]],[[78.0474,19.5498],[78.0541,19.552],[78.0506,19.5364],[78.0601,19.5277],[78.0582,19.5226],[78.048,19.5259],[78.0456,19.53],[78.0372,19.5338],[78.0425,19.5405],[78.0474,19.5498]],[[78.0158,19.522],[78.0083,19.521],[78.0026,19.509],[77.9977,19.5091],[77.9942,19.5139],[77.9955,19.5239],[77.9817,19.5287],[77.9821,19.539],[77.9949,19.5368],[77.9956,19.5461],[78.0034,19.5433],[78.003,19.5324],[78.0061,19.5265],[78.0156,19.5269],[78.0158,19.522]],[[78.0558,19.4811],[78.0579,19.4917],[78.0688,19.4905],[78.07,19.4783],[78.066,19.4804],[78.0558,19.4811]]]},"properties":{"id":"painganga-wls","name":"Painganga Wildlife Sanctuary","category":"wls","area_km2":324.6}}]}