{"type":"FeatureCollection","features":[{"type":"Feature","geometry":{"type":"MultiPolygon","coordinates":[[[[88.5927,26.7731],[88.5862,26.7742],[88.5911,26.766],[88.593,26.757],[88.6054,26.7641],[88.5988,26.7727],[88.5927,26.7731]]],[[[88.5669,26.7436],[88.5841,26.7526],[88.5721,26.7605],[88.564,26.7705],[88.5645,26.7781],[88.56,26.7838],[88.5489,26.7884],[88.5416,26.8043],[88.5305,26.8134],[88.5292,26.8056],[88.5471,26.7684],[88.5538,26.7601],[88.5637,26.7562],[88.5669,26.7436]]]]},"properties":{"id":"pakhi-bitan-bird-wls","name":"Pakhi Bitan Bird Sanctuary","category":"wls","area_km2":14.1}}]}