{"type":"FeatureCollection","features":[{"type":"Feature","geometry":{"type":"Polygon","coordinates":[[[80.1672,18.1324],[80.1554,18.1188],[80.1371,18.1194],[80.1343,18.1279],[80.1282,18.1402],[80.1245,18.1439],[80.1119,18.1683],[80.0997,18.1748],[80.0883,18.1733],[80.0935,18.1703],[80.0966,18.1648],[80.1026,18.1612],[80.0994,18.1575],[80.1043,18.1475],[80.0984,18.1432],[80.0981,18.1377],[80.1013,18.1317],[80.1027,18.1238],[80.0998,18.1194],[80.0949,18.1315],[80.0904,18.1347],[80.0846,18.1339],[80.0917,18.1132],[80.0882,18.1015],[80.0822,18.0972],[80.072,18.0933],[80.0696,18.0957],[80.067,18.1072],[80.0432,18.1229],[80.0308,18.1245],[80.0236,18.1174],[80.0163,18.1151],[80.0106,18.1196],[80.0085,18.1129],[79.9918,18.1071],[79.9955,18.1011],[80.0029,18.0951],[79.9985,18.0938],[79.9925,18.0976],[79.9888,18.0923],[79.9893,18.0813],[79.995,18.0776],[79.9887,18.077],[79.9859,18.0679],[79.9863,18.0589],[79.9936,18.0491],[79.9938,18.0411],[79.9866,18.0298],[79.9889,18.0234],[79.9976,18.0157],[79.998,18.0076],[79.9884,18.0041],[79.9876,18.0011],[79.9932,17.9817],[79.9877,17.976],[79.9852,17.9653],[79.9759,17.9472],[79.9814,17.9365],[79.9836,17.9217],[79.9739,17.9227],[79.9723,17.9169],[79.9657,17.9132],[79.9641,17.907],[79.9817,17.8923],[79.9891,17.8918],[79.9982,17.8889],[79.9936,17.8773],[79.9977,17.8749],[79.9993,17.8681],[80.0035,17.8708],[80.0069,17.8582],[80.0142,17.8538],[80.0144,17.8433],[80.0195,17.8378],[80.0267,17.8387],[80.0316,17.8365],[80.0307,17.8317],[80.0218,17.8319],[80.0208,17.826],[80.0157,17.8218],[80.0151,17.8144],[80.0179,17.7935],[80.0246,17.7832],[80.027,17.777],[80.0251,17.756],[80.0296,17.7253],[80.0351,17.724],[80.0381,17.7289],[80.0356,17.7449],[80.0381,17.7508],[80.0462,17.7587],[80.0464,17.7735],[80.0378,17.784],[80.0373,17.7948],[80.0404,17.809],[80.046,17.8105],[80.0591,17.7905],[80.066,17.7758],[80.0709,17.7699],[80.0831,17.7503],[80.0842,17.7405],[80.0763,17.7237],[80.0795,17.7163],[80.085,17.7116],[80.0864,17.7045],[80.0862,17.6926],[80.0905,17.6751],[80.0955,17.6681],[80.1034,17.6681],[80.1061,17.6764],[80.1029,17.6985],[80.1068,17.706],[80.1126,17.7076],[80.1272,17.7016],[80.132,17.6965],[80.1317,17.6815],[80.1357,17.6764],[80.1504,17.6815],[80.1559,17.6865],[80.1582,17.6961],[80.1558,17.7011],[80.1578,17.7094],[80.1656,17.7124],[80.1734,17.7182],[80.1657,17.7356],[80.1677,17.7461],[80.1729,17.7463],[80.1817,17.7566],[80.1837,17.7616],[80.185,17.7848],[80.1844,17.7912],[80.1772,17.7954],[80.1709,17.7909],[80.1681,17.7946],[80.1586,17.7906],[80.1488,17.7971],[80.1424,17.8191],[80.1374,17.8202],[80.1325,17.8299],[80.1333,17.8404],[80.1394,17.8494],[80.1397,17.8648],[80.1461,17.8724],[80.1493,17.8657],[80.1589,17.8782],[80.1653,17.8905],[80.169,17.907],[80.1613,17.9153],[80.1578,17.9363],[80.1578,17.943],[80.1542,17.9586],[80.1557,17.9639],[80.1647,17.9712],[80.1774,17.9711],[80.1781,17.9548],[80.1841,17.9474],[80.1889,17.9539],[80.1957,17.958],[80.1927,17.9631],[80.1908,17.9733],[80.1865,17.9799],[80.1801,17.9832],[80.1812,17.9908],[80.179,17.9958],[80.185,18.0011],[80.1895,18.0105],[80.2006,18.0134],[80.2026,18.0287],[80.2192,18.0373],[80.2369,18.0397],[80.24,18.0535],[80.2402,18.0604],[80.225,18.0839],[80.223,18.0918],[80.2181,18.0967],[80.2205,18.1074],[80.2205,18.1155],[80.2174,18.1206],[80.2042,18.1326],[80.1955,18.1457],[80.1793,18.1543],[80.173,18.1498],[80.1699,18.1438],[80.1672,18.1324]]]},"properties":{"id":"pakhal-wls","name":"Pakhal Wildlife Sanctuary","category":"wls","area_km2":860}}]}