{"type":"FeatureCollection","features":[{"type":"Feature","geometry":{"type":"Polygon","coordinates":[[[93.0439,27.2241],[93.0386,27.2267],[93.034,27.2247],[93.0236,27.2249],[93.0193,27.2217],[93.0108,27.2254],[93.0051,27.2227],[92.9971,27.2275],[92.9903,27.2223],[92.9822,27.227],[92.9768,27.2237],[92.9713,27.2263],[92.9626,27.2254],[92.9578,27.2225],[92.9412,27.2208],[92.9317,27.2173],[92.9271,27.2198],[92.9182,27.2147],[92.9159,27.2167],[92.9113,27.2119],[92.9084,27.2152],[92.8982,27.2092],[92.8882,27.2001],[92.8701,27.1971],[92.86,27.1907],[92.8425,27.1894],[92.8327,27.1869],[92.8242,27.1827],[92.8134,27.1746],[92.7992,27.1786],[92.7811,27.1786],[92.7663,27.1922],[92.7575,27.1939],[92.7488,27.1933],[92.7383,27.1882],[92.7354,27.183],[92.7273,27.1809],[92.7181,27.173],[92.6962,27.1706],[92.689,27.1638],[92.6791,27.1629],[92.671,27.1579],[92.667,27.159],[92.6634,27.1551],[92.6531,27.1538],[92.65,27.1491],[92.6369,27.1493],[92.6318,27.1455],[92.6272,27.1477],[92.6182,27.1457],[92.6067,27.1384],[92.6048,27.1213],[92.5987,27.1157],[92.6014,27.1095],[92.5988,27.1042],[92.5937,27.1026],[92.5991,27.0928],[92.5895,27.0855],[92.59,27.0759],[92.5962,27.0497],[92.6058,27.0379],[92.6152,27.0309],[92.6253,27.0265],[92.6334,27.0257],[92.6365,27.0197],[92.6436,27.0173],[92.6485,27.0181],[92.6601,27.0139],[92.6674,27.0271],[92.6725,27.0316],[92.6775,27.0317],[92.6876,27.0272],[92.6927,27.0272],[92.6977,27.0227],[92.7128,27.0227],[92.7229,27.0182],[92.733,27.0227],[92.7532,27.0228],[92.7632,27.0273],[92.7784,27.0228],[92.7935,27.0228],[92.8237,27.0093],[92.8389,27.0048],[92.8573,27.0016],[92.8838,27.0004],[92.8891,26.9986],[92.9184,26.9823],[92.9155,26.9739],[92.9171,26.9629],[92.9841,26.9348],[92.9947,26.9485],[93.0001,26.9509],[93.0041,26.9635],[93.01,26.9701],[93.0106,26.9752],[93.0213,26.9866],[93.023,26.9912],[93.0299,26.9937],[93.0357,27.0008],[93.0319,27.004],[93.033,27.0145],[93.0375,27.0197],[93.0305,27.0269],[93.0285,27.0324],[93.03,27.0403],[93.024,27.0409],[93.0233,27.0524],[93.0259,27.0573],[93.0228,27.0598],[93.0267,27.0873],[93.02,27.0887],[93.0158,27.0802],[93.012,27.0787],[93.0021,27.0845],[92.9921,27.0769],[92.9882,27.0627],[92.9872,27.0534],[92.9787,27.0506],[92.9667,27.062],[92.965,27.0666],[92.9592,27.0576],[92.9465,27.0533],[92.9416,27.054],[92.942,27.0624],[92.936,27.0908],[92.9335,27.0944],[92.9341,27.1039],[92.9279,27.1048],[92.9256,27.1092],[92.93,27.1087],[92.9296,27.1159],[92.9338,27.1174],[92.9286,27.1219],[92.9286,27.1261],[92.9232,27.1272],[92.9186,27.1357],[92.9207,27.1465],[92.9195,27.1507],[92.9322,27.1553],[92.9348,27.1535],[92.9502,27.1523],[92.9622,27.148],[92.9623,27.1447],[92.9674,27.1452],[92.9785,27.1395],[92.9928,27.1358],[93.0015,27.1358],[93.0029,27.1334],[93.0189,27.1257],[93.0245,27.1254],[93.0322,27.1297],[93.0383,27.1295],[93.0434,27.1253],[93.0514,27.1259],[93.058,27.1238],[93.0759,27.1213],[93.0797,27.129],[93.0871,27.1301],[93.0886,27.1357],[93.0817,27.1489],[93.0612,27.1556],[93.0574,27.1578],[93.0565,27.1732],[93.0535,27.178],[93.0437,27.1879],[93.0473,27.1954],[93.0533,27.2009],[93.0543,27.2172],[93.0439,27.2241]]]},"properties":{"id":"pakke-tr","name":"Pakke Tiger Reserve","category":"tr","area_km2":862}}]}