{"type":"FeatureCollection","features":[{"type":"Feature","geometry":{"type":"Polygon","coordinates":[[[84.2006,23.4574],[84.2101,23.4573],[84.2155,23.4507],[84.2216,23.448],[84.2286,23.4397],[84.2263,23.4352],[84.229,23.4326],[84.2365,23.4323],[84.2478,23.4285],[84.2508,23.4212],[84.2547,23.4211],[84.2544,23.4282],[84.2473,23.443],[84.2486,23.4489],[84.2577,23.4571],[84.273,23.4614],[84.2782,23.4649],[84.2787,23.4686],[84.2848,23.4689],[84.2873,23.4832],[84.2911,23.4905],[84.3027,23.4842],[84.3162,23.48],[84.3183,23.4896],[84.3156,23.4941],[84.3273,23.4928],[84.3292,23.5102],[84.3251,23.5141],[84.3275,23.5244],[84.3315,23.5284],[84.3261,23.5327],[84.3267,23.5498],[84.3216,23.5668],[84.3154,23.5697],[84.3133,23.575],[84.3075,23.5755],[84.2987,23.5826],[84.2939,23.5823],[84.2896,23.5686],[84.2837,23.5683],[84.2802,23.5723],[84.2662,23.5715],[84.2633,23.5753],[84.2676,23.5851],[84.2652,23.5893],[84.2679,23.5977],[84.2753,23.5992],[84.2828,23.6064],[84.2882,23.6156],[84.293,23.6158],[84.2951,23.611],[84.301,23.6123],[84.3009,23.6237],[84.3026,23.6301],[84.2928,23.6283],[84.2938,23.6406],[84.2823,23.6355],[84.279,23.6416],[84.2711,23.6476],[84.2579,23.6478],[84.2458,23.6501],[84.2438,23.6545],[84.237,23.6606],[84.2274,23.666],[84.2261,23.6705],[84.2292,23.6758],[84.2371,23.6774],[84.2521,23.673],[84.2661,23.6763],[84.2908,23.6903],[84.3128,23.6946],[84.3158,23.7023],[84.3242,23.7031],[84.3244,23.6957],[84.3368,23.6953],[84.344,23.6851],[84.3433,23.6755],[84.3464,23.6698],[84.3396,23.6584],[84.3475,23.6554],[84.3551,23.6558],[84.3649,23.6606],[84.3789,23.6579],[84.3833,23.6587],[84.3874,23.6714],[84.3866,23.6742],[84.3761,23.6844],[84.3755,23.6957],[84.3777,23.7023],[84.377,23.7079],[84.3797,23.7144],[84.3925,23.7177],[84.3944,23.7293],[84.4124,23.7313],[84.4149,23.7328],[84.4213,23.7441],[84.4274,23.7514],[84.4261,23.7547],[84.4174,23.7545],[84.4059,23.7622],[84.3997,23.7639],[84.3864,23.7635],[84.3806,23.7618],[84.3763,23.7576],[84.3641,23.7617],[84.3608,23.7582],[84.3461,23.7541],[84.3441,23.7614],[84.3408,23.7638],[84.3249,23.7649],[84.3177,23.7637],[84.3153,23.7688],[84.3243,23.776],[84.3301,23.7758],[84.3307,23.7809],[84.3134,23.7793],[84.2951,23.7808],[84.2927,23.7897],[84.2832,23.7951],[84.2713,23.7944],[84.2697,23.797],[84.2759,23.7998],[84.2734,23.8074],[84.2648,23.8154],[84.253,23.8213],[84.2511,23.8257],[84.2449,23.8277],[84.2336,23.8279],[84.2246,23.8355],[84.2246,23.841],[84.2146,23.8462],[84.2135,23.8548],[84.2261,23.8616],[84.2323,23.8589],[84.2446,23.8582],[84.2484,23.864],[84.2433,23.8698],[84.2524,23.8737],[84.2544,23.8775],[84.2455,23.8875],[84.2396,23.898],[84.231,23.8968],[84.226,23.8937],[84.218,23.8928],[84.2079,23.8896],[84.1944,23.8805],[84.1885,23.8866],[84.1808,23.8849],[84.1613,23.8921],[84.1582,23.889],[84.1594,23.8829],[84.1677,23.8765],[84.1712,23.8646],[84.1635,23.8537],[84.1646,23.8484],[84.1696,23.845],[84.1686,23.841],[84.1729,23.8402],[84.1751,23.8465],[84.179,23.849],[84.1888,23.8489],[84.1939,23.8393],[84.2061,23.8403],[84.2115,23.8358],[84.2111,23.8301],[84.206,23.8187],[84.2042,23.8112],[84.1951,23.8075],[84.1942,23.7971],[84.189,23.7976],[84.1853,23.8062],[84.1722,23.808],[84.1705,23.8111],[84.1737,23.8162],[84.1733,23.8219],[84.1683,23.8258],[84.1584,23.8233],[84.1577,23.8161],[84.15,23.8185],[84.1453,23.8273],[84.1449,23.8174],[84.1369,23.8168],[84.1341,23.8247],[84.1287,23.8262],[84.1249,23.8315],[84.1123,23.8246],[84.109,23.8157],[84.1153,23.8166],[84.1171,23.8091],[84.1129,23.7952],[84.0912,23.7924],[84.0928,23.7766],[84.0797,23.7679],[84.0781,23.76],[84.0719,23.7547],[84.0494,23.754],[84.0471,23.7528],[84.0433,23.7378],[84.0297,23.7294],[84.0185,23.7153],[84.0072,23.71],[84.005,23.7057],[84.0227,23.7035],[84.0484,23.7064],[84.0705,23.7042],[84.0779,23.7015],[84.0709,23.7013],[84.0679,23.6959],[84.0592,23.6977],[84.0517,23.6925],[84.0581,23.6896],[84.0598,23.6855],[84.0588,23.6691],[84.0716,23.6664],[84.0919,23.6665],[84.0868,23.6543],[84.0786,23.6457],[84.073,23.6433],[84.0753,23.6384],[84.0749,23.6316],[84.071,23.6293],[84.0685,23.6205],[84.0708,23.619],[84.0803,23.6209],[84.084,23.6171],[84.08,23.6075],[84.0831,23.605],[84.0825,23.5973],[84.0868,23.5934],[84.0857,23.5896],[84.077,23.5792],[84.0857,23.5772],[84.0955,23.5775],[84.1011,23.5752],[84.0989,23.5695],[84.1095,23.5687],[84.1173,23.5748],[84.1163,23.5807],[84.119,23.5855],[84.129,23.5922],[84.1376,23.5934],[84.1439,23.5971],[84.1531,23.5944],[84.1522,23.5834],[84.1482,23.5812],[84.1503,23.5767],[84.147,23.5707],[84.1476,23.5665],[84.1536,23.5627],[84.1497,23.557],[84.1493,23.5513],[84.1428,23.5517],[84.1328,23.5604],[84.1261,23.5607],[84.1213,23.5644],[84.1114,23.5634],[84.1088,23.5607],[84.112,23.555],[84.1272,23.5381],[84.1307,23.5361],[84.1428,23.5344],[84.1567,23.5346],[84.1631,23.5378],[84.167,23.5431],[84.1834,23.5502],[84.1894,23.5487],[84.1977,23.5325],[84.2093,23.5189],[84.2176,23.5187],[84.2227,23.5256],[84.2371,23.5284],[84.2411,23.5229],[84.2327,23.5087],[84.2268,23.5059],[84.2182,23.4837],[84.2054,23.4618],[84.2006,23.4574]]]},"properties":{"id":"palamau-wls","name":"Palamau Wildlife Sanctuary","category":"wls","area_km2":752.9}}]}