{"type":"FeatureCollection","features":[{"type":"Feature","geometry":{"type":"Polygon","coordinates":[[[92.9014,22.2125],[92.9065,22.2203],[92.9045,22.2243],[92.8921,22.2214],[92.8791,22.2136],[92.8798,22.1984],[92.885,22.1917],[92.8898,22.1891],[92.8898,22.1799],[92.8923,22.1773],[92.9029,22.1755],[92.9208,22.1689],[92.9177,22.1761],[92.924,22.1858],[92.9259,22.1931],[92.9214,22.197],[92.9196,22.2028],[92.9225,22.2044],[92.9174,22.211],[92.9062,22.2134],[92.9014,22.2125]]]},"properties":{"id":"pala-wetland-ramsar","name":"Pala Wetland","category":"ramsar","area_km2":18.5}}]}