{"type":"FeatureCollection","features":[{"type":"Feature","geometry":{"type":"Polygon","coordinates":[[[84.4238,22.8252],[84.4258,22.8172],[84.4251,22.8061],[84.4107,22.7999],[84.3949,22.7952],[84.3956,22.7748],[84.4001,22.757],[84.4133,22.7296],[84.4279,22.7239],[84.433,22.7292],[84.4327,22.7393],[84.4291,22.7512],[84.4292,22.7654],[84.4308,22.7722],[84.4355,22.7766],[84.4465,22.7774],[84.4526,22.7742],[84.4536,22.769],[84.4481,22.7559],[84.451,22.7513],[84.4607,22.7605],[84.468,22.7573],[84.4698,22.7499],[84.4667,22.7428],[84.4681,22.7384],[84.4775,22.7362],[84.4782,22.7296],[84.4739,22.724],[84.4689,22.7114],[84.4748,22.6974],[84.4782,22.6927],[84.4888,22.6935],[84.4928,22.699],[84.4995,22.7152],[84.5013,22.726],[84.5096,22.7377],[84.5122,22.7635],[84.506,22.7901],[84.5061,22.8051],[84.5147,22.8153],[84.5304,22.815],[84.5429,22.7928],[84.5427,22.7706],[84.5448,22.7616],[84.5499,22.7488],[84.548,22.7372],[84.564,22.725],[84.5841,22.7176],[84.5976,22.7162],[84.6085,22.7179],[84.6091,22.7344],[84.6061,22.749],[84.6057,22.7806],[84.6145,22.792],[84.622,22.795],[84.6249,22.7991],[84.6177,22.811],[84.6067,22.8176],[84.5999,22.8267],[84.5994,22.8346],[84.6068,22.8434],[84.6291,22.8479],[84.6374,22.8482],[84.6376,22.8551],[84.6241,22.8651],[84.6245,22.8681],[84.6313,22.8686],[84.6335,22.8736],[84.6393,22.8747],[84.6343,22.8832],[84.6282,22.8825],[84.6242,22.8759],[84.617,22.8728],[84.6091,22.8735],[84.6064,22.8855],[84.6028,22.8935],[84.5963,22.8968],[84.5798,22.8988],[84.5683,22.9049],[84.5709,22.911],[84.5844,22.9081],[84.5935,22.9122],[84.5903,22.9178],[84.6055,22.92],[84.608,22.925],[84.6044,22.9299],[84.5955,22.9297],[84.569,22.9259],[84.5616,22.9282],[84.5617,22.9407],[84.5594,22.9484],[84.5447,22.9414],[84.5378,22.9486],[84.5331,22.948],[84.5234,22.9399],[84.5256,22.9282],[84.521,22.9267],[84.5078,22.9404],[84.5032,22.9351],[84.4971,22.9321],[84.4913,22.933],[84.4849,22.9284],[84.4782,22.9306],[84.4729,22.9283],[84.4745,22.9245],[84.4571,22.9161],[84.4528,22.9158],[84.4449,22.9052],[84.4329,22.8923],[84.4067,22.8873],[84.4066,22.8843],[84.4155,22.8816],[84.4163,22.8745],[84.4217,22.8636],[84.4241,22.8517],[84.4204,22.847],[84.4089,22.8465],[84.4108,22.8403],[84.4171,22.8359],[84.4238,22.8252]]]},"properties":{"id":"palkot-wls","name":"Palkot Wildlife Sanctuary","category":"wls","area_km2":182.8}}]}