{"type":"FeatureCollection","features":[{"type":"Feature","geometry":{"type":"Polygon","coordinates":[[[80.2085,12.8895],[80.2111,12.885],[80.2099,12.8798],[80.2267,12.8768],[80.2253,12.8856],[80.2169,12.8866],[80.2185,12.8925],[80.2129,12.8914],[80.213,12.8964],[80.2224,12.8979],[80.2236,12.9012],[80.2136,12.9035],[80.2158,12.9118],[80.2188,12.9155],[80.2257,12.9138],[80.2258,12.9193],[80.2215,12.9223],[80.2246,12.927],[80.2345,12.9196],[80.2314,12.9247],[80.2273,12.925],[80.2298,12.941],[80.2315,12.944],[80.2325,12.9647],[80.2238,12.9677],[80.223,12.9638],[80.2164,12.9639],[80.2086,12.944],[80.2142,12.9429],[80.2158,12.947],[80.2207,12.9315],[80.2159,12.9236],[80.2135,12.9243],[80.2087,12.9097],[80.2128,12.9093],[80.2124,12.9038],[80.2084,12.9043],[80.2085,12.8895]]]},"properties":{"id":"pallikaranai-marsh-reserve-forest-ramsar","name":"Pallikaranai Marsh Reserve Forest","category":"ramsar","area_km2":12.5}}]}