{"type":"FeatureCollection","features":[{"type":"Feature","geometry":{"type":"Polygon","coordinates":[[[80.8516,18.3759],[80.8486,18.3772],[80.8401,18.3879],[80.8311,18.4077],[80.8221,18.4175],[80.8071,18.4278],[80.8014,18.4288],[80.7897,18.427],[80.7835,18.4239],[80.7822,18.413],[80.7907,18.3989],[80.784,18.3915],[80.7733,18.3921],[80.7674,18.403],[80.7642,18.4039],[80.7533,18.4004],[80.7465,18.3895],[80.7364,18.3932],[80.7364,18.3862],[80.7335,18.3795],[80.7298,18.3775],[80.727,18.3685],[80.7315,18.3548],[80.744,18.3377],[80.7477,18.3297],[80.7478,18.3163],[80.7494,18.3076],[80.7576,18.3021],[80.7568,18.2953],[80.7626,18.2882],[80.7688,18.288],[80.7755,18.2781],[80.7817,18.2653],[80.7887,18.2645],[80.794,18.2603],[80.7916,18.2508],[80.7768,18.2462],[80.7484,18.2309],[80.7477,18.2233],[80.7542,18.2154],[80.7618,18.213],[80.7713,18.2158],[80.813,18.225],[80.8227,18.229],[80.8236,18.2394],[80.8371,18.2421],[80.8434,18.2358],[80.8605,18.2353],[80.8659,18.2335],[80.8726,18.2139],[80.8719,18.2087],[80.8875,18.2163],[80.9026,18.2151],[80.9075,18.2177],[80.9058,18.2214],[80.9096,18.2347],[80.9087,18.2408],[80.9043,18.2519],[80.9102,18.254],[80.9149,18.2676],[80.9118,18.2691],[80.9089,18.2782],[80.9128,18.2812],[80.9099,18.2947],[80.9036,18.3015],[80.8994,18.3101],[80.8917,18.3208],[80.8761,18.3347],[80.86,18.3427],[80.8611,18.3458],[80.8562,18.3564],[80.8508,18.3647],[80.8516,18.3759]]]},"properties":{"id":"pamed-wls","name":"Pamed Wildlife Sanctuary","category":"wls","area_km2":262.1}}]}