{"type":"FeatureCollection","features":[{"type":"Feature","geometry":{"type":"Polygon","coordinates":[[[88.8698,27.3644],[88.863,27.3696],[88.8434,27.3609],[88.8368,27.351],[88.8307,27.3341],[88.8317,27.3279],[88.8425,27.3113],[88.8414,27.3055],[88.834,27.2971],[88.8129,27.2864],[88.8012,27.2776],[88.7919,27.2625],[88.7897,27.251],[88.7905,27.2472],[88.784,27.2288],[88.7839,27.2222],[88.7794,27.217],[88.7715,27.2174],[88.7587,27.2107],[88.7548,27.2069],[88.7516,27.1977],[88.7546,27.1874],[88.7447,27.1783],[88.7311,27.1732],[88.714,27.1774],[88.7044,27.1854],[88.695,27.1861],[88.6902,27.1828],[88.6898,27.1743],[88.7003,27.1677],[88.7068,27.1661],[88.7151,27.1567],[88.7166,27.1414],[88.7245,27.1353],[88.7348,27.1348],[88.7391,27.1365],[88.7493,27.1474],[88.7569,27.1482],[88.7604,27.1527],[88.7572,27.1587],[88.7572,27.1654],[88.7646,27.177],[88.7687,27.1801],[88.7789,27.1835],[88.7868,27.182],[88.7891,27.1938],[88.7988,27.2076],[88.8033,27.22],[88.802,27.2278],[88.8042,27.2365],[88.8031,27.2478],[88.8282,27.2572],[88.8314,27.2622],[88.8666,27.2646],[88.8791,27.2611],[88.8877,27.2685],[88.8977,27.2702],[88.8999,27.2742],[88.9033,27.2726],[88.9083,27.2781],[88.9084,27.2821],[88.9136,27.2901],[88.9086,27.3034],[88.9137,27.3099],[88.9193,27.3206],[88.9192,27.328],[88.9154,27.3307],[88.9081,27.3287],[88.8979,27.333],[88.8949,27.3323],[88.8921,27.3384],[88.8849,27.3419],[88.8822,27.3467],[88.8854,27.3511],[88.8806,27.3525],[88.881,27.3605],[88.8761,27.3603],[88.8698,27.3644]]]},"properties":{"id":"pangolakha-wls","name":"Pangolakha Wildlife Sanctuary","category":"wls","area_km2":128}}]}