{"type":"FeatureCollection","features":[{"type":"Feature","geometry":{"type":"Polygon","coordinates":[[[70.794,21.2413],[70.7955,21.2384],[70.8213,21.2066],[70.8256,21.1969],[70.835,21.1889],[70.8553,21.1745],[70.8676,21.1738],[70.898,21.1927],[70.9099,21.1933],[70.9169,21.2041],[70.8988,21.2117],[70.8869,21.215],[70.8636,21.2246],[70.8473,21.225],[70.8395,21.2273],[70.8423,21.2361],[70.8381,21.2446],[70.8438,21.2532],[70.853,21.2609],[70.8557,21.2652],[70.8686,21.266],[70.8701,21.2721],[70.8681,21.2783],[70.8749,21.2893],[70.8808,21.2949],[70.8763,21.2985],[70.8863,21.3086],[70.8947,21.31],[70.8938,21.3154],[70.8844,21.3157],[70.8756,21.3182],[70.8674,21.3136],[70.8585,21.3134],[70.8445,21.303],[70.8348,21.305],[70.8253,21.3179],[70.8228,21.3161],[70.8229,21.3098],[70.8269,21.2995],[70.8242,21.295],[70.8177,21.2971],[70.801,21.2959],[70.7958,21.2923],[70.803,21.2776],[70.8008,21.2697],[70.8032,21.2626],[70.8073,21.2588],[70.8021,21.2535],[70.8042,21.2408],[70.794,21.2413]]]},"properties":{"id":"paniya-wls","name":"Paniya Wildlife Sanctuary","category":"wls","area_km2":39.6}}]}