{"type":"FeatureCollection","features":[{"type":"Feature","geometry":{"type":"Polygon","coordinates":[[[94.6205,27.0814],[94.6274,27.0796],[94.6312,27.0949],[94.6412,27.1027],[94.6527,27.1044],[94.6553,27.1032],[94.6669,27.1081],[94.671,27.118],[94.6651,27.1234],[94.6608,27.1355],[94.6704,27.1493],[94.6698,27.1626],[94.6647,27.1647],[94.6576,27.1544],[94.6574,27.1497],[94.6372,27.1437],[94.6211,27.1335],[94.6092,27.13],[94.5924,27.1183],[94.5846,27.1096],[94.5814,27.1098],[94.5781,27.1013],[94.5644,27.0807],[94.5641,27.0788],[94.5746,27.0815],[94.5969,27.0846],[94.6023,27.0809],[94.6088,27.0824],[94.6168,27.079],[94.6205,27.0814]]]},"properties":{"id":"pani-dihing-wls","name":"Pani-Dihing Wildlife Sanctuary","category":"wls","area_km2":33.9}}]}