{"type":"FeatureCollection","features":[{"type":"Feature","geometry":{"type":"Polygon","coordinates":[[[80.0823,24.6957],[80.0852,24.7047],[80.0959,24.7108],[80.0986,24.7156],[80.1074,24.7198],[80.1088,24.7323],[80.1191,24.7367],[80.1234,24.7447],[80.1356,24.7517],[80.139,24.7616],[80.1206,24.7644],[80.1134,24.769],[80.0994,24.7708],[80.094,24.7685],[80.087,24.7601],[80.0883,24.7544],[80.0748,24.7468],[80.0703,24.7397],[80.0712,24.7278],[80.055,24.7257],[80.0511,24.7316],[80.0441,24.7322],[80.0406,24.7355],[80.0298,24.7337],[80.0256,24.7303],[80.0214,24.7333],[80.015,24.7328],[80.0063,24.7252],[80.0002,24.7264],[79.9954,24.7216],[79.9794,24.7195],[79.9706,24.7245],[79.9578,24.726],[79.9498,24.7302],[79.9402,24.7288],[79.9318,24.7244],[79.9232,24.7175],[79.9199,24.7113],[79.9285,24.6988],[79.9349,24.6988],[79.9418,24.6934],[79.9439,24.689],[79.9431,24.6809],[79.9317,24.6837],[79.9262,24.6762],[79.9192,24.682],[79.9135,24.6824],[79.9052,24.6781],[79.9006,24.6719],[79.8915,24.6718],[79.8899,24.6741],[79.8946,24.6849],[79.8925,24.6886],[79.881,24.6856],[79.8732,24.666],[79.8726,24.6516],[79.8695,24.6437],[79.8623,24.6379],[79.8449,24.634],[79.8377,24.6373],[79.836,24.6447],[79.8253,24.6429],[79.8225,24.6399],[79.802,24.6426],[79.7904,24.6411],[79.7826,24.6457],[79.7788,24.652],[79.7744,24.6475],[79.7723,24.6493],[79.7649,24.6456],[79.7591,24.6485],[79.752,24.6443],[79.7527,24.6361],[79.7568,24.6288],[79.7516,24.6254],[79.7613,24.6125],[79.7597,24.6048],[79.7611,24.5919],[79.7737,24.5788],[79.7805,24.5757],[79.7863,24.5803],[79.7934,24.579],[79.7879,24.5759],[79.7839,24.5655],[79.7778,24.5572],[79.7868,24.5364],[79.7995,24.5398],[79.8058,24.5363],[79.802,24.5294],[79.8033,24.5245],[79.8106,24.5216],[79.8201,24.5226],[79.8245,24.5206],[79.8326,24.522],[79.8331,24.5285],[79.8376,24.5312],[79.8415,24.5274],[79.8436,24.5203],[79.8437,24.5059],[79.8539,24.4919],[79.858,24.4831],[79.8585,24.4646],[79.863,24.457],[79.8703,24.4554],[79.8807,24.4601],[79.8892,24.4615],[79.9051,24.4735],[79.9106,24.4764],[79.9228,24.4875],[79.9256,24.4926],[79.912,24.501],[79.8966,24.5011],[79.8942,24.5027],[79.8898,24.5143],[79.901,24.5274],[79.9132,24.5294],[79.9206,24.538],[79.9281,24.5419],[79.9311,24.5513],[79.9252,24.56],[79.9266,24.5663],[79.9308,24.5729],[79.9292,24.5791],[79.9337,24.5842],[79.9476,24.5813],[79.9586,24.5849],[79.9653,24.5814],[79.9798,24.5789],[79.983,24.5713],[79.988,24.5681],[79.9946,24.5583],[79.9974,24.5586],[80.0015,24.5667],[80.0083,24.5658],[80.0129,24.561],[80.0205,24.5653],[80.0365,24.5702],[80.0492,24.5767],[80.0504,24.5793],[80.06,24.5794],[80.0669,24.5844],[80.0754,24.587],[80.1038,24.5763],[80.1104,24.5716],[80.1156,24.5834],[80.1337,24.6181],[80.1389,24.6261],[80.1278,24.636],[80.1222,24.6373],[80.1082,24.6366],[80.1056,24.6393],[80.0927,24.6391],[80.085,24.6523],[80.0773,24.6556],[80.0724,24.6603],[80.0627,24.657],[80.0541,24.6512],[80.0519,24.6522],[80.0421,24.6443],[80.039,24.6313],[80.0291,24.635],[80.0141,24.6434],[80.0088,24.6504],[80.0119,24.6556],[80.024,24.6579],[80.0349,24.653],[80.0433,24.6533],[80.0497,24.6556],[80.049,24.6673],[80.0532,24.6704],[80.0618,24.6714],[80.0683,24.6836],[80.0823,24.6957]]]},"properties":{"id":"panna-tr","name":"Panna Tiger Reserve","category":"tr","area_km2":542.7}}]}