{"type":"FeatureCollection","features":[{"type":"Feature","geometry":{"type":"Polygon","coordinates":[[[80.0541,24.6512],[80.0627,24.657],[80.0724,24.6603],[80.0773,24.6556],[80.085,24.6523],[80.0872,24.6472],[80.0917,24.6542],[80.0976,24.6571],[80.0999,24.6671],[80.1112,24.6659],[80.1178,24.667],[80.1248,24.6778],[80.1395,24.681],[80.1451,24.6779],[80.1534,24.679],[80.16,24.6841],[80.157,24.689],[80.1398,24.6871],[80.1353,24.6949],[80.1231,24.6957],[80.1092,24.7052],[80.1037,24.7043],[80.0907,24.6983],[80.0841,24.6987],[80.0774,24.6907],[80.0683,24.6836],[80.0618,24.6714],[80.0532,24.6704],[80.049,24.6673],[80.0497,24.6556],[80.0433,24.6533],[80.0349,24.653],[80.024,24.6579],[80.0119,24.6556],[80.0088,24.6504],[80.0141,24.6434],[80.0291,24.635],[80.039,24.6313],[80.0421,24.6443],[80.0519,24.6522],[80.0541,24.6512]]]},"properties":{"id":"panna-gangau-wls","name":"Panna (Gangau) Wildlife Sanctuary","category":"wls","area_km2":78.5}}]}