{"type":"FeatureCollection","features":[{"type":"Feature","geometry":{"type":"Polygon","coordinates":[[[81.1292,23.9359],[81.125,23.9472],[81.0898,23.9399],[81.0644,23.9305],[81.0609,23.9355],[81.0479,23.9331],[81.0476,23.9217],[81.0501,23.9157],[81.0441,23.9119],[81.0255,23.9116],[81.0225,23.9067],[81.0088,23.9004],[81.0038,23.8995],[80.9964,23.8929],[80.9887,23.8917],[80.9845,23.8933],[80.9795,23.9033],[80.972,23.9042],[80.9687,23.9016],[80.9621,23.9024],[80.9516,23.8978],[80.9446,23.8926],[80.9427,23.8843],[80.9355,23.8816],[80.9328,23.8737],[80.9353,23.8685],[80.9457,23.8676],[80.9499,23.8561],[80.9478,23.8509],[80.9391,23.8372],[80.9462,23.8331],[80.9426,23.8236],[80.949,23.809],[80.9488,23.8051],[80.9811,23.7969],[80.9966,23.7949],[80.9883,23.7875],[80.9836,23.7808],[80.9869,23.7772],[81.0095,23.7781],[81.0222,23.7735],[81.0302,23.7732],[81.0349,23.7806],[81.0524,23.7824],[81.0649,23.7872],[81.067,23.7963],[81.0724,23.8022],[81.0927,23.8352],[81.1011,23.8427],[81.1105,23.8574],[81.1126,23.8684],[81.1177,23.8716],[81.1175,23.8763],[81.1215,23.8848],[81.1308,23.8905],[81.1341,23.8949],[81.1471,23.8914],[81.1568,23.8997],[81.173,23.9062],[81.1746,23.9146],[81.1631,23.9246],[81.1567,23.9252],[81.1451,23.9197],[81.1421,23.9211],[81.1292,23.9359]],[[81.0039,23.8697],[81.0066,23.8757],[81.0175,23.8771],[81.0217,23.8733],[81.0144,23.8747],[81.0124,23.8621],[81.0166,23.8587],[81.0131,23.8488],[81.0046,23.8483],[81.0023,23.8612],[81.0059,23.8659],[81.0039,23.8697]],[[81.0861,23.8661],[81.0985,23.872],[81.104,23.8692],[81.095,23.8617],[81.0752,23.8495],[81.0715,23.8417],[81.0652,23.8437],[81.0682,23.8607],[81.0747,23.8643],[81.0825,23.8611],[81.0861,23.8661]],[[80.973,23.8115],[80.968,23.8121],[80.966,23.8208],[80.9779,23.8286],[80.9902,23.828],[80.9912,23.8217],[80.9818,23.8199],[80.973,23.8115]]]},"properties":{"id":"panpatha-wls","name":"Panpatha Wildlife Sanctuary","category":"wls","area_km2":245.8}}]}