{"type":"FeatureCollection","features":[{"type":"Feature","geometry":{"type":"Polygon","coordinates":[[[85.3661,24.9442],[85.3801,24.9589],[85.3837,24.9676],[85.3911,24.9741],[85.397,24.9766],[85.4206,24.9763],[85.4333,24.9829],[85.4512,24.9951],[85.4728,25.004],[85.4841,25.0073],[85.5004,25.0168],[85.5085,25.019],[85.5111,25.0225],[85.518,25.0252],[85.5152,25.0305],[85.5076,25.0323],[85.4851,25.0241],[85.4662,25.0206],[85.4597,25.0173],[85.4545,25.0118],[85.4477,25.0099],[85.444,25.0117],[85.445,25.0237],[85.4401,25.0215],[85.4336,25.0225],[85.4263,25.019],[85.4199,25.0112],[85.415,25.0124],[85.4059,25.0085],[85.3966,25.0069],[85.3668,24.9936],[85.3593,24.9879],[85.3452,24.983],[85.3315,24.9717],[85.3268,24.9714],[85.3268,24.9671],[85.3384,24.9674],[85.3518,24.9768],[85.3606,24.9766],[85.3601,24.971],[85.3556,24.9648],[85.3503,24.952],[85.342,24.9475],[85.3355,24.9351],[85.3407,24.9325],[85.3661,24.9442]]]},"properties":{"id":"pant-rajgir-wls","name":"Pant (Rajgir) Wildlife Sanctuary","category":"wls","area_km2":35.8}}]}