{"type":"FeatureCollection","features":[{"type":"Feature","geometry":{"type":"Polygon","coordinates":[[[81.5655,17.724],[81.5642,17.7281],[81.5578,17.724],[81.5379,17.723],[81.5199,17.7277],[81.5015,17.7098],[81.4851,17.6987],[81.4475,17.6679],[81.4353,17.6503],[81.4303,17.6408],[81.424,17.6378],[81.4248,17.6325],[81.4137,17.6259],[81.4136,17.633],[81.4064,17.638],[81.3974,17.6388],[81.389,17.6355],[81.3778,17.6341],[81.3599,17.6202],[81.3655,17.6154],[81.3658,17.6109],[81.3527,17.5899],[81.3292,17.5715],[81.3134,17.5579],[81.3051,17.5429],[81.3015,17.5299],[81.2924,17.505],[81.2996,17.4933],[81.3121,17.4888],[81.3203,17.4886],[81.335,17.4955],[81.3514,17.5007],[81.3581,17.501],[81.3731,17.4976],[81.3809,17.4929],[81.3852,17.4868],[81.3879,17.479],[81.387,17.4738],[81.3824,17.4679],[81.3714,17.4641],[81.362,17.4775],[81.3618,17.4818],[81.3572,17.4843],[81.3543,17.4812],[81.345,17.4621],[81.3338,17.4619],[81.3131,17.4635],[81.2916,17.468],[81.2855,17.4684],[81.2635,17.4762],[81.2577,17.4627],[81.2677,17.4611],[81.2666,17.4542],[81.2628,17.446],[81.2696,17.4402],[81.2772,17.4376],[81.292,17.4366],[81.299,17.4298],[81.2957,17.4216],[81.29,17.4144],[81.3081,17.4106],[81.3134,17.4081],[81.3186,17.3984],[81.3211,17.388],[81.3226,17.3746],[81.3165,17.369],[81.3158,17.3637],[81.312,17.3607],[81.3054,17.3463],[81.2933,17.333],[81.2942,17.3306],[81.3055,17.333],[81.3196,17.351],[81.3268,17.3574],[81.3342,17.3587],[81.3531,17.3458],[81.3695,17.339],[81.3823,17.3397],[81.3902,17.3447],[81.3905,17.351],[81.3938,17.3562],[81.4054,17.351],[81.4161,17.3608],[81.4297,17.3574],[81.4482,17.3566],[81.4659,17.372],[81.4817,17.3807],[81.4991,17.3864],[81.5163,17.3839],[81.5262,17.3803],[81.5295,17.3774],[81.53,17.3709],[81.5371,17.3659],[81.5375,17.3614],[81.53,17.3556],[81.5177,17.3529],[81.5053,17.3473],[81.5012,17.3335],[81.5116,17.3221],[81.509,17.3188],[81.5003,17.3215],[81.4969,17.3176],[81.4916,17.319],[81.4761,17.3143],[81.4633,17.3055],[81.4612,17.293],[81.4576,17.283],[81.4826,17.2846],[81.4901,17.2754],[81.5173,17.2743],[81.5187,17.2853],[81.5257,17.278],[81.5394,17.2924],[81.5469,17.2807],[81.5727,17.2871],[81.5925,17.2986],[81.6061,17.3212],[81.5951,17.3284],[81.586,17.3316],[81.5737,17.333],[81.5774,17.3391],[81.5858,17.346],[81.5942,17.3432],[81.5981,17.3525],[81.5929,17.352],[81.5885,17.3637],[81.5853,17.3616],[81.5783,17.363],[81.5719,17.3799],[81.5687,17.3839],[81.5783,17.3892],[81.5775,17.3961],[81.5728,17.4028],[81.5669,17.4058],[81.5702,17.4123],[81.5706,17.4183],[81.5861,17.4246],[81.5871,17.4447],[81.5923,17.4508],[81.5909,17.4601],[81.5805,17.4662],[81.5844,17.4732],[81.5852,17.4833],[81.5942,17.498],[81.59,17.5068],[81.5786,17.5165],[81.5689,17.5224],[81.5623,17.5292],[81.5683,17.5344],[81.5769,17.535],[81.5768,17.5434],[81.5824,17.5414],[81.5854,17.5469],[81.5909,17.5478],[81.5885,17.5526],[81.594,17.5643],[81.5947,17.571],[81.5919,17.5776],[81.5817,17.5806],[81.5782,17.5859],[81.571,17.5901],[81.5772,17.599],[81.586,17.6013],[81.5919,17.6112],[81.6034,17.6178],[81.6084,17.6179],[81.6172,17.6234],[81.6272,17.6194],[81.636,17.6266],[81.633,17.6322],[81.6254,17.6342],[81.62,17.6414],[81.6122,17.6378],[81.6054,17.6396],[81.5978,17.6529],[81.5963,17.6616],[81.6016,17.6681],[81.601,17.6774],[81.5828,17.6873],[81.5758,17.6989],[81.5694,17.7226],[81.5655,17.724]]]},"properties":{"id":"papikonda-np","name":"Papikonda National Park","category":"np","area_km2":1012.9}}]}