{"type":"FeatureCollection","features":[{"type":"Feature","geometry":{"type":"Polygon","coordinates":[[[86.1242,23.9952],[86.1108,23.9897],[86.1033,23.9891],[86.094,23.9821],[86.0917,23.9715],[86.0936,23.9681],[86.0857,23.9667],[86.0877,23.9621],[86.094,23.9601],[86.0904,23.9542],[86.0963,23.9503],[86.0949,23.9472],[86.1008,23.9405],[86.1121,23.9359],[86.1209,23.9345],[86.1406,23.9377],[86.1445,23.9333],[86.1435,23.9296],[86.1476,23.9272],[86.1477,23.932],[86.1541,23.9337],[86.1544,23.9438],[86.1613,23.9392],[86.1673,23.9424],[86.1907,23.9639],[86.1858,23.9656],[86.1882,23.9739],[86.1926,23.977],[86.1879,23.9804],[86.1859,23.9777],[86.1775,23.9858],[86.1775,23.9814],[86.1641,23.9806],[86.157,23.9848],[86.1567,23.9952],[86.164,23.9978],[86.1594,24.0024],[86.1523,24.004],[86.1477,24.0005],[86.1327,24.0005],[86.1242,23.9952]]]},"properties":{"id":"parasnath-wls","name":"Parasnath Wildlife Sanctuary","category":"wls","area_km2":49.3}}]}