{"type":"FeatureCollection","features":[{"type":"Feature","geometry":{"type":"Polygon","coordinates":[[[76.8342,10.5103],[76.8417,10.5347],[76.8394,10.5418],[76.8275,10.5317],[76.8229,10.5343],[76.8142,10.5323],[76.8102,10.5253],[76.8028,10.524],[76.8032,10.5075],[76.802,10.5027],[76.7948,10.5001],[76.7841,10.4906],[76.7665,10.4773],[76.7629,10.4697],[76.7592,10.4742],[76.7527,10.4732],[76.7511,10.4691],[76.7404,10.4613],[76.7301,10.4647],[76.7351,10.477],[76.7247,10.4787],[76.722,10.4756],[76.7209,10.4615],[76.7184,10.4578],[76.7079,10.4563],[76.7067,10.4465],[76.6991,10.4467],[76.6962,10.4395],[76.6891,10.4405],[76.6896,10.4575],[76.6877,10.462],[76.6809,10.466],[76.6739,10.4635],[76.6741,10.4495],[76.6693,10.4451],[76.6648,10.4485],[76.6511,10.4486],[76.6461,10.4527],[76.6365,10.4508],[76.63,10.4518],[76.603,10.4511],[76.5918,10.4433],[76.5921,10.439],[76.5998,10.4266],[76.6042,10.4223],[76.6056,10.4149],[76.613,10.4034],[76.6203,10.3943],[76.6229,10.3862],[76.6314,10.388],[76.6375,10.3848],[76.646,10.3895],[76.652,10.3892],[76.6562,10.3849],[76.6627,10.3898],[76.6678,10.3885],[76.6728,10.3804],[76.6841,10.3736],[76.6863,10.3696],[76.6948,10.3691],[76.7037,10.3742],[76.7081,10.3812],[76.7224,10.3807],[76.7399,10.3755],[76.7443,10.3731],[76.7536,10.3738],[76.7574,10.3707],[76.7656,10.3685],[76.7666,10.3649],[76.7629,10.3563],[76.7548,10.3535],[76.7532,10.345],[76.7585,10.3422],[76.7727,10.3423],[76.7799,10.3468],[76.79,10.3404],[76.8003,10.3435],[76.8069,10.3427],[76.8083,10.351],[76.8189,10.3534],[76.8301,10.3428],[76.8358,10.3427],[76.8458,10.3568],[76.845,10.3628],[76.8485,10.3673],[76.8441,10.3744],[76.8304,10.3887],[76.8232,10.3945],[76.8336,10.4028],[76.8302,10.4107],[76.8255,10.4091],[76.8228,10.4166],[76.816,10.423],[76.8279,10.4497],[76.8302,10.4972],[76.8342,10.5103]]]},"properties":{"id":"parambikulam-wls","name":"Parambikulam Wildlife Sanctuary","category":"wls","area_km2":285}}]}