{"type":"FeatureCollection","features":[{"type":"Feature","geometry":{"type":"MultiPolygon","coordinates":[[[[82.145,26.9411],[82.1083,26.9417],[82.1469,26.9362],[82.1578,26.9315],[82.1643,26.9241],[82.1646,26.9188],[82.1616,26.9139],[82.1499,26.9108],[82.1314,26.9155],[82.1328,26.9105],[82.1496,26.9051],[82.1569,26.9061],[82.1678,26.9132],[82.1698,26.9189],[82.1691,26.9269],[82.1659,26.9329],[82.1576,26.9378],[82.145,26.9411]]],[[[82.1795,26.9556],[82.1748,26.9587],[82.1692,26.9559],[82.1658,26.95],[82.1694,26.9397],[82.1721,26.9411],[82.1724,26.9506],[82.1771,26.9537],[82.1795,26.9477],[82.1764,26.9371],[82.1814,26.9378],[82.1833,26.9444],[82.1795,26.9556]]]]},"properties":{"id":"parvati-arga-bird-sanctuary-ramsar","name":"Parvati Arga Bird Sanctuary","category":"ramsar","area_km2":7.2}}]}