{"type":"FeatureCollection","features":[{"type":"Feature","geometry":{"type":"MultiPolygon","coordinates":[[[[82.1478,26.9403],[82.1427,26.9419],[82.1236,26.9408],[82.1226,26.9396],[82.1425,26.9389],[82.1495,26.9362],[82.1376,26.9347],[82.1538,26.934],[82.1638,26.9266],[82.1663,26.9222],[82.1647,26.9153],[82.1595,26.9116],[82.1421,26.9122],[82.1309,26.9149],[82.1327,26.9101],[82.1459,26.9056],[82.1565,26.9059],[82.1644,26.9103],[82.1694,26.9187],[82.1695,26.9244],[82.1634,26.9347],[82.1478,26.9403]]],[[[82.1688,26.9585],[82.1633,26.9564],[82.1638,26.95],[82.172,26.94],[82.1724,26.9496],[82.1778,26.9533],[82.1796,26.9484],[82.1744,26.936],[82.1809,26.9371],[82.1832,26.9475],[82.1822,26.9517],[82.1758,26.9587],[82.1688,26.9585]]],[[[82.1096,26.9645],[82.1035,26.9675],[82.0939,26.965],[82.0924,26.9623],[82.0938,26.9532],[82.1,26.9404],[82.1009,26.9447],[82.0954,26.9613],[82.098,26.9653],[82.1026,26.9657],[82.1108,26.9609],[82.1127,26.9538],[82.1072,26.9465],[82.1069,26.9408],[82.1149,26.9532],[82.114,26.9594],[82.1096,26.9645]]]]},"properties":{"id":"parvati-aranga-wls","name":"Parvati Aranga Wildlife Sanctuary","category":"wls","area_km2":10.8}}]}