{"type":"FeatureCollection","features":[{"type":"Feature","geometry":{"type":"Polygon","coordinates":[[[79.5306,20.775],[79.5356,20.7662],[79.543,20.7628],[79.5519,20.7558],[79.5564,20.7583],[79.5624,20.7529],[79.5808,20.7584],[79.583,20.7611],[79.583,20.7741],[79.5798,20.7771],[79.5866,20.7783],[79.5845,20.7811],[79.5882,20.7892],[79.5948,20.7965],[79.6043,20.8006],[79.6106,20.7962],[79.6164,20.7958],[79.6204,20.8001],[79.6202,20.8071],[79.6163,20.8137],[79.6192,20.8201],[79.614,20.8307],[79.6062,20.8323],[79.6131,20.8496],[79.6083,20.8505],[79.6051,20.8609],[79.5945,20.8623],[79.5901,20.8607],[79.5785,20.8423],[79.5788,20.8344],[79.5629,20.8249],[79.5662,20.8156],[79.5708,20.8141],[79.5739,20.803],[79.5706,20.7989],[79.5746,20.7877],[79.5684,20.7901],[79.5672,20.7853],[79.5586,20.7848],[79.5581,20.7823],[79.5492,20.7867],[79.5403,20.7821],[79.538,20.7864],[79.5289,20.7906],[79.5239,20.7904],[79.5145,20.7949],[79.5066,20.7933],[79.5055,20.7973],[79.4985,20.8023],[79.5013,20.8045],[79.4984,20.8127],[79.494,20.8149],[79.505,20.8161],[79.5075,20.8237],[79.5013,20.828],[79.4937,20.8301],[79.4961,20.8346],[79.4955,20.8427],[79.4972,20.8475],[79.4949,20.8621],[79.4988,20.8681],[79.5099,20.8648],[79.5151,20.8649],[79.5219,20.8604],[79.5321,20.8593],[79.538,20.8636],[79.5326,20.8717],[79.539,20.8703],[79.535,20.8807],[79.5384,20.8808],[79.5372,20.886],[79.5438,20.8822],[79.5473,20.8867],[79.5391,20.8919],[79.5377,20.8956],[79.5296,20.8992],[79.5334,20.9024],[79.5286,20.9057],[79.534,20.9168],[79.5275,20.9201],[79.5163,20.9145],[79.5077,20.9141],[79.5062,20.9052],[79.5,20.9028],[79.5024,20.8977],[79.4988,20.8971],[79.4853,20.8887],[79.4825,20.8915],[79.4701,20.886],[79.4647,20.8861],[79.4584,20.8896],[79.4526,20.8856],[79.4435,20.8857],[79.4436,20.8905],[79.438,20.8939],[79.4501,20.8971],[79.4562,20.9046],[79.4704,20.9082],[79.4772,20.9132],[79.4635,20.9129],[79.4511,20.9101],[79.4187,20.8963],[79.424,20.8897],[79.4299,20.8879],[79.4176,20.884],[79.4121,20.8858],[79.4145,20.8938],[79.4087,20.8928],[79.3857,20.8828],[79.3956,20.8829],[79.4006,20.8739],[79.4002,20.8687],[79.3937,20.8667],[79.399,20.8542],[79.4021,20.8536],[79.4048,20.8478],[79.3972,20.8415],[79.3907,20.8434],[79.3884,20.8386],[79.3885,20.8315],[79.3933,20.8264],[79.3979,20.8281],[79.3962,20.8223],[79.3926,20.8199],[79.391,20.824],[79.3885,20.8183],[79.3827,20.8149],[79.3837,20.8104],[79.3917,20.8098],[79.3946,20.8049],[79.4015,20.8059],[79.4045,20.8028],[79.4154,20.8048],[79.4172,20.8013],[79.4242,20.8034],[79.4254,20.809],[79.4353,20.8067],[79.4378,20.8087],[79.4424,20.804],[79.4432,20.8068],[79.4512,20.8067],[79.4544,20.8094],[79.4603,20.8063],[79.469,20.8065],[79.4866,20.8013],[79.4903,20.7957],[79.4949,20.7976],[79.5172,20.7847],[79.5223,20.7775],[79.5306,20.775]]]},"properties":{"id":"pauni-karhandla-wildlife-sanctuary-and-tiger-reserve-wls","name":"Pauni Karhandla Wildlife Sanctuary And Tiger Reserve","category":"wls","area_km2":189.3}}]}