{"type":"FeatureCollection","features":[{"type":"Feature","geometry":{"type":"Polygon","coordinates":[[[76.306,10.6322],[76.3051,10.6269],[76.3121,10.6175],[76.3233,10.6076],[76.3262,10.6026],[76.3244,10.585],[76.3279,10.5822],[76.3429,10.5883],[76.3469,10.5888],[76.3646,10.5866],[76.3711,10.5829],[76.3796,10.5743],[76.3802,10.561],[76.3776,10.5542],[76.3701,10.5473],[76.3738,10.5377],[76.3717,10.5192],[76.3758,10.5126],[76.3741,10.5077],[76.3606,10.4887],[76.3598,10.483],[76.3641,10.4731],[76.3694,10.467],[76.3756,10.4645],[76.3849,10.4654],[76.3929,10.4691],[76.4071,10.4716],[76.4162,10.4701],[76.4291,10.4701],[76.4472,10.4736],[76.4545,10.4787],[76.4599,10.4802],[76.474,10.4807],[76.4759,10.4837],[76.4691,10.4979],[76.4561,10.5143],[76.4427,10.5233],[76.4405,10.529],[76.4304,10.5388],[76.4362,10.5509],[76.4368,10.555],[76.4311,10.559],[76.4207,10.5592],[76.414,10.5622],[76.4094,10.5578],[76.402,10.5626],[76.4006,10.5722],[76.4012,10.5787],[76.4122,10.5842],[76.4098,10.5905],[76.4039,10.592],[76.3962,10.6005],[76.3856,10.6058],[76.3842,10.6111],[76.3775,10.615],[76.3684,10.6291],[76.3577,10.6338],[76.3498,10.6423],[76.3367,10.6588],[76.3346,10.6594],[76.3197,10.6556],[76.3063,10.6504],[76.308,10.6459],[76.306,10.6322]]]},"properties":{"id":"peechi-vazhani-wls","name":"Peechi-Vazhani Wildlife Sanctuary","category":"wls","area_km2":125}}]}