{"type":"FeatureCollection","features":[{"type":"Feature","geometry":{"type":"Polygon","coordinates":[[[79.0919,21.5968],[79.0896,21.5939],[79.0858,21.5802],[79.0846,21.5628],[79.0852,21.5527],[79.0926,21.5531],[79.0999,21.559],[79.1077,21.5597],[79.1171,21.5584],[79.1308,21.5525],[79.1399,21.5594],[79.1447,21.559],[79.1445,21.5485],[79.1477,21.5446],[79.1553,21.5437],[79.1568,21.5384],[79.1709,21.5433],[79.1672,21.5486],[79.1694,21.5583],[79.1749,21.57],[79.1815,21.5721],[79.1907,21.5678],[79.1965,21.5488],[79.2076,21.5447],[79.2295,21.5401],[79.2468,21.5398],[79.2516,21.5527],[79.2458,21.5575],[79.2458,21.5634],[79.25,21.5753],[79.2485,21.5833],[79.2531,21.5854],[79.2592,21.5842],[79.2594,21.577],[79.2662,21.5713],[79.2847,21.5762],[79.2837,21.5807],[79.2899,21.592],[79.2997,21.5938],[79.2969,21.5982],[79.3022,21.6016],[79.3091,21.6005],[79.317,21.5954],[79.3261,21.5966],[79.3292,21.606],[79.3319,21.6233],[79.3268,21.6271],[79.3264,21.6325],[79.3294,21.6359],[79.3522,21.6316],[79.3663,21.6405],[79.3665,21.6645],[79.3578,21.679],[79.3523,21.6779],[79.3541,21.6846],[79.3462,21.6836],[79.3244,21.6877],[79.3123,21.6881],[79.2965,21.6933],[79.2908,21.6925],[79.2805,21.7018],[79.278,21.7093],[79.2676,21.7155],[79.2482,21.7197],[79.231,21.7223],[79.2308,21.7187],[79.2364,21.716],[79.2367,21.7118],[79.2282,21.7049],[79.2212,21.694],[79.2208,21.682],[79.2227,21.6758],[79.229,21.6738],[79.2311,21.6701],[79.2312,21.6568],[79.2246,21.6557],[79.2239,21.6486],[79.2123,21.6494],[79.1631,21.6585],[79.154,21.6597],[79.1517,21.6512],[79.142,21.6371],[79.1344,21.633],[79.1302,21.6257],[79.112,21.6238],[79.1003,21.6175],[79.1018,21.609],[79.1066,21.607],[79.1027,21.6014],[79.0932,21.6014],[79.0919,21.5968]]]},"properties":{"id":"pench-jawaharlal-nehru-np","name":"Pench (Jawaharlal Nehru) National Park","category":"np","area_km2":257.3}}]}