{"type":"FeatureCollection","features":[{"type":"Feature","geometry":{"type":"Polygon","coordinates":[[[79.3634,21.7895],[79.3665,21.7892],[79.3717,21.7835],[79.3712,21.7783],[79.3763,21.7784],[79.3755,21.7701],[79.3903,21.766],[79.3899,21.758],[79.4089,21.7615],[79.4176,21.7594],[79.4286,21.7605],[79.432,21.7662],[79.4383,21.7624],[79.4415,21.7705],[79.4348,21.7738],[79.4373,21.7794],[79.4305,21.783],[79.4302,21.7859],[79.4367,21.7892],[79.4427,21.7862],[79.4542,21.7851],[79.4631,21.7907],[79.4637,21.8021],[79.4702,21.8102],[79.4772,21.8066],[79.4906,21.8123],[79.5004,21.8205],[79.5033,21.8354],[79.5087,21.8405],[79.5108,21.8472],[79.5187,21.8551],[79.5237,21.8686],[79.5296,21.8779],[79.53,21.8918],[79.5271,21.8978],[79.5189,21.9004],[79.5177,21.9087],[79.5082,21.9077],[79.5053,21.9005],[79.4981,21.893],[79.491,21.8832],[79.4829,21.878],[79.4754,21.8758],[79.4731,21.8727],[79.4641,21.8695],[79.4685,21.8603],[79.4607,21.8527],[79.4528,21.8495],[79.4435,21.8498],[79.4381,21.8548],[79.4213,21.8531],[79.4127,21.8448],[79.4069,21.8433],[79.4067,21.8544],[79.4016,21.8575],[79.4002,21.8649],[79.3898,21.8634],[79.3738,21.8566],[79.3661,21.8433],[79.3656,21.8311],[79.3598,21.8172],[79.3637,21.8108],[79.365,21.7998],[79.3634,21.7895]]]},"properties":{"id":"pench-moghli-wls","name":"Pench Moghli Wildlife Sanctuary","category":"wls","area_km2":118.5}}]}