{"type":"FeatureCollection","features":[{"type":"Feature","geometry":{"type":"Polygon","coordinates":[[[79.3468,21.7404],[79.3543,21.744],[79.359,21.743],[79.3706,21.7665],[79.3689,21.7772],[79.3581,21.7818],[79.3564,21.7904],[79.3634,21.7895],[79.365,21.7998],[79.3637,21.8108],[79.3598,21.8172],[79.3352,21.8179],[79.3222,21.8214],[79.3135,21.8257],[79.2985,21.835],[79.2876,21.8382],[79.2755,21.8362],[79.2571,21.8418],[79.2349,21.8411],[79.2312,21.8463],[79.2233,21.8461],[79.2222,21.8369],[79.2149,21.8319],[79.2149,21.8256],[79.2206,21.8243],[79.2239,21.8137],[79.2352,21.8053],[79.2326,21.8017],[79.2325,21.7937],[79.2103,21.7949],[79.2123,21.8003],[79.2093,21.8014],[79.1875,21.8021],[79.1865,21.8073],[79.176,21.8042],[79.1734,21.8018],[79.1805,21.7985],[79.179,21.7936],[79.1558,21.7902],[79.1522,21.7869],[79.1534,21.7803],[79.1659,21.7754],[79.1803,21.7603],[79.1835,21.7589],[79.1823,21.7511],[79.1775,21.7473],[79.1655,21.7491],[79.1649,21.7537],[79.16,21.7568],[79.1472,21.7562],[79.1367,21.7578],[79.132,21.7564],[79.1308,21.7519],[79.1349,21.7464],[79.1343,21.7379],[79.1387,21.7337],[79.1435,21.7348],[79.1457,21.7389],[79.1508,21.7389],[79.151,21.7344],[79.1471,21.7295],[79.1486,21.7183],[79.1436,21.7143],[79.1498,21.7139],[79.1502,21.7088],[79.1771,21.7036],[79.1793,21.699],[79.1756,21.6948],[79.1569,21.6978],[79.1445,21.6975],[79.1353,21.6947],[79.1334,21.6867],[79.1429,21.6825],[79.1556,21.6823],[79.1555,21.6782],[79.1594,21.6689],[79.1567,21.6605],[79.1631,21.6585],[79.2123,21.6494],[79.2239,21.6486],[79.2246,21.6557],[79.2312,21.6568],[79.2311,21.6701],[79.229,21.6738],[79.2227,21.6758],[79.2208,21.682],[79.2212,21.694],[79.2282,21.7049],[79.2367,21.7118],[79.2364,21.716],[79.2308,21.7187],[79.231,21.7223],[79.2482,21.7197],[79.2676,21.7155],[79.278,21.7093],[79.2805,21.7018],[79.2908,21.6925],[79.2965,21.6933],[79.3123,21.6881],[79.3244,21.6877],[79.3462,21.6836],[79.3541,21.6846],[79.3523,21.6779],[79.3578,21.679],[79.357,21.6867],[79.3517,21.6928],[79.3453,21.6966],[79.3328,21.698],[79.3298,21.7029],[79.3469,21.7329],[79.3368,21.7367],[79.3379,21.7417],[79.3468,21.7404]]]},"properties":{"id":"pench-priyadarshni-np","name":"Pench (Priyadarshni) National Park","category":"np","area_km2":292.9}}]}