{"type":"FeatureCollection","features":[{"type":"Feature","geometry":{"type":"Polygon","coordinates":[[[77.2073,8.6791],[77.2067,8.6844],[77.1972,8.7001],[77.1849,8.6918],[77.1844,8.6858],[77.1777,8.6837],[77.175,8.6802],[77.1747,8.6735],[77.169,8.6693],[77.1648,8.6699],[77.1596,8.6781],[77.1542,8.6736],[77.1512,8.6759],[77.1479,8.672],[77.1461,8.6642],[77.1342,8.6707],[77.1274,8.6722],[77.1224,8.6688],[77.1223,8.6648],[77.1131,8.6609],[77.1203,8.6504],[77.1278,8.6459],[77.1409,8.6274],[77.1428,8.6334],[77.149,8.6334],[77.1436,8.6418],[77.1454,8.6474],[77.1499,8.6472],[77.1516,8.6538],[77.1566,8.6426],[77.1511,8.6419],[77.1546,8.6384],[77.1499,8.6363],[77.155,8.6242],[77.1557,8.6321],[77.1603,8.6283],[77.1582,8.6148],[77.1504,8.6235],[77.1488,8.6176],[77.146,8.6217],[77.1395,8.6228],[77.1408,8.617],[77.1511,8.6003],[77.1557,8.6],[77.1585,8.5919],[77.18,8.5734],[77.1968,8.5807],[77.2114,8.5922],[77.2162,8.6077],[77.2215,8.6156],[77.2336,8.6284],[77.232,8.6357],[77.2287,8.6403],[77.2247,8.6391],[77.2143,8.649],[77.2122,8.6569],[77.2082,8.6637],[77.2008,8.669],[77.2073,8.6791]]]},"properties":{"id":"peppara-wls","name":"Peppara Wildlife Sanctuary","category":"wls","area_km2":53}}]}