{"type":"FeatureCollection","features":[{"type":"Feature","geometry":{"type":"Polygon","coordinates":[[[77.3657,9.5989],[77.3545,9.6041],[77.3459,9.5889],[77.3393,9.5733],[77.3324,9.5788],[77.3252,9.58],[77.3238,9.5854],[77.3261,9.5886],[77.3244,9.5933],[77.3294,9.5981],[77.3249,9.5977],[77.3177,9.6025],[77.3152,9.6007],[77.3037,9.5988],[77.2902,9.5848],[77.2803,9.5796],[77.2768,9.5758],[77.2722,9.5765],[77.2664,9.5736],[77.2641,9.5606],[77.2642,9.5531],[77.2622,9.5371],[77.2623,9.5258],[77.2578,9.524],[77.2539,9.5184],[77.2429,9.5135],[77.2369,9.5065],[77.2362,9.5026],[77.2292,9.5012],[77.226,9.4934],[77.2322,9.4885],[77.2366,9.4878],[77.2375,9.4834],[77.235,9.4771],[77.2254,9.4704],[77.2257,9.4622],[77.2231,9.4579],[77.2232,9.4457],[77.2183,9.4418],[77.2176,9.4376],[77.2239,9.4309],[77.2228,9.4195],[77.2291,9.4175],[77.2305,9.4066],[77.2332,9.4011],[77.2418,9.3929],[77.248,9.3777],[77.2466,9.3718],[77.2423,9.368],[77.2413,9.3552],[77.2369,9.3474],[77.2384,9.3384],[77.2339,9.3294],[77.2336,9.3201],[77.2292,9.316],[77.225,9.292],[77.2306,9.2934],[77.2349,9.291],[77.2375,9.2824],[77.2438,9.2827],[77.2446,9.2869],[77.2521,9.2871],[77.2664,9.279],[77.2745,9.2763],[77.2816,9.2708],[77.2884,9.2742],[77.2877,9.2819],[77.283,9.2925],[77.2829,9.3013],[77.2887,9.3019],[77.2994,9.3109],[77.3025,9.3189],[77.3017,9.3246],[77.2971,9.3292],[77.3004,9.3297],[77.2999,9.3367],[77.3043,9.3378],[77.3155,9.3349],[77.3199,9.3375],[77.3251,9.3371],[77.3251,9.3445],[77.3356,9.3611],[77.3379,9.3686],[77.3345,9.3788],[77.3364,9.3873],[77.3412,9.3898],[77.3396,9.3937],[77.3435,9.4009],[77.3364,9.4123],[77.3396,9.4207],[77.3437,9.4232],[77.3484,9.4345],[77.3492,9.4411],[77.3562,9.4476],[77.3585,9.4536],[77.3658,9.4601],[77.377,9.4528],[77.3868,9.4557],[77.3924,9.4595],[77.3914,9.4688],[77.3963,9.47],[77.4019,9.4787],[77.3988,9.4814],[77.399,9.4961],[77.4022,9.501],[77.4122,9.509],[77.4079,9.515],[77.4003,9.5179],[77.403,9.5218],[77.4004,9.5274],[77.3972,9.5241],[77.385,9.5192],[77.38,9.5254],[77.3732,9.5269],[77.3685,9.5348],[77.3654,9.5351],[77.3645,9.5467],[77.3656,9.5509],[77.3614,9.5578],[77.3528,9.5596],[77.3501,9.5671],[77.3528,9.5729],[77.358,9.574],[77.3598,9.5785],[77.3548,9.5866],[77.3573,9.5944],[77.3657,9.5989]]]},"properties":{"id":"periyar-wls","name":"Periyar Wildlife Sanctuary","category":"wls","area_km2":427}}]}