{"type":"FeatureCollection","features":[{"type":"Feature","geometry":{"type":"Polygon","coordinates":[[[77.2623,9.5258],[77.2622,9.5371],[77.2642,9.5531],[77.2641,9.5606],[77.2664,9.5736],[77.2577,9.5782],[77.2529,9.583],[77.2427,9.5852],[77.2342,9.5816],[77.2224,9.5928],[77.222,9.5977],[77.2143,9.6007],[77.2097,9.605],[77.2101,9.6122],[77.198,9.6143],[77.1971,9.6111],[77.1886,9.6062],[77.1733,9.6112],[77.1682,9.6109],[77.1645,9.605],[77.1567,9.6002],[77.1554,9.591],[77.1481,9.5853],[77.1366,9.585],[77.1336,9.5735],[77.1234,9.57],[77.1208,9.5653],[77.1239,9.5603],[77.1299,9.5566],[77.124,9.5511],[77.1117,9.5473],[77.0974,9.5476],[77.0981,9.5397],[77.1073,9.5356],[77.1122,9.5304],[77.1105,9.5224],[77.1058,9.5215],[77.0798,9.5085],[77.0742,9.5088],[77.0725,9.5117],[77.0541,9.5081],[77.0461,9.5033],[77.0388,9.502],[77.0306,9.4962],[77.0321,9.4937],[77.0235,9.4885],[77.0192,9.491],[77.0193,9.4864],[77.0065,9.4796],[76.9893,9.4754],[76.9916,9.4715],[76.987,9.4723],[76.9829,9.4664],[76.9722,9.4669],[76.9692,9.4643],[76.9633,9.4642],[76.9562,9.4578],[76.9524,9.45],[76.9417,9.4455],[76.9456,9.4352],[76.9401,9.4315],[76.9432,9.4186],[76.9594,9.4199],[76.9614,9.4228],[76.9693,9.425],[76.9735,9.4219],[76.9755,9.4243],[76.9868,9.4236],[76.9933,9.4216],[76.9969,9.4236],[77.0045,9.4187],[77.0122,9.4199],[77.01,9.4094],[77.0201,9.4066],[77.0251,9.4093],[77.0279,9.407],[77.037,9.412],[77.0483,9.4139],[77.0569,9.4175],[77.0656,9.4169],[77.0697,9.4132],[77.0734,9.4148],[77.077,9.4207],[77.0842,9.4216],[77.099,9.4327],[77.1108,9.4361],[77.1135,9.4411],[77.1215,9.4434],[77.1292,9.4576],[77.1411,9.4584],[77.1476,9.4618],[77.1531,9.469],[77.1674,9.4664],[77.1689,9.4604],[77.172,9.4612],[77.1796,9.4694],[77.1833,9.4677],[77.1855,9.46],[77.1842,9.4526],[77.1884,9.4525],[77.1906,9.448],[77.1966,9.4491],[77.2081,9.4471],[77.2087,9.4397],[77.2125,9.439],[77.2203,9.4332],[77.2183,9.4418],[77.2232,9.4457],[77.2231,9.4579],[77.2257,9.4622],[77.2254,9.4704],[77.235,9.4771],[77.2375,9.4834],[77.2366,9.4878],[77.2322,9.4885],[77.226,9.4934],[77.2292,9.5012],[77.2362,9.5026],[77.2369,9.5065],[77.2429,9.5135],[77.2539,9.5184],[77.2578,9.524],[77.2623,9.5258]]]},"properties":{"id":"periyar-np","name":"Periyar National Park","category":"np","area_km2":350}}]}