{"type":"FeatureCollection","features":[{"type":"Feature","geometry":{"type":"Polygon","coordinates":[[[77.2678,9.5732],[77.2636,9.5738],[77.2529,9.583],[77.2427,9.5852],[77.2342,9.5816],[77.2224,9.5928],[77.222,9.5977],[77.2143,9.6007],[77.2097,9.605],[77.2101,9.6122],[77.198,9.6143],[77.1971,9.6111],[77.1886,9.6062],[77.1733,9.6112],[77.1682,9.6109],[77.1645,9.605],[77.1567,9.6002],[77.1554,9.591],[77.1481,9.5853],[77.1366,9.585],[77.1336,9.5735],[77.1234,9.57],[77.1208,9.5653],[77.1239,9.5603],[77.1299,9.5566],[77.124,9.5511],[77.1117,9.5473],[77.0974,9.5476],[77.0981,9.5397],[77.1073,9.5356],[77.1122,9.5304],[77.1105,9.5224],[77.1058,9.5215],[77.0798,9.5085],[77.0742,9.5088],[77.0725,9.5117],[77.0541,9.5081],[77.0461,9.5033],[77.0388,9.502],[77.0306,9.4962],[77.0321,9.4937],[77.0235,9.4885],[77.0192,9.491],[77.0193,9.4864],[77.0065,9.4796],[76.9893,9.4754],[76.9916,9.4715],[76.987,9.4723],[76.9829,9.4664],[76.9722,9.4669],[76.9692,9.4643],[76.9633,9.4642],[76.9562,9.4578],[76.9524,9.45],[76.9417,9.4455],[76.9456,9.4352],[76.9401,9.4315],[76.9432,9.4186],[76.9594,9.4199],[76.9614,9.4228],[76.9693,9.425],[76.9735,9.4219],[76.9755,9.4243],[76.9868,9.4236],[76.9933,9.4216],[76.9969,9.4236],[77.0045,9.4187],[77.0122,9.4199],[77.01,9.4094],[77.0201,9.4066],[77.0251,9.4093],[77.0279,9.407],[77.037,9.412],[77.0483,9.4139],[77.0569,9.4175],[77.0656,9.4169],[77.0697,9.4132],[77.0734,9.4148],[77.077,9.4207],[77.0842,9.4216],[77.099,9.4327],[77.1108,9.4361],[77.1135,9.4411],[77.1215,9.4434],[77.1292,9.4576],[77.1411,9.4584],[77.1476,9.4618],[77.1531,9.469],[77.1674,9.4664],[77.1689,9.4604],[77.172,9.4612],[77.1796,9.4694],[77.1833,9.4677],[77.1855,9.46],[77.1842,9.4526],[77.1884,9.4525],[77.1906,9.448],[77.1966,9.4491],[77.2081,9.4471],[77.2087,9.4397],[77.2239,9.4309],[77.2228,9.4195],[77.2291,9.4175],[77.2305,9.4066],[77.2332,9.4011],[77.2418,9.3929],[77.248,9.3777],[77.2466,9.3718],[77.2423,9.368],[77.2413,9.3552],[77.2369,9.3474],[77.2384,9.3384],[77.2339,9.3294],[77.2336,9.3201],[77.2292,9.316],[77.225,9.292],[77.2306,9.2934],[77.2349,9.291],[77.2375,9.2824],[77.2438,9.2827],[77.2446,9.2869],[77.2521,9.2871],[77.2664,9.279],[77.2745,9.2763],[77.2816,9.2708],[77.2884,9.2742],[77.2877,9.2819],[77.283,9.2925],[77.2829,9.3013],[77.2887,9.3019],[77.2994,9.3109],[77.3025,9.3189],[77.3017,9.3246],[77.2971,9.3292],[77.3004,9.3297],[77.2999,9.3367],[77.3043,9.3378],[77.3155,9.3349],[77.3199,9.3375],[77.3251,9.3371],[77.3251,9.3445],[77.3356,9.3611],[77.3379,9.3686],[77.3345,9.3788],[77.3364,9.3873],[77.3412,9.3898],[77.3396,9.3937],[77.3435,9.4009],[77.3364,9.4123],[77.3396,9.4207],[77.3437,9.4232],[77.3484,9.4345],[77.3492,9.4411],[77.3562,9.4476],[77.3585,9.4536],[77.3658,9.4601],[77.377,9.4528],[77.3868,9.4557],[77.3924,9.4595],[77.3914,9.4688],[77.3963,9.47],[77.4019,9.4787],[77.3988,9.4814],[77.399,9.4961],[77.4022,9.501],[77.4122,9.509],[77.4079,9.515],[77.4003,9.5179],[77.403,9.5218],[77.4004,9.5274],[77.3972,9.5241],[77.385,9.5192],[77.38,9.5254],[77.3732,9.5269],[77.3685,9.5348],[77.3654,9.5351],[77.3645,9.5467],[77.3656,9.5509],[77.3614,9.5578],[77.3528,9.5596],[77.3501,9.5671],[77.3528,9.5729],[77.358,9.574],[77.3598,9.5785],[77.3548,9.5866],[77.3573,9.5944],[77.361,9.5978],[77.366,9.596],[77.3657,9.5998],[77.3545,9.6041],[77.3459,9.5889],[77.3393,9.5733],[77.3324,9.5788],[77.3252,9.58],[77.3238,9.5854],[77.3261,9.5886],[77.3244,9.5933],[77.3294,9.5981],[77.3249,9.5977],[77.3177,9.6025],[77.3152,9.6007],[77.3037,9.5988],[77.2902,9.5848],[77.2803,9.5796],[77.2768,9.5758],[77.2722,9.5765],[77.2678,9.5732]]]},"properties":{"id":"periyar-tr","name":"Periyar Tiger Reserve","category":"tr","area_km2":777}}]}