{"type":"FeatureCollection","features":[{"type":"Feature","geometry":{"type":"Polygon","coordinates":[[[72.9187,18.4069],[72.9437,18.4168],[72.9493,18.4151],[72.9584,18.4171],[72.9625,18.4079],[72.9724,18.4047],[72.9747,18.398],[72.982,18.4009],[72.988,18.3923],[72.9856,18.3854],[72.9872,18.3751],[72.9811,18.3647],[72.9722,18.3628],[72.9583,18.3733],[72.9476,18.3667],[72.941,18.3672],[72.9436,18.3622],[72.9401,18.3535],[72.9463,18.3566],[72.9458,18.3494],[72.9504,18.3451],[72.9492,18.3401],[72.9544,18.3392],[72.9568,18.3462],[72.9667,18.3502],[72.972,18.3466],[72.9828,18.3473],[72.9833,18.3562],[72.9913,18.3518],[72.9955,18.3562],[73.0023,18.356],[73.003,18.3508],[73.0075,18.3515],[73.0089,18.3555],[73.0088,18.3691],[73.0126,18.3676],[73.0171,18.3546],[73.0219,18.3456],[73.0263,18.3406],[73.0324,18.3419],[73.0345,18.358],[73.0302,18.379],[73.0251,18.396],[73.0136,18.4071],[73.0001,18.4115],[72.9914,18.4126],[72.9842,18.42],[72.9688,18.4277],[72.9696,18.4388],[72.9644,18.4446],[72.9613,18.4537],[72.9636,18.46],[72.9599,18.4643],[72.9458,18.4658],[72.9272,18.4654],[72.9194,18.4681],[72.9142,18.4746],[72.9123,18.4847],[72.9081,18.4923],[72.9122,18.494],[72.9155,18.503],[72.909,18.5019],[72.9043,18.4911],[72.9061,18.4873],[72.9061,18.4767],[72.902,18.4711],[72.8984,18.4704],[72.8975,18.4592],[72.9047,18.4501],[72.9089,18.4527],[72.908,18.4479],[72.9119,18.4452],[72.913,18.4321],[72.9189,18.4351],[72.9246,18.4295],[72.9259,18.4222],[72.919,18.4214],[72.9106,18.4249],[72.9103,18.4204],[72.9151,18.4124],[72.9139,18.4094],[72.9187,18.4069]]]},"properties":{"id":"phansad-wls","name":"Phansad Wildlife Sanctuary","category":"wls","area_km2":69.8}}]}