{"type":"FeatureCollection","features":[{"type":"Feature","geometry":{"type":"Polygon","coordinates":[[[93.0321,22.6118],[93.0456,22.6082],[93.0543,22.612],[93.0669,22.604],[93.0725,22.6104],[93.0659,22.6181],[93.0674,22.6329],[93.067,22.6497],[93.0836,22.6601],[93.0628,22.6851],[93.0578,22.6865],[93.0524,22.6968],[93.0454,22.7004],[93.0377,22.7001],[93.0344,22.6952],[93.0257,22.6923],[93.0252,22.6874],[93.0298,22.6748],[93.0281,22.6734],[93.0168,22.675],[93.0162,22.6705],[93.0182,22.6523],[93.0167,22.6326],[93.0236,22.6135],[93.0321,22.6118]]]},"properties":{"id":"phawngpui-blue-mountain-np","name":"Phawngpui Blue Mountain National Park","category":"np","area_km2":50}}]}