{"type":"FeatureCollection","features":[{"type":"Feature","geometry":{"type":"Polygon","coordinates":[[[81.0805,22.3855],[81.0803,22.3881],[81.0659,22.4014],[81.0566,22.4029],[81.0284,22.4052],[81.0088,22.4077],[80.9952,22.4112],[80.9895,22.4234],[80.9585,22.4212],[80.9601,22.4073],[80.9649,22.4009],[80.9553,22.4004],[80.9468,22.394],[80.9517,22.3876],[80.9548,22.3801],[80.9537,22.3677],[80.9603,22.3504],[80.9928,22.344],[81.0141,22.3287],[81.0282,22.3269],[81.0451,22.3328],[81.0557,22.3255],[81.0657,22.324],[81.0836,22.3232],[81.0962,22.3352],[81.104,22.3366],[81.1196,22.3458],[81.1131,22.3533],[81.1118,22.3632],[81.1087,22.3738],[81.1037,22.3827],[81.1004,22.3849],[81.0918,22.3834],[81.0805,22.3855]]]},"properties":{"id":"phen-wls","name":"Phen Wildlife Sanctuary","category":"wls","area_km2":110.7}}]}