{"type":"FeatureCollection","features":[{"type":"Feature","geometry":{"type":"Polygon","coordinates":[[[73.165,24.2998],[73.1603,24.2906],[73.1573,24.276],[73.1504,24.2612],[73.1472,24.2571],[73.149,24.2446],[73.142,24.2387],[73.1422,24.2331],[73.1505,24.2339],[73.1524,24.2246],[73.16,24.2226],[73.1661,24.211],[73.1727,24.2058],[73.1767,24.1996],[73.1855,24.1987],[73.196,24.1941],[73.1868,24.1923],[73.1883,24.1887],[73.1813,24.1905],[73.18,24.1867],[73.1835,24.1797],[73.1729,24.1821],[73.1676,24.1922],[73.1566,24.1937],[73.1509,24.1926],[73.1344,24.1995],[73.1286,24.1992],[73.1279,24.1915],[73.1326,24.1705],[73.1375,24.158],[73.1391,24.1392],[73.1483,24.1248],[73.1538,24.1241],[73.1541,24.1318],[73.1572,24.1383],[73.1505,24.1412],[73.1485,24.1511],[73.1594,24.1472],[73.1657,24.1354],[73.1649,24.131],[73.1687,24.1273],[73.1689,24.1173],[73.1792,24.1212],[73.1765,24.1276],[73.1765,24.1379],[73.1812,24.1444],[73.1907,24.1447],[73.1892,24.1305],[73.194,24.1189],[73.2019,24.1137],[73.2052,24.1151],[73.2115,24.1265],[73.2172,24.1317],[73.2241,24.1601],[73.2279,24.163],[73.2305,24.1529],[73.2366,24.1579],[73.24,24.1654],[73.2504,24.181],[73.2501,24.173],[73.2405,24.1573],[73.2339,24.1367],[73.2268,24.1256],[73.2139,24.1205],[73.2093,24.1134],[73.2017,24.1091],[73.1917,24.1151],[73.1876,24.1153],[73.1801,24.1067],[73.1676,24.1087],[73.1609,24.0968],[73.1598,24.088],[73.1613,24.0833],[73.1657,24.0847],[73.1689,24.0897],[73.1763,24.0943],[73.1768,24.0898],[73.1701,24.0864],[73.1684,24.0823],[73.1733,24.0792],[73.1643,24.0801],[73.1614,24.0761],[73.1636,24.0718],[73.1565,24.0689],[73.149,24.0538],[73.1439,24.0522],[73.1465,24.0472],[73.1452,24.038],[73.1464,24.0331],[73.1612,24.0335],[73.1671,24.038],[73.1738,24.0315],[73.1762,24.0334],[73.1761,24.0441],[73.1791,24.0481],[73.1891,24.0731],[73.2057,24.1011],[73.2103,24.1045],[73.2199,24.1061],[73.2209,24.1007],[73.2135,24.0868],[73.2036,24.063],[73.2038,24.0554],[73.2171,24.0746],[73.2208,24.0842],[73.2265,24.0861],[73.2356,24.1021],[73.242,24.1102],[73.2477,24.1223],[73.257,24.1364],[73.2637,24.1387],[73.2477,24.1068],[73.2459,24.1002],[73.2397,24.0908],[73.2353,24.0749],[73.2245,24.0513],[73.2265,24.0438],[73.2141,24.0445],[73.2076,24.0346],[73.2034,24.0244],[73.1969,23.9961],[73.2007,23.9916],[73.2142,23.9908],[73.2201,24.0035],[73.234,24.0208],[73.2538,24.0509],[73.2596,24.0575],[73.2706,24.0735],[73.2764,24.0852],[73.2786,24.0957],[73.2792,24.1065],[73.2872,24.1212],[73.2887,24.1321],[73.2872,24.1406],[73.2939,24.1723],[73.2936,24.1757],[73.2974,24.1903],[73.2979,24.1963],[73.3062,24.2206],[73.305,24.232],[73.2949,24.2362],[73.2921,24.2274],[73.2801,24.2052],[73.275,24.1922],[73.2793,24.1858],[73.2759,24.1793],[73.2697,24.1828],[73.2673,24.1892],[73.2689,24.1982],[73.274,24.2053],[73.2841,24.2285],[73.2895,24.2392],[73.2881,24.2427],[73.2751,24.2454],[73.2741,24.2501],[73.2816,24.2604],[73.2903,24.2785],[73.2933,24.2964],[73.2926,24.3027],[73.2964,24.3251],[73.2937,24.3329],[73.2867,24.3313],[73.2917,24.3541],[73.3006,24.3776],[73.2999,24.3885],[73.3057,24.3943],[73.3046,24.398],[73.3161,24.4148],[73.324,24.4348],[73.3304,24.454],[73.3407,24.4656],[73.3437,24.4725],[73.3426,24.4798],[73.3473,24.4849],[73.3503,24.4936],[73.3528,24.5086],[73.3539,24.527],[73.3512,24.5316],[73.3457,24.5233],[73.3342,24.5169],[73.326,24.518],[73.3219,24.5129],[73.3189,24.5025],[73.3041,24.4976],[73.3008,24.5016],[73.3075,24.5257],[73.3166,24.5293],[73.3178,24.5367],[73.3145,24.5476],[73.3172,24.5608],[73.3208,24.5705],[73.3195,24.581],[73.3208,24.5898],[73.3203,24.6005],[73.3221,24.6125],[73.3214,24.6289],[73.3146,24.63],[73.3087,24.6354],[73.2989,24.6334],[73.2962,24.6396],[73.2903,24.6412],[73.2892,24.6361],[73.2852,24.6423],[73.2791,24.647],[73.277,24.6521],[73.2714,24.6562],[73.2677,24.6627],[73.265,24.6592],[73.2583,24.6607],[73.2515,24.6527],[73.2464,24.652],[73.2403,24.6468],[73.2402,24.6408],[73.2316,24.6279],[73.2314,24.6227],[73.2251,24.6173],[73.2207,24.5994],[73.2148,24.5896],[73.2116,24.5732],[73.2153,24.564],[73.2245,24.5572],[73.2255,24.5529],[73.2202,24.5391],[73.217,24.535],[73.216,24.5284],[73.2218,24.516],[73.2312,24.5194],[73.2351,24.5138],[73.2434,24.5182],[73.2455,24.5278],[73.25,24.5277],[73.2469,24.5211],[73.2486,24.5097],[73.253,24.5037],[73.2615,24.4995],[73.2504,24.5014],[73.246,24.4918],[73.2411,24.4919],[73.2387,24.4779],[73.2395,24.463],[73.2444,24.4624],[73.2505,24.4659],[73.2518,24.4628],[73.2475,24.4578],[73.2399,24.4415],[73.2429,24.4347],[73.2429,24.4248],[73.2394,24.4008],[73.2445,24.3949],[73.243,24.3876],[73.2339,24.3857],[73.2308,24.3776],[73.2266,24.3767],[73.2289,24.3664],[73.2481,24.3653],[73.2467,24.3593],[73.237,24.3547],[73.2424,24.3513],[73.2514,24.3508],[73.2433,24.3465],[73.2396,24.347],[73.228,24.358],[73.2247,24.3571],[73.2219,24.3463],[73.2212,24.3317],[73.2266,24.3292],[73.2382,24.3327],[73.2435,24.3322],[73.2395,24.3262],[73.2252,24.3247],[73.2254,24.3193],[73.216,24.2961],[73.2219,24.2869],[73.2162,24.2888],[73.2075,24.2953],[73.2041,24.2892],[73.2069,24.2819],[73.213,24.2765],[73.2113,24.2702],[73.2114,24.2581],[73.2149,24.2535],[73.2222,24.2529],[73.2247,24.2484],[73.2199,24.2468],[73.223,24.2381],[73.2215,24.2324],[73.2164,24.2327],[73.2166,24.2467],[73.2133,24.2497],[73.2069,24.2393],[73.2089,24.2351],[73.211,24.2182],[73.2041,24.2246],[73.2047,24.2379],[73.2018,24.2428],[73.2084,24.2488],[73.2067,24.2543],[73.2065,24.2667],[73.2089,24.2779],[73.201,24.2804],[73.1983,24.2858],[73.2009,24.293],[73.1916,24.2951],[73.1854,24.2989],[73.1807,24.2989],[73.1821,24.291],[73.1866,24.2826],[73.1842,24.2795],[73.18,24.2885],[73.1754,24.3051],[73.172,24.3053],[73.1692,24.3003],[73.165,24.2998]]]},"properties":{"id":"phulwari-ki-nal-wls","name":"Phulwari Ki Nal Wildlife Sanctuary","category":"wls","area_km2":692.7}}]}