{"type":"FeatureCollection","features":[{"type":"Feature","geometry":{"type":"Polygon","coordinates":[[[79.7847,11.4668],[79.7746,11.4652],[79.7737,11.4575],[79.785,11.4348],[79.7846,11.4297],[79.7737,11.4272],[79.7772,11.4266],[79.7809,11.4207],[79.7884,11.4154],[79.7832,11.4221],[79.7842,11.4257],[79.7912,11.416],[79.8051,11.4072],[79.809,11.4199],[79.809,11.4351],[79.8054,11.4443],[79.7971,11.4522],[79.7952,11.4574],[79.7847,11.4668]]]},"properties":{"id":"pichavaram-mangrove-ramsar","name":"Pichavaram Mangrove","category":"ramsar","area_km2":14.8}}]}