{"type":"FeatureCollection","features":[{"type":"Feature","geometry":{"type":"MultiPolygon","coordinates":[[[[79.9517,28.2636],[79.9541,28.2618],[79.9635,28.267],[79.9693,28.2738],[79.9607,28.2767],[79.9604,28.2848],[79.9569,28.2844],[79.9573,28.2747],[79.9517,28.2636]]],[[[80.0395,28.3489],[80.0447,28.3557],[80.043,28.3609],[80.0455,28.3679],[80.0434,28.3709],[80.0366,28.3707],[80.0347,28.3665],[80.0397,28.3594],[80.0397,28.3556],[80.0279,28.3565],[80.0259,28.351],[80.0341,28.347],[80.0317,28.3409],[80.0246,28.3412],[80.0247,28.3285],[80.0307,28.3271],[80.0366,28.3313],[80.0383,28.3389],[80.0373,28.3482],[80.0395,28.3489]]],[[[80.0469,28.503],[80.0317,28.5008],[80.0248,28.518],[80.0228,28.5265],[80.0177,28.5265],[80.003,28.5195],[79.988,28.5163],[79.9828,28.5134],[79.9835,28.5081],[79.9908,28.5049],[79.9949,28.4985],[79.994,28.4934],[80.0017,28.4825],[80.0031,28.4761],[80.0005,28.4707],[79.9849,28.4695],[79.9809,28.4638],[79.9707,28.4663],[79.9658,28.4643],[79.9632,28.4583],[79.9577,28.4565],[79.9528,28.4583],[79.9436,28.4531],[79.9332,28.4502],[79.9303,28.4454],[79.9276,28.4336],[79.9107,28.4311],[79.9096,28.4271],[79.9167,28.4249],[79.9173,28.4203],[79.9107,28.4175],[79.9104,28.4127],[79.9191,28.413],[79.9268,28.416],[79.9346,28.4162],[79.939,28.425],[79.9438,28.4302],[79.9586,28.4309],[79.9659,28.4344],[79.9719,28.4332],[79.9707,28.4211],[79.964,28.4134],[79.9634,28.4032],[79.9519,28.4032],[79.9478,28.4054],[79.9444,28.4021],[79.9451,28.3952],[79.9386,28.3936],[79.9451,28.3832],[79.9451,28.3802],[79.9389,28.3756],[79.9322,28.3765],[79.9417,28.3638],[79.9407,28.3543],[79.9473,28.3408],[79.9429,28.3347],[79.9407,28.3253],[79.9482,28.3164],[79.9576,28.3111],[79.9594,28.3025],[79.9671,28.303],[79.9694,28.3114],[79.9729,28.3107],[79.9752,28.3007],[79.9788,28.2963],[79.9833,28.2992],[79.9791,28.3089],[79.9893,28.31],[80.002,28.314],[80.003,28.3204],[79.9942,28.3262],[79.994,28.338],[79.9979,28.3503],[80.0074,28.3502],[80.0106,28.3571],[80.0099,28.3696],[80.0151,28.3751],[80.0244,28.3776],[80.0284,28.3874],[80.0402,28.4113],[80.0501,28.4274],[80.0546,28.4614],[80.0531,28.4696],[80.0501,28.4725],[80.0421,28.4735],[80.0439,28.4844],[80.0481,28.4895],[80.0469,28.503]]],[[[80.074,28.4841],[80.0806,28.4785],[80.0863,28.4795],[80.0836,28.4902],[80.0782,28.4953],[80.0724,28.4887],[80.074,28.4841]]],[[[79.9412,28.725],[79.9458,28.7223],[79.9509,28.7243],[79.9442,28.7334],[79.9412,28.725]]],[[[79.939,28.74],[79.9443,28.7364],[79.9465,28.7423],[79.9443,28.7476],[79.9387,28.7504],[79.9432,28.758],[79.9412,28.7606],[79.9325,28.7513],[79.9328,28.7466],[79.939,28.74]]],[[[79.9356,28.7842],[79.9397,28.7878],[79.9265,28.79],[79.9193,28.7867],[79.9157,28.7763],[79.9177,28.7735],[79.9242,28.7735],[79.9356,28.7842]]],[[[80.0986,28.827],[80.0915,28.8262],[80.091,28.8167],[80.0846,28.8173],[80.0784,28.8206],[80.065,28.8373],[80.0604,28.8264],[80.0704,28.82],[80.073,28.81],[80.0813,28.8034],[80.0801,28.7986],[80.0915,28.7865],[80.0984,28.7829],[80.0998,28.789],[80.1084,28.79],[80.1117,28.7884],[80.1179,28.7788],[80.1134,28.7684],[80.1146,28.7582],[80.1341,28.7573],[80.1419,28.7461],[80.1512,28.7417],[80.155,28.7421],[80.1678,28.7586],[80.1669,28.762],[80.1463,28.7626],[80.1452,28.7656],[80.1508,28.771],[80.1615,28.7713],[80.1741,28.7752],[80.1797,28.7738],[80.1732,28.767],[80.1875,28.7661],[80.1909,28.7618],[80.1872,28.7593],[80.172,28.7606],[80.1689,28.7554],[80.1743,28.7533],[80.1752,28.7486],[80.18,28.747],[80.1862,28.752],[80.1933,28.7528],[80.2029,28.7635],[80.1707,28.7828],[80.1382,28.8138],[80.1181,28.829],[80.0986,28.827]]],[[[80.2306,28.396],[80.2351,28.3935],[80.2353,28.4019],[80.2305,28.4006],[80.2306,28.396]]],[[[80.3224,28.438],[80.3318,28.4373],[80.3272,28.4445],[80.3218,28.4428],[80.3224,28.438]]],[[[80.2776,28.4381],[80.2815,28.4356],[80.2962,28.4396],[80.2963,28.4435],[80.2856,28.447],[80.2776,28.4381]]],[[[80.0997,28.7497],[80.094,28.7515],[80.0829,28.751],[80.0812,28.7582],[80.0713,28.762],[80.0715,28.7715],[80.0617,28.7832],[80.0555,28.7813],[80.0301,28.7487],[80.0252,28.7465],[79.9932,28.7361],[79.9543,28.7229],[79.9506,28.7148],[79.9405,28.7152],[79.9378,28.7125],[79.9396,28.7031],[79.9367,28.6975],[79.9226,28.6796],[79.9203,28.6845],[79.9074,28.6861],[79.9038,28.6833],[79.8888,28.6873],[79.8835,28.6858],[79.8798,28.6778],[79.8869,28.6658],[79.9059,28.6624],[79.9067,28.6576],[79.9141,28.6524],[79.9156,28.6489],[79.9101,28.6401],[79.912,28.6289],[79.9215,28.6261],[79.927,28.6184],[79.924,28.6017],[79.9202,28.5969],[79.9215,28.593],[79.9299,28.5917],[79.9325,28.5852],[79.9415,28.5772],[79.9413,28.5648],[79.9454,28.5581],[79.9582,28.5468],[79.9578,28.5427],[79.9512,28.5339],[79.946,28.5215],[79.9403,28.5164],[79.9468,28.5108],[79.9508,28.5112],[79.9593,28.5165],[79.9705,28.5202],[79.978,28.5247],[79.9926,28.5444],[79.9962,28.5569],[80.0071,28.5596],[80.0086,28.565],[80.005,28.5703],[79.9956,28.5728],[80.0034,28.5987],[80.0038,28.6085],[79.9987,28.6222],[79.9949,28.6269],[79.9975,28.6386],[80.0055,28.6466],[80.0057,28.6538],[80.0033,28.6591],[80.0156,28.6664],[80.0289,28.6656],[80.0394,28.6598],[80.055,28.6684],[80.0567,28.6723],[80.0702,28.6813],[80.0708,28.6888],[80.0761,28.691],[80.0858,28.6843],[80.0901,28.6755],[80.0909,28.6628],[80.1002,28.6563],[80.1094,28.6573],[80.1132,28.6661],[80.1211,28.6609],[80.1223,28.6574],[80.1295,28.6536],[80.1386,28.6568],[80.1434,28.6538],[80.1537,28.6549],[80.1561,28.6498],[80.1673,28.6433],[80.1679,28.6334],[80.1708,28.6267],[80.1702,28.6207],[80.1772,28.6047],[80.1854,28.6067],[80.1949,28.6059],[80.1936,28.5845],[80.2044,28.5797],[80.2122,28.5738],[80.2147,28.5663],[80.2366,28.5483],[80.2388,28.5382],[80.235,28.523],[80.2301,28.5143],[80.2381,28.4968],[80.2461,28.4918],[80.2478,28.4838],[80.2468,28.4774],[80.2411,28.4731],[80.2398,28.4592],[80.2449,28.453],[80.2447,28.443],[80.2483,28.4356],[80.2491,28.4241],[80.2409,28.4154],[80.2445,28.4127],[80.2554,28.4244],[80.2542,28.4306],[80.2485,28.444],[80.2535,28.4487],[80.2571,28.437],[80.2603,28.4378],[80.2618,28.4542],[80.2472,28.4562],[80.2453,28.4604],[80.2464,28.4692],[80.257,28.4708],[80.2627,28.4649],[80.2779,28.4596],[80.2815,28.4564],[80.2935,28.4602],[80.299,28.4636],[80.3064,28.4536],[80.3184,28.4566],[80.3196,28.4499],[80.3237,28.4512],[80.3224,28.4562],[80.3108,28.4631],[80.314,28.4703],[80.3266,28.4836],[80.3353,28.4915],[80.3369,28.4955],[80.3235,28.5032],[80.3188,28.5009],[80.3184,28.489],[80.3123,28.4833],[80.3074,28.4973],[80.3108,28.5079],[80.315,28.5092],[80.3167,28.5169],[80.3114,28.5192],[80.2998,28.5182],[80.2958,28.5227],[80.311,28.5271],[80.3099,28.5291],[80.2939,28.5294],[80.2865,28.5373],[80.2874,28.5438],[80.2943,28.5388],[80.3108,28.5346],[80.3165,28.5306],[80.3184,28.5359],[80.3264,28.5343],[80.3199,28.5274],[80.319,28.5199],[80.3279,28.5157],[80.341,28.5172],[80.3384,28.5274],[80.3409,28.5306],[80.346,28.5269],[80.3471,28.5166],[80.3507,28.511],[80.3679,28.5069],[80.3703,28.5115],[80.3857,28.5134],[80.3852,28.5189],[80.3686,28.5231],[80.3665,28.5279],[80.3566,28.5318],[80.3528,28.5374],[80.3534,28.5435],[80.3566,28.547],[80.3544,28.554],[80.3471,28.5545],[80.3399,28.55],[80.3374,28.556],[80.3435,28.5573],[80.3462,28.5628],[80.3428,28.5675],[80.3361,28.5682],[80.3203,28.5667],[80.3173,28.57],[80.3057,28.573],[80.2994,28.5725],[80.2954,28.5777],[80.2832,28.5815],[80.2785,28.588],[80.2789,28.5926],[80.288,28.6112],[80.289,28.6197],[80.2936,28.6342],[80.2804,28.6383],[80.2768,28.6563],[80.2722,28.6586],[80.2713,28.6663],[80.2665,28.665],[80.2524,28.6496],[80.2509,28.6535],[80.245,28.653],[80.2377,28.6494],[80.2269,28.6414],[80.2329,28.6382],[80.2271,28.6337],[80.2263,28.6299],[80.2338,28.6272],[80.2407,28.6413],[80.2507,28.6419],[80.2523,28.6379],[80.2482,28.636],[80.2428,28.6287],[80.2392,28.6197],[80.2398,28.6129],[80.2449,28.6057],[80.2381,28.6007],[80.2381,28.5955],[80.2499,28.5895],[80.2727,28.5938],[80.2753,28.5917],[80.2645,28.5862],[80.2617,28.5768],[80.2525,28.5751],[80.2415,28.5785],[80.2369,28.5832],[80.2259,28.6002],[80.2223,28.6015],[80.22,28.6092],[80.2107,28.6172],[80.2116,28.6217],[80.2073,28.6346],[80.1962,28.6621],[80.1856,28.6768],[80.171,28.6781],[80.1692,28.684],[80.1717,28.6961],[80.1521,28.7055],[80.1512,28.7163],[80.1489,28.719],[80.1318,28.7237],[80.1189,28.7315],[80.1057,28.7348],[80.0997,28.7497]]],[[[80.265,28.6778],[80.2744,28.6707],[80.2803,28.6739],[80.2666,28.6794],[80.265,28.6778]]],[[[80.1871,28.6912],[80.1907,28.6904],[80.1927,28.6953],[80.1878,28.6956],[80.1871,28.6912]]],[[[80.2326,28.7058],[80.2216,28.7122],[80.2095,28.7171],[80.2098,28.7243],[80.2052,28.7321],[80.2067,28.7381],[80.1981,28.7365],[80.1956,28.7255],[80.1925,28.7225],[80.1958,28.7167],[80.191,28.7125],[80.1834,28.7202],[80.1869,28.7285],[80.1806,28.729],[80.1776,28.7163],[80.1869,28.7056],[80.1924,28.7053],[80.1993,28.7095],[80.2051,28.7087],[80.2025,28.6958],[80.2112,28.698],[80.2144,28.6961],[80.2098,28.6866],[80.2114,28.6833],[80.2174,28.6841],[80.2171,28.6953],[80.2206,28.6951],[80.2241,28.6878],[80.2222,28.6771],[80.2119,28.6741],[80.2077,28.6651],[80.2117,28.6625],[80.2164,28.6533],[80.2232,28.6535],[80.2292,28.6495],[80.2323,28.654],[80.2227,28.6636],[80.223,28.6676],[80.2321,28.6708],[80.2351,28.6754],[80.2459,28.6761],[80.2506,28.6839],[80.249,28.6944],[80.2388,28.706],[80.2326,28.7058]]]]},"properties":{"id":"pilibhit-tr","name":"Pilibhit Tiger Reserve","category":"tr","area_km2":602.8}}]}