{"type":"FeatureCollection","features":[{"type":"Feature","geometry":{"type":"Polygon","coordinates":[[[77.8331,32.163],[77.8243,32.166],[77.8072,32.1746],[77.8008,32.1738],[77.7944,32.1686],[77.8022,32.1581],[77.7996,32.1525],[77.792,32.1467],[77.7782,32.1398],[77.7709,32.1288],[77.7744,32.1221],[77.7758,32.1124],[77.7713,32.101],[77.7485,32.0933],[77.7396,32.0781],[77.7411,32.0612],[77.7446,32.0527],[77.7536,32.0404],[77.774,32.0308],[77.7846,32.0287],[77.7911,32.0218],[77.7899,32.0164],[77.7785,32.0111],[77.7749,32.0077],[77.7792,32.0017],[77.7918,31.993],[77.7934,31.9871],[77.7901,31.9817],[77.782,31.9779],[77.7785,31.9714],[77.7749,31.9577],[77.7761,31.9511],[77.7868,31.9491],[77.7892,31.9296],[77.7968,31.9146],[77.8011,31.9094],[77.8165,31.9001],[77.8453,31.8924],[77.8577,31.8879],[77.8652,31.8819],[77.8574,31.8759],[77.8626,31.869],[77.8643,31.8626],[77.8581,31.8595],[77.845,31.8626],[77.8365,31.8555],[77.841,31.8482],[77.8429,31.8379],[77.8472,31.8321],[77.8438,31.8234],[77.8469,31.8129],[77.8467,31.8042],[77.85,31.7988],[77.8621,31.7936],[77.8699,31.7772],[77.8778,31.773],[77.8954,31.7596],[77.8988,31.7533],[77.9163,31.753],[77.9209,31.7501],[77.9287,31.7513],[77.933,31.7565],[77.9363,31.7715],[77.9396,31.7794],[77.9451,31.7858],[77.9518,31.7871],[77.9577,31.7842],[77.9667,31.7727],[77.9765,31.765],[77.9945,31.7662],[77.9985,31.7864],[77.9976,31.796],[77.9948,31.8048],[77.9951,31.8171],[77.9918,31.828],[77.9848,31.8409],[77.9844,31.8485],[77.9884,31.8547],[77.9964,31.8625],[78.0088,31.8774],[78.0154,31.8819],[78.0226,31.8956],[78.0237,31.9014],[78.0133,31.9069],[78.0045,31.9071],[77.9943,31.9043],[77.9848,31.9036],[77.9781,31.9057],[77.9734,31.9108],[77.9719,31.9206],[77.974,31.934],[77.9645,31.9416],[77.96,31.9479],[77.9588,31.963],[77.9532,31.9784],[77.9567,31.9942],[77.9538,31.9995],[77.9532,32.0071],[77.9469,32.0207],[77.9469,32.0315],[77.9594,32.0383],[77.9844,32.0429],[78.0031,32.043],[78.0145,32.0462],[78.0164,32.0502],[78.0159,32.0597],[78.0057,32.0694],[78.0035,32.0742],[77.9936,32.0816],[77.9692,32.11],[77.9619,32.1137],[77.9517,32.1143],[77.9363,32.1088],[77.9246,32.1074],[77.9066,32.1036],[77.8997,32.1046],[77.8949,32.1124],[77.8868,32.1143],[77.8811,32.1241],[77.8652,32.1227],[77.8597,32.1245],[77.8586,32.129],[77.8624,32.1388],[77.8469,32.1487],[77.8422,32.1547],[77.8416,32.1632],[77.8331,32.163]]]},"properties":{"id":"pin-valley-national-park-np","name":"Pin Valley National Park","category":"np","area_km2":675}}]}