{"type":"FeatureCollection","features":[{"type":"Feature","geometry":{"type":"Polygon","coordinates":[[[78.1581,18.2678],[78.1523,18.2683],[78.1472,18.2609],[78.161,18.2608],[78.1673,18.2553],[78.1711,18.2549],[78.1714,18.2475],[78.1692,18.2446],[78.1797,18.2376],[78.1874,18.2389],[78.1934,18.2274],[78.2002,18.226],[78.1955,18.2211],[78.1913,18.2224],[78.1896,18.2158],[78.184,18.214],[78.1737,18.1813],[78.1805,18.1777],[78.1869,18.1658],[78.1962,18.1663],[78.1961,18.1721],[78.2026,18.1789],[78.2101,18.1765],[78.2087,18.1705],[78.2176,18.172],[78.2199,18.1793],[78.2302,18.1804],[78.2322,18.1847],[78.2426,18.1871],[78.25,18.1906],[78.2545,18.1972],[78.2689,18.1988],[78.2754,18.1982],[78.2798,18.2015],[78.2859,18.1981],[78.2981,18.1979],[78.2988,18.174],[78.2938,18.172],[78.2921,18.1642],[78.2732,18.1648],[78.2739,18.1537],[78.2653,18.1584],[78.2451,18.164],[78.2457,18.1582],[78.2305,18.1612],[78.2265,18.1538],[78.2271,18.1486],[78.236,18.1417],[78.238,18.1215],[78.2324,18.117],[78.2245,18.1171],[78.2173,18.1225],[78.2081,18.1212],[78.1997,18.1293],[78.1955,18.129],[78.1924,18.1148],[78.1993,18.1129],[78.2038,18.1141],[78.2108,18.1123],[78.2121,18.1091],[78.1996,18.09],[78.2063,18.0853],[78.2142,18.0861],[78.2169,18.0902],[78.2155,18.0989],[78.2225,18.1048],[78.2312,18.1079],[78.2392,18.1066],[78.2406,18.1005],[78.2472,18.1012],[78.2454,18.1049],[78.2445,18.1179],[78.2525,18.1296],[78.2657,18.135],[78.2731,18.1278],[78.2823,18.1287],[78.2823,18.1379],[78.2875,18.1445],[78.2909,18.1583],[78.2965,18.159],[78.2998,18.1499],[78.299,18.139],[78.2952,18.1301],[78.2886,18.1291],[78.2888,18.1245],[78.2942,18.1217],[78.2951,18.126],[78.3019,18.1255],[78.3016,18.1312],[78.3052,18.1314],[78.306,18.1212],[78.315,18.1126],[78.3187,18.1165],[78.3147,18.1221],[78.3143,18.13],[78.3266,18.1307],[78.3368,18.1222],[78.3387,18.1188],[78.3515,18.1248],[78.3512,18.1295],[78.3464,18.1314],[78.3485,18.1401],[78.3382,18.1462],[78.3226,18.1451],[78.3177,18.1501],[78.3174,18.1593],[78.3133,18.1627],[78.3196,18.1663],[78.3187,18.1728],[78.323,18.1756],[78.3271,18.187],[78.3304,18.189],[78.3327,18.202],[78.3267,18.2105],[78.3266,18.2171],[78.3218,18.2156],[78.3182,18.2194],[78.32,18.2235],[78.309,18.2282],[78.3059,18.2261],[78.3073,18.2183],[78.2954,18.2117],[78.2909,18.2228],[78.2834,18.224],[78.2645,18.2244],[78.2622,18.2309],[78.2583,18.2319],[78.248,18.228],[78.2323,18.2263],[78.2273,18.2206],[78.2199,18.2195],[78.2176,18.2279],[78.2239,18.2289],[78.2314,18.2391],[78.2313,18.2442],[78.2278,18.2476],[78.2199,18.248],[78.2129,18.252],[78.2087,18.2572],[78.1997,18.2591],[78.1933,18.2644],[78.192,18.2736],[78.1995,18.2806],[78.2017,18.2878],[78.1876,18.2826],[78.1849,18.2789],[78.1706,18.2819],[78.1619,18.2757],[78.1581,18.2678]]]},"properties":{"id":"pocharam-wls","name":"Pocharam Wildlife Sanctuary","category":"wls","area_km2":129.9}}]}