{"type":"FeatureCollection","features":[{"type":"Feature","geometry":{"type":"Polygon","coordinates":[[[79.6522,10.36],[79.6496,10.3535],[79.6522,10.3371],[79.6572,10.3254],[79.657,10.3222],[79.651,10.3058],[79.6497,10.2858],[79.6637,10.2839],[79.6729,10.2811],[79.6848,10.2809],[79.7066,10.2769],[79.7284,10.2746],[79.7406,10.2767],[79.7506,10.2734],[79.7658,10.2719],[79.8071,10.2738],[79.7984,10.2953],[79.8015,10.3128],[79.8074,10.3308],[79.8022,10.3357],[79.7863,10.336],[79.7787,10.3306],[79.7449,10.3437],[79.7238,10.3512],[79.686,10.3596],[79.6698,10.3617],[79.6547,10.3621],[79.6522,10.36]]]},"properties":{"id":"point-calimere-block-a-block-b-wls","name":"Point Calimere Wildlife and Bird Sanctuary","category":"wls","area_km2":124.1}}]}