{"type":"FeatureCollection","features":[{"type":"Feature","geometry":{"type":"Polygon","coordinates":[[[79.8768,10.3456],[79.8542,10.3443],[79.8424,10.3329],[79.8122,10.3332],[79.8145,10.3416],[79.7976,10.347],[79.7949,10.3432],[79.7917,10.3474],[79.7731,10.352],[79.7755,10.3564],[79.6537,10.3759],[79.6406,10.3761],[79.5732,10.3854],[79.5429,10.3853],[79.5435,10.3731],[79.5491,10.3714],[79.5485,10.3674],[79.5403,10.3684],[79.5399,10.3741],[79.5104,10.37],[79.5041,10.371],[79.4936,10.3686],[79.4923,10.3583],[79.4839,10.3636],[79.4749,10.3652],[79.4697,10.3737],[79.4502,10.3669],[79.4515,10.3557],[79.4429,10.3298],[79.4419,10.3149],[79.5175,10.3096],[79.5333,10.3047],[79.6151,10.2923],[79.6637,10.2839],[79.6729,10.2811],[79.6848,10.2809],[79.7284,10.2746],[79.7395,10.2768],[79.7506,10.2734],[79.7729,10.2718],[79.8394,10.2757],[79.8615,10.2828],[79.8724,10.2881],[79.8803,10.2942],[79.8827,10.3014],[79.8768,10.3456]],[[79.756,10.3386],[79.7573,10.3418],[79.7684,10.3372],[79.7678,10.334],[79.756,10.3386]]]},"properties":{"id":"point-calimere-wildlife-and-bird-sanctuary-ramsar","name":"Point Calimere Wildlife and Bird Sanctuary","category":"ramsar","area_km2":385}}]}