{"type":"FeatureCollection","features":[{"type":"Feature","geometry":{"type":"Polygon","coordinates":[[[76.1144,31.9501],[76.1415,31.9528],[76.1328,31.9622],[76.1295,31.9721],[76.1214,31.9736],[76.1152,31.9796],[76.1178,31.9875],[76.1215,31.9896],[76.139,31.9875],[76.1353,31.9936],[76.1352,31.9991],[76.1228,32.0023],[76.1133,31.9999],[76.1027,31.9996],[76.0985,32.0035],[76.1023,32.0048],[76.096,32.0074],[76.0853,32.0212],[76.0633,32.0284],[76.0535,32.0384],[76.0522,32.0438],[76.061,32.0497],[76.0732,32.0549],[76.0744,32.0618],[76.057,32.0633],[76.0497,32.0706],[76.0456,32.0681],[76.0424,32.0708],[76.0509,32.0741],[76.0458,32.0771],[76.0517,32.0851],[76.0531,32.091],[76.0459,32.0895],[76.0376,32.0955],[76.0327,32.1015],[76.0193,32.1005],[76.0241,32.0888],[76.0193,32.0833],[76.0187,32.0709],[76.0166,32.0683],[76.0095,32.0696],[75.9954,32.0676],[75.988,32.0715],[75.9836,32.0851],[75.9753,32.0937],[75.976,32.1027],[75.9719,32.1104],[75.9677,32.1126],[75.9681,32.1051],[75.9655,32.0988],[75.968,32.095],[75.9656,32.0873],[75.9702,32.0749],[75.9693,32.0711],[75.9732,32.0679],[75.9733,32.0604],[75.965,32.0548],[75.9797,32.0514],[75.9785,32.045],[75.9723,32.0433],[75.9763,32.039],[75.9702,32.0368],[75.9742,32.0324],[75.9685,32.0315],[75.9773,32.0108],[75.9696,32.0162],[75.9622,32.0176],[75.9597,32.0121],[75.967,32.0141],[75.9707,32.0075],[75.9768,32.0024],[75.9703,31.9968],[75.967,31.9991],[75.9605,31.9979],[75.9652,31.9931],[75.9534,31.9963],[75.9553,31.9926],[75.9678,31.9853],[75.9707,31.9878],[75.9722,31.9807],[75.9639,31.9773],[75.9636,31.9832],[75.9593,31.9854],[75.9617,31.9791],[75.9511,31.9834],[75.954,31.9775],[75.9491,31.9792],[75.9479,31.9657],[75.9655,31.9619],[75.9721,31.9645],[75.9726,31.959],[75.9779,31.9561],[75.9788,31.961],[75.9905,31.9594],[75.9911,31.9554],[75.9961,31.9584],[76.0005,31.9514],[75.9974,31.9507],[75.9981,31.9425],[76.0052,31.9441],[76.0076,31.949],[76.0152,31.9366],[76.0143,31.9448],[76.0205,31.9534],[76.0303,31.9464],[76.0321,31.9419],[76.0359,31.947],[76.0405,31.9448],[76.0465,31.9366],[76.0488,31.9423],[76.0588,31.9442],[76.062,31.9413],[76.0741,31.9434],[76.0869,31.9385],[76.0978,31.9387],[76.1102,31.9311],[76.1118,31.9318],[76.1144,31.9501]]]},"properties":{"id":"pong-dam-lake-ramsar","name":"Pong Dam Lake","category":"ramsar","area_km2":156.6}}]}