{"type":"FeatureCollection","features":[{"type":"Feature","geometry":{"type":"Polygon","coordinates":[[[76.1101,31.9311],[76.114,31.9287],[76.1333,31.9217],[76.1459,31.9141],[76.1619,31.9083],[76.1697,31.9015],[76.1689,31.8933],[76.1761,31.8809],[76.1835,31.8731],[76.19,31.8759],[76.209,31.876],[76.2128,31.8791],[76.2033,31.887],[76.2012,31.8968],[76.1973,31.906],[76.1911,31.9091],[76.1788,31.923],[76.1751,31.9309],[76.1674,31.9345],[76.1513,31.9512],[76.1518,31.9601],[76.1465,31.9595],[76.143,31.9529],[76.1328,31.9622],[76.1298,31.9678],[76.1312,31.9738],[76.1226,31.9864],[76.1245,31.9892],[76.1375,31.9875],[76.1434,31.9847],[76.1464,31.9878],[76.1409,31.9953],[76.1358,31.9989],[76.1226,32.0006],[76.1235,32.0051],[76.1165,32.003],[76.105,32.0072],[76.092,32.0189],[76.082,32.0373],[76.0715,32.0396],[76.0712,32.0461],[76.0656,32.0518],[76.0856,32.0587],[76.097,32.0648],[76.1021,32.074],[76.0993,32.077],[76.0926,32.0755],[76.0915,32.0662],[76.0808,32.0654],[76.0731,32.0616],[76.057,32.0633],[76.0513,32.0692],[76.0584,32.0766],[76.0528,32.0863],[76.0594,32.092],[76.0539,32.094],[76.0433,32.0874],[76.0431,32.0909],[76.037,32.0987],[76.031,32.1017],[76.0242,32.1174],[76.0253,32.1309],[76.0232,32.1379],[76.0244,32.1468],[76.015,32.1354],[76.0138,32.1273],[76.0107,32.1244],[76.01,32.113],[76.0198,32.1047],[76.0191,32.0974],[76.0241,32.0888],[76.0193,32.0833],[76.0187,32.0709],[76.0166,32.0683],[76.0095,32.0696],[76.0012,32.0676],[75.9934,32.0684],[75.988,32.0715],[75.9831,32.0853],[75.9751,32.0957],[75.9765,32.1002],[75.9696,32.1114],[75.9657,32.1215],[75.967,32.1394],[75.9644,32.1346],[75.9571,32.1287],[75.956,32.1192],[75.961,32.1015],[75.9593,32.0929],[75.9624,32.0881],[75.9635,32.0803],[75.9732,32.0679],[75.9726,32.0615],[75.9774,32.0583],[75.9708,32.0583],[75.965,32.0548],[75.9797,32.0514],[75.979,32.0459],[75.9723,32.0433],[75.9763,32.039],[75.9702,32.0368],[75.9742,32.0324],[75.9687,32.0326],[75.9727,32.0226],[75.9713,32.0214],[75.9773,32.0108],[75.9696,32.0162],[75.9624,32.0171],[75.9573,32.0104],[75.9617,32.0106],[75.9642,32.0149],[75.9696,32.0116],[75.9768,32.0024],[75.9683,32.0018],[75.9748,31.9995],[75.9703,31.9968],[75.9702,31.9919],[75.9658,32.0001],[75.9652,31.9931],[75.9547,31.9963],[75.9511,31.9947],[75.9678,31.9853],[75.9707,31.9878],[75.9722,31.9807],[75.9639,31.9773],[75.9636,31.9832],[75.9593,31.9854],[75.9617,31.9799],[75.9511,31.9834],[75.954,31.9775],[75.9481,31.9783],[75.9474,31.9656],[75.9535,31.9654],[75.9655,31.9619],[75.9721,31.9645],[75.9726,31.959],[75.9779,31.9561],[75.979,31.961],[75.9947,31.9585],[76.0005,31.9528],[75.9943,31.9528],[76,31.9411],[76.0052,31.9441],[76.003,31.9353],[76.0088,31.9487],[76.0147,31.937],[76.0166,31.9523],[76.0235,31.9528],[76.0289,31.9475],[76.0226,31.9405],[76.0344,31.947],[76.0456,31.9363],[76.0473,31.9415],[76.056,31.9439],[76.062,31.9413],[76.0741,31.9434],[76.0869,31.9385],[76.0978,31.9387],[76.1101,31.9311]]]},"properties":{"id":"pong-dam-lake-wls","name":"Pong Dam Lake Wildlife Sanctuary","category":"wls","area_km2":207.6}}]}