{"type":"FeatureCollection","features":[{"type":"Feature","geometry":{"type":"Polygon","coordinates":[[[79.9117,18.9276],[79.9076,18.9302],[79.9092,18.9369],[79.9083,18.946],[79.9035,18.9548],[79.9043,18.9662],[79.8999,18.9704],[79.8988,18.9783],[79.9077,18.9925],[79.8985,19.0059],[79.9003,19.016],[79.8931,19.0257],[79.8836,19.0238],[79.8772,19.0201],[79.8718,19.0143],[79.8673,19.0164],[79.8585,19.0301],[79.8487,19.0569],[79.8449,19.0609],[79.8497,19.0444],[79.8565,19.0285],[79.8535,19.0207],[79.8521,19.0071],[79.854,19.002],[79.8477,19.0057],[79.8437,19.0202],[79.8391,19.0267],[79.8276,19.0476],[79.8254,19.0499],[79.8181,19.0459],[79.8074,19.0439],[79.8017,19.0443],[79.792,19.0509],[79.7817,19.054],[79.7765,19.0577],[79.7713,19.0561],[79.7641,19.0499],[79.7617,19.0448],[79.7708,19.0238],[79.7794,19.0163],[79.7899,18.9994],[79.7988,18.9992],[79.8107,19.0064],[79.8161,19.0039],[79.8189,18.989],[79.8242,18.9782],[79.8353,18.9733],[79.8397,18.9636],[79.8403,18.9496],[79.8543,18.9358],[79.8533,18.9252],[79.862,18.9166],[79.8712,18.9186],[79.8805,18.9145],[79.8806,18.9083],[79.8718,18.904],[79.8719,18.9008],[79.8775,18.8963],[79.8745,18.892],[79.8705,18.8936],[79.8656,18.8847],[79.8544,18.8825],[79.849,18.887],[79.8407,18.9001],[79.8424,18.9079],[79.8368,18.9095],[79.8291,18.9044],[79.8249,18.8985],[79.8261,18.891],[79.8344,18.8881],[79.8348,18.8834],[79.8569,18.8711],[79.8603,18.8654],[79.8677,18.8644],[79.8716,18.8754],[79.8748,18.8753],[79.8815,18.8685],[79.894,18.8697],[79.8992,18.868],[79.9033,18.8713],[79.913,18.8745],[79.9144,18.8786],[79.9226,18.8755],[79.9313,18.8774],[79.9389,18.8728],[79.9518,18.8701],[79.9555,18.8743],[79.9517,18.8933],[79.9464,18.9007],[79.9358,18.9037],[79.9328,18.914],[79.9259,18.9187],[79.92,18.9274],[79.9117,18.9276]],[[79.8715,18.973],[79.8612,18.9757],[79.8538,18.9881],[79.8577,18.99],[79.8668,18.9853],[79.8742,18.976],[79.8715,18.973]],[[79.8836,18.874],[79.8833,18.8816],[79.8855,18.8845],[79.8825,18.8884],[79.883,18.8991],[79.8976,18.8903],[79.9034,18.8857],[79.9089,18.8863],[79.909,18.8801],[79.905,18.8757],[79.8912,18.8732],[79.8836,18.874]]]},"properties":{"id":"pranahita-wls","name":"Pranahita Wildlife Sanctuary","category":"wls","area_km2":136}}]}