{"type":"FeatureCollection","features":[{"type":"Feature","geometry":{"type":"Polygon","coordinates":[[[92.8361,24.143],[92.8459,24.1394],[92.8501,24.128],[92.8565,24.1222],[92.8587,24.1153],[92.8556,24.1088],[92.8622,24.1075],[92.8675,24.1097],[92.8691,24.1156],[92.867,24.1198],[92.8704,24.122],[92.8706,24.1272],[92.8764,24.1311],[92.8712,24.1369],[92.875,24.148],[92.8815,24.1533],[92.8799,24.1581],[92.8832,24.1595],[92.886,24.1686],[92.8827,24.1708],[92.8908,24.1736],[92.8942,24.2023],[92.8981,24.2119],[92.8947,24.2126],[92.8991,24.2188],[92.9002,24.227],[92.8957,24.2386],[92.8869,24.2445],[92.8856,24.2378],[92.8785,24.2325],[92.8756,24.2374],[92.869,24.2427],[92.8611,24.2422],[92.8707,24.2311],[92.8677,24.2207],[92.8672,24.2069],[92.8683,24.2036],[92.8648,24.1907],[92.8468,24.1894],[92.8395,24.1874],[92.8391,24.1803],[92.836,24.1677],[92.8361,24.143]]]},"properties":{"id":"pualreng-wls","name":"Pualreng Wildlife Sanctuary","category":"wls","area_km2":50}}]}