{"type":"FeatureCollection","features":[{"type":"Feature","geometry":{"type":"Polygon","coordinates":[[[80.2714,13.5587],[80.2636,13.5758],[80.2422,13.6178],[80.2343,13.6218],[80.2217,13.6345],[80.2123,13.6386],[80.2022,13.6451],[80.198,13.6519],[80.1961,13.6651],[80.192,13.6704],[80.1843,13.6762],[80.1716,13.6834],[80.1693,13.6984],[80.1651,13.7066],[80.1598,13.7264],[80.1603,13.7373],[80.1782,13.7662],[80.1806,13.7847],[80.1841,13.7916],[80.1895,13.7968],[80.2085,13.8066],[80.2162,13.8141],[80.218,13.8245],[80.218,13.8343],[80.2126,13.8429],[80.2067,13.8447],[80.196,13.8418],[80.1877,13.8354],[80.1645,13.8343],[80.152,13.847],[80.1497,13.8643],[80.1455,13.8654],[80.1336,13.8637],[80.1205,13.8562],[80.1128,13.8464],[80.1098,13.836],[80.0968,13.8181],[80.0908,13.8066],[80.0896,13.7904],[80.0908,13.7806],[80.1009,13.7645],[80.1069,13.7523],[80.1087,13.7443],[80.1075,13.7316],[80.1033,13.7212],[80.1015,13.7091],[80.1015,13.6923],[80.0956,13.6738],[80.0896,13.6623],[80.0807,13.6502],[80.0712,13.6323],[80.0747,13.6086],[80.0687,13.6016],[80.061,13.5976],[80.0556,13.5918],[80.0598,13.5779],[80.0675,13.5704],[80.0764,13.5554],[80.0877,13.5502],[80.0901,13.5456],[80.099,13.5415],[80.1014,13.53],[80.1067,13.5242],[80.1186,13.5179],[80.1394,13.5127],[80.146,13.4976],[80.1452,13.4914],[80.1538,13.4908],[80.1619,13.4882],[80.1789,13.4906],[80.1865,13.4906],[80.2033,13.4883],[80.2099,13.4862],[80.2105,13.4904],[80.2145,13.4902],[80.2139,13.486],[80.2258,13.485],[80.2351,13.4739],[80.2423,13.4727],[80.263,13.4607],[80.266,13.4451],[80.2684,13.4387],[80.285,13.4283],[80.2921,13.4266],[80.3123,13.4266],[80.3294,13.4276],[80.3273,13.4426],[80.3236,13.4562],[80.3149,13.4673],[80.3019,13.476],[80.2909,13.5013],[80.2899,13.5074],[80.2764,13.5467],[80.2714,13.5587]]]},"properties":{"id":"pulicat-lake-wls","name":"Pulicat Lake Wildlife Sanctuary","category":"wls","area_km2":153.7}}]}