{"type":"FeatureCollection","features":[{"type":"Feature","geometry":{"type":"Polygon","coordinates":[[[94.0844,25.6107],[94.0929,25.6138],[94.0914,25.6211],[94.1005,25.6306],[94.1045,25.6371],[94.103,25.6457],[94.0954,25.6501],[94.0916,25.6554],[94.0796,25.6577],[94.0713,25.6616],[94.0625,25.6599],[94.0479,25.6503],[94.0454,25.6474],[94.0401,25.6228],[94.0256,25.6141],[94.0222,25.6047],[94.0216,25.589],[94.0234,25.5836],[94.031,25.5771],[94.0397,25.573],[94.0421,25.5765],[94.0502,25.5723],[94.0607,25.5619],[94.0654,25.5545],[94.076,25.5571],[94.084,25.5521],[94.0922,25.5561],[94.0865,25.5919],[94.0817,25.6004],[94.0821,25.6093],[94.0844,25.6107]]]},"properties":{"id":"puliebadze-wls","name":"Puliebadze Wildlife Sanctuary","category":"wls","area_km2":9.2}}]}