{"type":"FeatureCollection","features":[{"type":"Feature","geometry":{"type":"Polygon","coordinates":[[[73.662,20.9021],[73.661,20.9055],[73.6644,20.9107],[73.6596,20.9229],[73.6688,20.9238],[73.6693,20.9189],[73.6755,20.9162],[73.6809,20.9193],[73.6826,20.9359],[73.6877,20.9295],[73.6985,20.9208],[73.7086,20.9252],[73.7106,20.9279],[73.7041,20.9381],[73.7025,20.9443],[73.7122,20.9507],[73.7219,20.9672],[73.7154,20.9828],[73.704,20.9748],[73.6898,20.9746],[73.6846,20.9676],[73.6801,20.9662],[73.6815,20.9626],[73.6727,20.9635],[73.6618,20.9618],[73.6603,20.9559],[73.6555,20.958],[73.6458,20.9564],[73.6363,20.9623],[73.6335,20.9675],[73.6265,20.9633],[73.6226,20.9668],[73.6151,20.9662],[73.6107,20.97],[73.6069,20.9678],[73.6055,20.9769],[73.612,20.98],[73.6108,20.9841],[73.6017,20.9855],[73.5968,20.981],[73.5925,20.9716],[73.5911,20.9765],[73.5848,20.9785],[73.5741,20.9773],[73.5767,20.982],[73.5748,20.9959],[73.5719,20.9966],[73.5673,20.9897],[73.5493,20.9991],[73.5508,21.0085],[73.555,21.011],[73.557,21.0196],[73.5532,21.0241],[73.5447,21.0194],[73.5406,21.022],[73.5282,21.0259],[73.5254,21.0193],[73.5313,21.0092],[73.523,21.0036],[73.5233,20.9937],[73.5304,20.9913],[73.5297,20.9887],[73.5168,20.986],[73.5073,20.9931],[73.4964,20.9954],[73.4901,20.9901],[73.4909,20.9696],[73.4985,20.9675],[73.5014,20.9641],[73.5088,20.9753],[73.5099,20.97],[73.5068,20.9647],[73.5018,20.9626],[73.508,20.9554],[73.5147,20.9503],[73.5237,20.9493],[73.5273,20.9596],[73.5305,20.9597],[73.5324,20.9526],[73.5375,20.9509],[73.5396,20.9584],[73.5436,20.9585],[73.5433,20.9501],[73.547,20.9452],[73.5474,20.9377],[73.5392,20.9226],[73.5409,20.9187],[73.5452,20.9218],[73.5469,20.9276],[73.5508,20.9302],[73.5547,20.9402],[73.5589,20.9399],[73.5708,20.9482],[73.5761,20.9547],[73.5742,20.9622],[73.5795,20.9601],[73.5835,20.9535],[73.5816,20.9403],[73.5773,20.9391],[73.5763,20.9322],[73.5863,20.9268],[73.5948,20.926],[73.5985,20.9217],[73.6119,20.9191],[73.6185,20.9206],[73.6274,20.916],[73.6283,20.9055],[73.6331,20.9015],[73.6341,20.8937],[73.6275,20.8943],[73.6191,20.9047],[73.6139,20.9032],[73.6146,20.891],[73.621,20.8848],[73.6242,20.8643],[73.6281,20.8521],[73.6295,20.8376],[73.6285,20.8304],[73.6314,20.821],[73.64,20.8176],[73.6505,20.8163],[73.6549,20.8221],[73.6618,20.8373],[73.6704,20.8642],[73.675,20.8677],[73.6831,20.8655],[73.6905,20.856],[73.6952,20.8705],[73.6992,20.8689],[73.7008,20.8726],[73.6988,20.8877],[73.687,20.8927],[73.6806,20.8997],[73.6739,20.9024],[73.662,20.9021]]]},"properties":{"id":"purna-wls","name":"Purna Wildlife Sanctuary","category":"wls","area_km2":160.8}}]}