{"type":"FeatureCollection","features":[{"type":"Feature","geometry":{"type":"Polygon","coordinates":[[[75.6865,12.7007],[75.6752,12.7007],[75.6685,12.696],[75.6484,12.6635],[75.6404,12.6271],[75.6536,12.6152],[75.6691,12.6053],[75.6609,12.5931],[75.6651,12.5711],[75.6713,12.5555],[75.6707,12.5478],[75.658,12.5429],[75.6439,12.5343],[75.6385,12.5161],[75.6451,12.4911],[75.6827,12.4904],[75.6949,12.5001],[75.7138,12.5206],[75.7138,12.5282],[75.7092,12.5528],[75.7018,12.5719],[75.6931,12.5859],[75.6937,12.5968],[75.6988,12.6085],[75.7,12.6395],[75.6974,12.6439],[75.7008,12.6511],[75.7061,12.6576],[75.7044,12.6689],[75.6993,12.6724],[75.6967,12.6854],[75.6971,12.7038],[75.6865,12.7007]]]},"properties":{"id":"pushpagiri-wls","name":"Pushpagiri Wildlife Sanctuary","category":"wls","area_km2":102.9}}]}