{"type":"FeatureCollection","features":[{"type":"Feature","geometry":{"type":"Polygon","coordinates":[[[73.8954,16.5052],[73.8963,16.5098],[73.8949,16.5212],[73.8883,16.5254],[73.8825,16.5261],[73.8784,16.5233],[73.8717,16.4975],[73.8729,16.4737],[73.8841,16.4732],[73.8864,16.466],[73.8841,16.4466],[73.8793,16.4415],[73.87,16.4362],[73.8655,16.4255],[73.8609,16.4207],[73.8571,16.411],[73.8434,16.3998],[73.8444,16.3927],[73.8508,16.3863],[73.8657,16.3788],[73.8702,16.3726],[73.8702,16.366],[73.863,16.3584],[73.8413,16.3533],[73.8394,16.3454],[73.8506,16.3377],[73.8556,16.3317],[73.8577,16.32],[73.8554,16.3118],[73.8548,16.2996],[73.8613,16.295],[73.8691,16.3022],[73.8757,16.3111],[73.8883,16.3127],[73.8947,16.3286],[73.9033,16.3275],[73.9054,16.321],[73.9048,16.3076],[73.8957,16.2974],[73.8903,16.2774],[73.9017,16.2605],[73.9088,16.2582],[73.9189,16.25],[73.9225,16.2423],[73.9362,16.2456],[73.9434,16.2447],[73.947,16.2355],[73.9411,16.2302],[73.9313,16.2159],[73.9324,16.2114],[73.9432,16.2127],[73.9548,16.2114],[73.9596,16.2078],[73.9603,16.1987],[73.9679,16.1985],[73.9857,16.1949],[74.0051,16.2066],[74.0195,16.2099],[74.0262,16.2162],[74.029,16.2323],[74.0366,16.246],[74.0424,16.2644],[74.0431,16.2731],[74.0386,16.2822],[74.0423,16.3135],[74.0527,16.3137],[74.0525,16.3188],[74.0439,16.3232],[74.0382,16.3293],[74.0357,16.3363],[74.0238,16.3412],[74.0237,16.3483],[74.0108,16.3526],[74.0052,16.3584],[74.0037,16.3662],[74.0088,16.3682],[74.0122,16.3781],[74.0081,16.3916],[73.9963,16.3952],[73.9966,16.4016],[73.9875,16.4034],[73.9819,16.4002],[73.9738,16.3985],[73.9615,16.3981],[73.9659,16.4139],[73.964,16.4336],[73.9674,16.4498],[73.9647,16.4506],[73.9523,16.4475],[73.9414,16.4464],[73.9277,16.44],[73.9069,16.4264],[73.9014,16.4255],[73.8999,16.4295],[73.907,16.4474],[73.91,16.4709],[73.9053,16.4742],[73.9022,16.4816],[73.9082,16.4962],[73.9082,16.5035],[73.9125,16.5184],[73.9031,16.5217],[73.9011,16.5059],[73.8954,16.5052]],[[74.0259,16.2706],[74.0262,16.2615],[74.0328,16.2549],[74.03,16.248],[74.0248,16.2495],[74.027,16.243],[74.0203,16.2399],[74.0155,16.2446],[74.0088,16.2445],[74.0119,16.2533],[74.0081,16.2565],[74.0004,16.2566],[73.9963,16.2626],[73.9871,16.2529],[73.9838,16.2523],[73.9787,16.2452],[73.9787,16.2407],[73.9711,16.2268],[73.965,16.2306],[73.9637,16.2346],[73.9698,16.2425],[73.9778,16.2475],[73.9819,16.2524],[73.9835,16.2593],[73.9898,16.2682],[73.998,16.27],[73.9964,16.272],[74.0069,16.2822],[74.0145,16.295],[74.0174,16.2944],[74.0232,16.2851],[74.0259,16.2706]]]},"properties":{"id":"radhanagari-wls","name":"Radhanagari Wildlife Sanctuary","category":"wls","area_km2":351.2}}]}