{"type":"FeatureCollection","features":[{"type":"Feature","geometry":{"type":"Polygon","coordinates":[[[90.4511,26.8554],[90.4582,26.8769],[90.4175,26.9045],[90.3566,26.9007],[90.3503,26.889],[90.3478,26.8753],[90.3003,26.8482],[90.2833,26.8528],[90.2488,26.859],[90.2305,26.8589],[90.2008,26.8353],[90.1877,26.8069],[90.1945,26.7733],[90.1399,26.7536],[90.0746,26.736],[90.0495,26.7304],[90.0082,26.7322],[89.967,26.7235],[89.8973,26.7243],[89.8629,26.7371],[89.859,26.7349],[89.8642,26.731],[89.8621,26.7165],[89.8655,26.7055],[89.8629,26.7008],[89.8519,26.6971],[89.8634,26.6812],[89.8616,26.6713],[89.863,26.6648],[89.8594,26.6553],[89.8663,26.6463],[89.9224,26.6395],[89.9227,26.6554],[89.9482,26.6565],[89.9521,26.6339],[89.9679,26.6347],[89.9875,26.6411],[89.9979,26.6302],[89.9982,26.6098],[90.0219,26.609],[90.0745,26.6116],[90.079,26.6098],[90.0802,26.5906],[90.1254,26.5903],[90.1372,26.6129],[90.1541,26.6161],[90.1559,26.6241],[90.1776,26.6268],[90.1978,26.6326],[90.2407,26.6336],[90.2463,26.6271],[90.2459,26.6215],[90.249,26.621],[90.3122,26.616],[90.3128,26.6823],[90.3242,26.6944],[90.3385,26.7173],[90.3806,26.7173],[90.3584,26.7619],[90.3542,26.7759],[90.4048,26.7714],[90.4134,26.8173],[90.4305,26.8185],[90.4419,26.8007],[90.4504,26.7982],[90.4533,26.8204],[90.4511,26.8554]]]},"properties":{"id":"raimona-np","name":"Raimona National Park","category":"np","area_km2":422}}]}