{"type":"FeatureCollection","features":[{"type":"Feature","geometry":{"type":"Polygon","coordinates":[[[77.8786,30.144],[77.8817,30.138],[77.9062,30.1191],[77.9144,30.1141],[77.9275,30.1036],[77.9301,30.0993],[77.9202,30.0894],[77.9192,30.0836],[77.9319,30.074],[77.9611,30.044],[77.9754,30.0324],[77.9721,30.0264],[77.9735,30.0233],[77.9841,30.014],[77.9935,30.0112],[78.0001,30.0045],[78.0088,29.9988],[78.0144,29.9977],[78.0215,30.0073],[78.0338,30.0044],[78.0343,29.9967],[78.0445,29.9961],[78.0533,29.9858],[78.0818,29.9658],[78.098,29.9557],[78.1055,29.9536],[78.1111,29.9488],[78.1376,29.938],[78.148,29.9482],[78.1651,29.953],[78.1711,29.959],[78.1701,29.9686],[78.1789,29.9765],[78.184,29.9909],[78.188,29.9959],[78.1878,30.0097],[78.1899,30.0106],[78.1975,30.0047],[78.2098,30.0014],[78.2112,29.9978],[78.2027,29.9895],[78.203,29.9849],[78.2087,29.9769],[78.2005,29.9712],[78.1966,29.9639],[78.189,29.9542],[78.1761,29.9447],[78.1813,29.9347],[78.1873,29.9314],[78.1899,29.925],[78.1869,29.9203],[78.195,29.907],[78.1879,29.9094],[78.178,29.9041],[78.1776,29.8979],[78.1882,29.8849],[78.1903,29.88],[78.1894,29.8719],[78.199,29.8514],[78.2074,29.8425],[78.2111,29.8433],[78.2175,29.851],[78.2292,29.8534],[78.2357,29.8598],[78.2446,29.8643],[78.2528,29.865],[78.2588,29.8691],[78.2664,29.8666],[78.2732,29.8711],[78.2758,29.8685],[78.2842,29.8738],[78.2938,29.8716],[78.3003,29.8733],[78.3141,29.8634],[78.317,29.8583],[78.32,29.8344],[78.3277,29.8122],[78.3286,29.8068],[78.3338,29.7977],[78.3427,29.7921],[78.3773,29.7743],[78.39,29.7687],[78.3923,29.7699],[78.3939,29.7786],[78.3861,29.7835],[78.3802,29.7908],[78.3825,29.7935],[78.3936,29.7911],[78.4009,29.7932],[78.4104,29.7931],[78.4226,29.785],[78.4404,29.7903],[78.4511,29.7884],[78.4598,29.7926],[78.4584,29.7852],[78.4606,29.7798],[78.4702,29.7706],[78.4898,29.7629],[78.4993,29.763],[78.5176,29.7559],[78.5395,29.758],[78.5418,29.7549],[78.5524,29.7631],[78.5624,29.7765],[78.5566,29.7873],[78.5472,29.7906],[78.5485,29.7971],[78.5467,29.8041],[78.5436,29.8058],[78.5408,29.8169],[78.5309,29.8192],[78.5231,29.8125],[78.5287,29.808],[78.5186,29.8076],[78.5122,29.8019],[78.5016,29.811],[78.4936,29.8113],[78.4783,29.8157],[78.4641,29.827],[78.4703,29.8343],[78.4562,29.8435],[78.4501,29.8452],[78.4449,29.8388],[78.4367,29.8465],[78.4251,29.8454],[78.4186,29.8502],[78.4219,29.8534],[78.4206,29.8613],[78.4155,29.8687],[78.4172,29.874],[78.4145,29.8796],[78.4023,29.885],[78.4076,29.8901],[78.3988,29.9],[78.3911,29.9006],[78.3872,29.9097],[78.3826,29.9124],[78.3774,29.9107],[78.3754,29.9148],[78.379,29.9169],[78.3755,29.9207],[78.3665,29.9208],[78.359,29.9295],[78.3536,29.9296],[78.3505,29.934],[78.3433,29.9383],[78.3418,29.9493],[78.3369,29.9527],[78.3339,29.9587],[78.3245,29.966],[78.3299,29.9684],[78.3305,29.9747],[78.3169,29.9823],[78.3159,29.9849],[78.3234,29.986],[78.3245,29.9948],[78.3185,29.9966],[78.3276,30.011],[78.337,30.0201],[78.341,30.0315],[78.3429,30.0425],[78.3413,30.048],[78.3451,30.0549],[78.3367,30.0609],[78.337,30.0667],[78.3337,30.072],[78.3322,30.0841],[78.3333,30.0907],[78.3379,30.0909],[78.3389,30.0967],[78.3437,30.1011],[78.3532,30.1018],[78.3593,30.1122],[78.3652,30.113],[78.3711,30.1095],[78.3765,30.1033],[78.3731,30.0986],[78.3652,30.102],[78.3612,30.0999],[78.3629,30.0926],[78.3703,30.0838],[78.3711,30.0785],[78.3798,30.0802],[78.3855,30.0769],[78.3916,30.0777],[78.3946,30.0871],[78.4028,30.0838],[78.4042,30.0868],[78.4019,30.0955],[78.3958,30.1039],[78.4009,30.1076],[78.413,30.1034],[78.4137,30.0961],[78.4213,30.0961],[78.4246,30.0912],[78.425,30.078],[78.4308,30.0762],[78.4319,30.0704],[78.4438,30.0749],[78.4347,30.0796],[78.4337,30.0993],[78.439,30.1109],[78.4359,30.1133],[78.4279,30.1131],[78.4221,30.118],[78.4179,30.1301],[78.403,30.1377],[78.3915,30.1354],[78.3923,30.1241],[78.3899,30.1208],[78.3822,30.1217],[78.3761,30.1174],[78.371,30.1174],[78.3453,30.1325],[78.3381,30.135],[78.3324,30.134],[78.3279,30.1241],[78.3175,30.1253],[78.3092,30.1171],[78.3096,30.1087],[78.3035,30.102],[78.295,30.1018],[78.2907,30.099],[78.2916,30.0813],[78.2874,30.0724],[78.2758,30.0562],[78.2719,30.0447],[78.2725,30.0402],[78.268,30.037],[78.2475,30.0314],[78.2463,30.0351],[78.238,30.0439],[78.2322,30.0436],[78.2172,30.0529],[78.2128,30.0527],[78.2057,30.06],[78.2025,30.0606],[78.1944,30.0678],[78.1784,30.0707],[78.1754,30.0737],[78.1691,30.0725],[78.1578,30.0768],[78.1566,30.0803],[78.1484,30.0863],[78.1359,30.0928],[78.1325,30.093],[78.1275,30.1037],[78.1204,30.1123],[78.1132,30.1135],[78.1079,30.1262],[78.1082,30.1331],[78.1039,30.1382],[78.1054,30.1436],[78.0992,30.1529],[78.0964,30.1599],[78.0906,30.1641],[78.0715,30.1857],[78.0609,30.1923],[78.0569,30.2004],[78.0482,30.2123],[78.0412,30.2142],[78.0382,30.2235],[78.031,30.2268],[78.0236,30.2403],[78.0261,30.2472],[78.007,30.2518],[77.9982,30.2475],[77.988,30.2477],[77.9809,30.2442],[77.9749,30.2456],[77.9673,30.2388],[77.9606,30.2373],[77.955,30.2402],[77.9408,30.2275],[77.9331,30.2155],[77.919,30.2113],[77.9135,30.1943],[77.9148,30.1919],[77.912,30.1826],[77.9021,30.1742],[77.8879,30.1564],[77.8806,30.1499],[77.8786,30.144]]]},"properties":{"id":"rajaji-tr","name":"Rajaji Tiger Reserve","category":"tr","area_km2":820}}]}