{"type":"FeatureCollection","features":[{"type":"Feature","geometry":{"type":"Polygon","coordinates":[[[75.6669,34.0245],[75.6713,34.0208],[75.6826,34.0324],[75.6904,34.0378],[75.7165,34.0489],[75.7296,34.0572],[75.7305,34.0634],[75.6966,34.0747],[75.6684,34.0764],[75.6488,34.085],[75.636,34.0863],[75.6304,34.0831],[75.6217,34.072],[75.622,34.0631],[75.6345,34.0513],[75.6669,34.0245]]]},"properties":{"id":"rajparian-daksum-wls","name":"Rajparian (Daksum) Wildlife Sanctuary","category":"wls","area_km2":20}}]}