{"type":"FeatureCollection","features":[{"type":"Feature","geometry":{"type":"Polygon","coordinates":[[[78.494,31.3426],[78.4943,31.3534],[78.5017,31.3733],[78.4929,31.3893],[78.4798,31.3848],[78.4696,31.3848],[78.4553,31.3925],[78.4491,31.4017],[78.4515,31.4134],[78.4508,31.4183],[78.4444,31.4197],[78.4346,31.4161],[78.4197,31.4161],[78.4182,31.4295],[78.4187,31.4398],[78.4154,31.4443],[78.4002,31.4534],[78.3992,31.4574],[78.4023,31.4662],[78.4006,31.4692],[78.3757,31.4761],[78.3693,31.4718],[78.3636,31.471],[78.356,31.4645],[78.3393,31.4568],[78.3365,31.4481],[78.3308,31.439],[78.3322,31.4343],[78.3417,31.427],[78.34,31.422],[78.332,31.4193],[78.3289,31.414],[78.33,31.4094],[78.3533,31.3974],[78.3731,31.3785],[78.3884,31.374],[78.4035,31.3618],[78.4198,31.3552],[78.4351,31.3522],[78.4372,31.3485],[78.4187,31.3479],[78.3956,31.3584],[78.3866,31.3649],[78.3671,31.3721],[78.3574,31.3812],[78.3455,31.3901],[78.3303,31.3984],[78.3226,31.3998],[78.3167,31.3954],[78.3125,31.3832],[78.3084,31.3652],[78.3201,31.3611],[78.3227,31.3576],[78.3203,31.3522],[78.307,31.3513],[78.3106,31.3339],[78.3087,31.3306],[78.297,31.3304],[78.2923,31.3241],[78.2977,31.312],[78.2925,31.2931],[78.2975,31.288],[78.305,31.2863],[78.318,31.279],[78.3319,31.2777],[78.3399,31.2827],[78.352,31.2807],[78.3703,31.2864],[78.3841,31.2817],[78.3863,31.2715],[78.3961,31.2754],[78.3962,31.27],[78.4073,31.2558],[78.4028,31.2479],[78.407,31.2422],[78.4127,31.2397],[78.4207,31.2441],[78.4259,31.2443],[78.4312,31.2528],[78.436,31.2545],[78.4431,31.2448],[78.4494,31.2409],[78.4661,31.245],[78.4736,31.2509],[78.4817,31.2752],[78.4974,31.3061],[78.5014,31.3112],[78.5031,31.3262],[78.5007,31.3353],[78.494,31.3426]]]},"properties":{"id":"rakchham-chitkul-sangla-valley-wls","name":"Rakchham Chitkul (Sangla Valley) Wildlife Sanctuary","category":"wls","area_km2":304}}]}