{"type":"FeatureCollection","features":[{"type":"Feature","geometry":{"type":"Polygon","coordinates":[[[75.9321,25.6129],[75.928,25.6184],[75.9184,25.6143],[75.9174,25.604],[75.914,25.5974],[75.9064,25.5939],[75.9015,25.5878],[75.8889,25.581],[75.8744,25.5773],[75.8621,25.5789],[75.853,25.5753],[75.8526,25.5716],[75.843,25.5657],[75.8296,25.5662],[75.8193,25.5636],[75.8029,25.5638],[75.7994,25.5624],[75.7904,25.5642],[75.7893,25.5675],[75.7832,25.5686],[75.7675,25.5637],[75.7619,25.5638],[75.7383,25.5568],[75.7355,25.5537],[75.7249,25.5489],[75.7193,25.5527],[75.696,25.544],[75.6874,25.5357],[75.6701,25.5292],[75.6635,25.5244],[75.6602,25.5257],[75.6455,25.517],[75.6414,25.5119],[75.6416,25.5072],[75.6531,25.4948],[75.6492,25.4871],[75.6505,25.4829],[75.661,25.4773],[75.6797,25.4814],[75.681,25.4796],[75.6681,25.4697],[75.6601,25.4682],[75.6595,25.4618],[75.6453,25.454],[75.6491,25.4447],[75.656,25.443],[75.6584,25.4466],[75.6757,25.4487],[75.6773,25.4524],[75.6834,25.4557],[75.6887,25.4614],[75.7078,25.4721],[75.7129,25.4703],[75.7445,25.4897],[75.7652,25.4958],[75.7793,25.4959],[75.7868,25.4978],[75.8144,25.5012],[75.8228,25.5044],[75.8302,25.5039],[75.8382,25.5078],[75.8522,25.5115],[75.8543,25.5171],[75.8659,25.5139],[75.8764,25.5141],[75.8955,25.5229],[75.8923,25.5334],[75.8859,25.5407],[75.8894,25.546],[75.9119,25.5598],[75.9172,25.565],[75.9247,25.5684],[75.936,25.57],[75.9477,25.5737],[75.952,25.5699],[75.9603,25.5795],[75.9486,25.5873],[75.9511,25.6004],[75.9767,25.6071],[75.9741,25.6144],[75.9542,25.6073],[75.9542,25.6173],[75.9426,25.6147],[75.9407,25.6169],[75.9321,25.6129]],[[75.8652,25.5492],[75.8685,25.5478],[75.8637,25.5384],[75.8576,25.5314],[75.8319,25.5266],[75.8203,25.5266],[75.7963,25.5218],[75.7925,25.5225],[75.7687,25.5156],[75.7548,25.5139],[75.7437,25.5113],[75.7343,25.5116],[75.7344,25.5091],[75.7169,25.5048],[75.7083,25.5094],[75.7054,25.5133],[75.712,25.5133],[75.7224,25.517],[75.7237,25.5198],[75.7306,25.5175],[75.7414,25.5171],[75.7413,25.5208],[75.7672,25.5214],[75.7791,25.5248],[75.7935,25.527],[75.8001,25.5312],[75.8037,25.5374],[75.8161,25.5392],[75.8182,25.5377],[75.8395,25.5403],[75.8438,25.531],[75.8484,25.5347],[75.8474,25.5435],[75.8652,25.5492]]]},"properties":{"id":"ramgarh-vishdhari-wls","name":"Ramgarh Vishdhari Wildlife Sanctuary","category":"wls","area_km2":252.8}}]}