{"type":"FeatureCollection","features":[{"type":"Feature","geometry":{"type":"Polygon","coordinates":[[[74.8828,32.7952],[74.8868,32.7995],[74.8872,32.8073],[74.878,32.8005],[74.8763,32.805],[74.8815,32.8055],[74.8811,32.8109],[74.8872,32.8138],[74.8783,32.8136],[74.8771,32.8179],[74.8705,32.821],[74.8637,32.8198],[74.861,32.8073],[74.8653,32.805],[74.8589,32.8038],[74.8447,32.797],[74.8393,32.7921],[74.847,32.7826],[74.8429,32.7779],[74.8545,32.7785],[74.8517,32.7716],[74.8563,32.7741],[74.8525,32.7667],[74.8594,32.7602],[74.8539,32.7565],[74.8564,32.7539],[74.8644,32.7556],[74.8672,32.7486],[74.8709,32.752],[74.8744,32.744],[74.8797,32.7613],[74.8815,32.7749],[74.8843,32.7827],[74.8774,32.7884],[74.8853,32.7856],[74.8887,32.7907],[74.8988,32.7931],[74.8952,32.7978],[74.8828,32.7952]]]},"properties":{"id":"ramnagar-rakha-wls","name":"Ramnagar Rakha Wildlife Sanctuary","category":"wls","area_km2":31.5}}]}