{"type":"FeatureCollection","features":[{"type":"Feature","geometry":{"type":"Polygon","coordinates":[[[70.9285,22.5384],[70.9297,22.5319],[70.9379,22.5277],[70.9474,22.5128],[70.9594,22.5065],[70.9654,22.5061],[70.9675,22.5091],[70.9695,22.5226],[70.9697,22.5383],[70.9629,22.5438],[70.953,22.5493],[70.9469,22.5579],[70.9423,22.558],[70.9335,22.5528],[70.9291,22.544],[70.9285,22.5384]]]},"properties":{"id":"rampura-vidi-wls","name":"Rampura Vidi Wildlife Sanctuary","category":"wls","area_km2":15}}]}