{"type":"FeatureCollection","features":[{"type":"Feature","geometry":{"type":"Polygon","coordinates":[[[77.7032,26.6145],[77.7011,26.6111],[77.6957,26.6107],[77.6815,26.6138],[77.6738,26.6107],[77.6689,26.6062],[77.6607,26.603],[77.6404,26.6002],[77.6366,26.5964],[77.6341,26.5989],[77.6253,26.5991],[77.6267,26.595],[77.6226,26.5927],[77.6228,26.5884],[77.6119,26.5896],[77.6028,26.5831],[77.6013,26.5762],[77.603,26.5652],[77.6017,26.5621],[77.6083,26.5631],[77.6048,26.5599],[77.6003,26.5615],[77.6005,26.567],[77.597,26.5778],[77.5964,26.571],[77.5928,26.5631],[77.594,26.5604],[77.5895,26.5557],[77.5931,26.5507],[77.5898,26.5492],[77.5898,26.5386],[77.5936,26.5356],[77.5964,26.5415],[77.5961,26.5531],[77.6104,26.5522],[77.6174,26.5479],[77.6221,26.5503],[77.6134,26.5533],[77.6136,26.5562],[77.62,26.5618],[77.6272,26.563],[77.6332,26.5669],[77.6376,26.5659],[77.6355,26.5722],[77.6437,26.5794],[77.6635,26.5842],[77.6708,26.5888],[77.6782,26.5882],[77.6847,26.5905],[77.6891,26.5876],[77.6947,26.5903],[77.6947,26.5953],[77.7035,26.6106],[77.7032,26.6145]]]},"properties":{"id":"ramsagar-wls","name":"Ramsagar Wildlife Sanctuary","category":"wls","area_km2":34.4}}]}