{"type":"FeatureCollection","features":[{"type":"Feature","geometry":{"type":"MultiPolygon","coordinates":[[[[75.6889,14.712],[75.6869,14.7153],[75.6796,14.7118],[75.6793,14.6899],[75.6641,14.6937],[75.6627,14.683],[75.6693,14.6788],[75.6835,14.6784],[75.6819,14.6723],[75.6707,14.6719],[75.6699,14.6674],[75.6502,14.6667],[75.6493,14.6695],[75.6379,14.6731],[75.6362,14.6657],[75.6408,14.6651],[75.6428,14.6471],[75.6623,14.6495],[75.6736,14.6497],[75.6796,14.6465],[75.6747,14.6427],[75.6755,14.6392],[75.6723,14.6317],[75.6659,14.6328],[75.6664,14.6293],[75.6719,14.6272],[75.6711,14.6241],[75.6796,14.6252],[75.6865,14.6227],[75.6851,14.6174],[75.6875,14.613],[75.6929,14.611],[75.6893,14.6044],[75.694,14.6018],[75.7025,14.5922],[75.7086,14.5964],[75.7155,14.5893],[75.7199,14.587],[75.7245,14.5904],[75.7323,14.5841],[75.7491,14.5851],[75.757,14.5817],[75.761,14.5752],[75.7674,14.5748],[75.7745,14.579],[75.774,14.5859],[75.7778,14.5864],[75.7801,14.5818],[75.7837,14.5823],[75.7895,14.5901],[75.7775,14.5878],[75.7796,14.5924],[75.7831,14.5906],[75.7901,14.599],[75.786,14.603],[75.7801,14.5988],[75.7708,14.6051],[75.7773,14.6118],[75.766,14.6144],[75.7378,14.6131],[75.7344,14.6033],[75.7254,14.6044],[75.7275,14.6092],[75.7344,14.6134],[75.7357,14.6214],[75.7301,14.6204],[75.7314,14.6266],[75.7384,14.6251],[75.7323,14.6313],[75.7169,14.6322],[75.7079,14.6244],[75.7104,14.6105],[75.6956,14.6146],[75.6974,14.618],[75.692,14.6179],[75.6933,14.6219],[75.6842,14.6294],[75.681,14.6299],[75.6857,14.6361],[75.697,14.6352],[75.7003,14.6367],[75.6998,14.6413],[75.7048,14.6387],[75.7113,14.6417],[75.7126,14.6469],[75.71,14.6536],[75.7014,14.6532],[75.7022,14.6665],[75.6987,14.6664],[75.6991,14.6854],[75.6973,14.6948],[75.7111,14.7025],[75.7091,14.7124],[75.6998,14.7131],[75.6996,14.7049],[75.6978,14.7136],[75.6889,14.712]]],[[[75.5747,14.7787],[75.5712,14.78],[75.5722,14.7702],[75.5665,14.7702],[75.5683,14.7641],[75.5616,14.7595],[75.5606,14.7501],[75.5688,14.7451],[75.5686,14.7416],[75.5571,14.7419],[75.5537,14.7387],[75.5395,14.7399],[75.5317,14.7442],[75.5135,14.7493],[75.5138,14.7531],[75.5034,14.7563],[75.4995,14.7511],[75.5022,14.7497],[75.5057,14.7399],[75.5121,14.7383],[75.5238,14.7379],[75.5248,14.7332],[75.539,14.7336],[75.5406,14.7236],[75.5334,14.7236],[75.534,14.7177],[75.5253,14.718],[75.5283,14.7026],[75.5464,14.7039],[75.5486,14.7067],[75.5477,14.6963],[75.5539,14.6949],[75.5516,14.7072],[75.5496,14.7103],[75.5515,14.7158],[75.555,14.7137],[75.5611,14.7155],[75.5595,14.7199],[75.5679,14.7192],[75.5678,14.7253],[75.5721,14.7245],[75.5801,14.7292],[75.581,14.7258],[75.588,14.726],[75.5885,14.7236],[75.603,14.7287],[75.6034,14.7362],[75.5958,14.7384],[75.5949,14.7517],[75.5905,14.7526],[75.594,14.7674],[75.6086,14.7668],[75.6066,14.7728],[75.5863,14.7734],[75.5797,14.7698],[75.58,14.7789],[75.5747,14.7787]]]]},"properties":{"id":"ranebennur-black-buck-wls","name":"Ranebennur Blackbuck Sanctuary","category":"wls","area_km2":119}}]}