{"type":"FeatureCollection","features":[{"type":"Feature","geometry":{"type":"MultiPolygon","coordinates":[[[[76.1838,14.6595],[76.176,14.6613],[76.173,14.6571],[76.1796,14.6525],[76.1753,14.6451],[76.1699,14.645],[76.1783,14.6355],[76.1855,14.6226],[76.1932,14.6221],[76.1992,14.6154],[76.2111,14.6059],[76.2153,14.6007],[76.2259,14.6033],[76.2308,14.5908],[76.2314,14.5816],[76.2279,14.5821],[76.2281,14.5768],[76.2244,14.5767],[76.232,14.5553],[76.2373,14.5591],[76.2369,14.5532],[76.2431,14.5511],[76.2458,14.5535],[76.2447,14.5466],[76.2503,14.5397],[76.2585,14.544],[76.2592,14.5485],[76.2647,14.549],[76.2695,14.5463],[76.2816,14.5576],[76.2839,14.563],[76.2827,14.5731],[76.2718,14.5884],[76.2703,14.6031],[76.2674,14.6127],[76.2607,14.6126],[76.2592,14.6069],[76.2548,14.6091],[76.2571,14.6034],[76.2539,14.6036],[76.2481,14.6113],[76.2419,14.6057],[76.2377,14.6084],[76.241,14.6188],[76.2285,14.6267],[76.2288,14.63],[76.2237,14.6359],[76.2249,14.6384],[76.2193,14.6417],[76.2124,14.64],[76.1997,14.6491],[76.1974,14.6453],[76.1919,14.6463],[76.1951,14.6502],[76.1838,14.6595]]],[[[76.2002,14.6801],[76.1906,14.6821],[76.1959,14.6699],[76.2056,14.6617],[76.2088,14.6613],[76.2074,14.6556],[76.2096,14.6525],[76.2082,14.6466],[76.2175,14.6428],[76.2226,14.6436],[76.2344,14.6366],[76.2438,14.6371],[76.2473,14.6223],[76.258,14.6218],[76.2567,14.6165],[76.2664,14.6171],[76.2664,14.6225],[76.271,14.6236],[76.2696,14.6336],[76.2606,14.6397],[76.2617,14.6421],[76.2504,14.6453],[76.2327,14.652],[76.2286,14.6507],[76.2126,14.6708],[76.2047,14.6789],[76.2002,14.6801]]],[[[76.1514,14.6871],[76.1372,14.6853],[76.1343,14.6807],[76.1397,14.6718],[76.146,14.6709],[76.1636,14.6553],[76.1702,14.6629],[76.1709,14.6666],[76.1572,14.6692],[76.1556,14.6656],[76.1545,14.6806],[76.1572,14.6832],[76.1514,14.6871]]]]},"properties":{"id":"rangayyanadurga-four-horned-antelope-wls","name":"Rangayyanadurga Four-horned Antelope Wildlife Sanctuary","category":"wls","area_km2":77.2}}]}