{"type":"FeatureCollection","features":[{"type":"Feature","geometry":{"type":"MultiPolygon","coordinates":[[[[76.7895,12.3898],[76.7873,12.3878],[76.7928,12.378],[76.7967,12.3662],[76.8041,12.357],[76.8094,12.3579],[76.8055,12.3619],[76.8009,12.3765],[76.7977,12.38],[76.7978,12.3852],[76.7895,12.3898]]],[[[76.5954,12.4242],[76.5869,12.424],[76.5889,12.4182],[76.5935,12.4154],[76.5954,12.4242]]],[[[76.6647,12.4337],[76.6439,12.4298],[76.6459,12.425],[76.6569,12.4235],[76.6599,12.4282],[76.6696,12.4249],[76.6719,12.4297],[76.6647,12.4337]]]]},"properties":{"id":"ranganathittu-bird-sanctuary-ramsar","name":"Ranganathittu Bird Sanctuary","category":"ramsar","area_km2":5.2}}]}