{"type":"FeatureCollection","features":[{"type":"Feature","geometry":{"type":"MultiPolygon","coordinates":[[[[93.0724,12.2108],[93.0664,12.2107],[93.064,12.2042],[93.0568,12.1928],[93.0464,12.1667],[93.0411,12.1516],[93.0368,12.1333],[93.0399,12.127],[93.0448,12.1282],[93.0489,12.1205],[93.0549,12.1234],[93.0503,12.1171],[93.0526,12.1103],[93.0697,12.0904],[93.0691,12.0874],[93.0748,12.0839],[93.0805,12.0892],[93.0846,12.0889],[93.0855,12.0931],[93.0904,12.0984],[93.0933,12.1129],[93.0931,12.1223],[93.0882,12.1241],[93.0877,12.1296],[93.095,12.1424],[93.0943,12.1483],[93.0854,12.1543],[93.0847,12.1587],[93.0878,12.1644],[93.0905,12.1764],[93.0858,12.1878],[93.0856,12.1956],[93.0788,12.201],[93.0763,12.21],[93.0724,12.2108]]],[[[93.0266,12.2738],[93.0296,12.2799],[93.0223,12.2745],[93.0266,12.2738]]],[[[93.0726,12.318],[93.063,12.3165],[93.0728,12.3159],[93.0726,12.318]]]]},"properties":{"id":"rani-jhansi-marine-np","name":"Rani Jhansi Marine National Park","category":"np","area_km2":320.1}}]}