{"type":"FeatureCollection","features":[{"type":"Feature","geometry":{"type":"Polygon","coordinates":[[[80.8471,24.9315],[80.8571,24.9314],[80.8594,24.929],[80.874,24.9358],[80.8814,24.9352],[80.8793,24.9394],[80.8919,24.9452],[80.8981,24.9446],[80.8993,24.9486],[80.9102,24.9524],[80.929,24.9612],[80.9345,24.9615],[80.9435,24.9655],[80.9501,24.9644],[80.9543,24.9535],[80.9477,24.941],[80.9582,24.9396],[80.9567,24.9298],[80.9572,24.9178],[80.96,24.9192],[80.9653,24.9304],[80.9741,24.9342],[80.9852,24.9329],[80.9826,24.9267],[80.9871,24.9233],[80.9883,24.9262],[80.9965,24.9281],[80.997,24.9325],[81.0019,24.9368],[81.0096,24.9358],[81.0128,24.9283],[81.0177,24.9307],[81.0231,24.9276],[81.0235,24.9355],[81.0134,24.9487],[81.016,24.9513],[81.0231,24.9436],[81.0282,24.9432],[81.0259,24.9487],[81.0336,24.9526],[81.0408,24.9504],[81.0511,24.9498],[81.0551,24.9521],[81.0654,24.9494],[81.0797,24.9483],[81.0848,24.9497],[81.0897,24.9462],[81.0872,24.9329],[81.0933,24.929],[81.0963,24.9213],[81.1034,24.9186],[81.1124,24.9073],[81.1182,24.9076],[81.1225,24.8997],[81.1396,24.8875],[81.14,24.8968],[81.1455,24.9103],[81.1504,24.9137],[81.1602,24.9135],[81.1586,24.9234],[81.1638,24.9283],[81.164,24.9422],[81.1681,24.9552],[81.1722,24.9572],[81.1794,24.9499],[81.1852,24.952],[81.1889,24.9447],[81.1923,24.945],[81.201,24.938],[81.2036,24.9326],[81.1976,24.928],[81.1914,24.9263],[81.197,24.9249],[81.2017,24.9269],[81.2102,24.9225],[81.2145,24.9278],[81.2196,24.9286],[81.2206,24.9345],[81.2153,24.9329],[81.2132,24.9453],[81.2145,24.9578],[81.2073,24.9649],[81.2208,24.9743],[81.2194,24.9821],[81.209,24.9926],[81.2136,25.0001],[81.219,24.9974],[81.2236,24.9988],[81.2337,25.011],[81.2405,25.0225],[81.2327,25.0244],[81.2269,25.02],[81.2205,25.0206],[81.2194,25.0237],[81.2062,25.0161],[81.2105,25.009],[81.2086,25.0052],[81.2035,25.0059],[81.1857,25.0013],[81.1813,24.9982],[81.1792,24.9919],[81.174,24.986],[81.1784,24.9777],[81.1784,24.9734],[81.1664,24.9825],[81.1574,24.9781],[81.1511,24.9801],[81.1462,24.9905],[81.1434,24.9926],[81.1609,24.997],[81.1548,25.0041],[81.1468,25.0044],[81.1498,25.0227],[81.1398,25.033],[81.1228,25.0295],[81.1169,25.0258],[81.1225,25.0015],[81.1268,24.9961],[81.1263,24.9866],[81.1209,24.9852],[81.1102,24.9882],[81.1078,24.9835],[81.1058,24.9937],[81.1001,24.9981],[81.0924,24.9983],[81.0873,24.9949],[81.0855,24.9817],[81.078,24.9784],[81.0698,24.9783],[81.0636,24.9807],[81.0582,24.9777],[81.0487,24.9805],[81.0381,24.9771],[81.0387,24.9815],[81.0305,24.9829],[81.0262,24.9916],[81.0308,24.995],[81.028,24.9977],[81.0206,24.9947],[81.0057,24.9934],[81.0005,24.9878],[80.9894,24.9898],[80.9896,24.9948],[80.9817,24.9968],[80.9716,24.9968],[80.9617,24.993],[80.9477,25.0059],[80.9359,25.0069],[80.9325,25.0102],[80.9188,25.0117],[80.9094,25.0085],[80.9151,24.9986],[80.9126,24.994],[80.9161,24.9846],[80.9125,24.9801],[80.9077,24.9816],[80.9034,24.9898],[80.8988,24.9933],[80.8947,24.9854],[80.8984,24.9787],[80.8893,24.9732],[80.8864,24.9805],[80.8924,24.9812],[80.8925,24.986],[80.8837,24.9913],[80.8772,24.988],[80.8726,24.9895],[80.8662,24.9874],[80.856,24.9753],[80.8612,24.9732],[80.8612,24.9679],[80.8676,24.9636],[80.8735,24.9655],[80.876,24.9589],[80.8694,24.9454],[80.8637,24.9519],[80.8593,24.9468],[80.8528,24.9478],[80.8474,24.9445],[80.845,24.9389],[80.8471,24.9315]]]},"properties":{"id":"ranipur-tr","name":"Ranipur Tiger Reserve","category":"tr","area_km2":529.4}}]}