{"type":"FeatureCollection","features":[{"type":"Feature","geometry":{"type":"MultiPolygon","coordinates":[[[[76.7859,25.9721],[76.7934,25.9935],[76.8066,26.0076],[76.7796,26.0113],[76.7746,26.0075],[76.7753,25.991],[76.7731,25.9844],[76.7655,25.9752],[76.761,25.9769],[76.7553,25.9848],[76.7477,25.9852],[76.7427,25.9825],[76.7332,25.9688],[76.7261,25.9666],[76.7228,25.9596],[76.7242,25.95],[76.7358,25.9451],[76.7332,25.9404],[76.728,25.9404],[76.7216,25.9455],[76.7166,25.9444],[76.7201,25.9367],[76.7268,25.9337],[76.7353,25.9325],[76.7375,25.9431],[76.7407,25.9462],[76.7493,25.949],[76.7715,25.9495],[76.7775,25.9524],[76.7811,25.9575],[76.7859,25.9721]]],[[[77.2079,26.3375],[77.1979,26.3366],[77.1911,26.3423],[77.1783,26.3602],[77.1711,26.3609],[77.1622,26.357],[77.153,26.351],[77.144,26.3494],[77.1301,26.3388],[77.1276,26.343],[77.1212,26.3433],[77.1184,26.3372],[77.1141,26.3344],[77.1077,26.3379],[77.0838,26.3337],[77.0471,26.3331],[77.035,26.3356],[77.0296,26.3315],[77.0214,26.3165],[77.0218,26.3002],[77.0175,26.2928],[77.0104,26.2963],[77.0046,26.296],[77.0054,26.2861],[77.0089,26.2816],[77.0203,26.2727],[77.0136,26.2672],[77.0146,26.2599],[77.0121,26.2586],[76.9993,26.2596],[76.9861,26.2583],[76.9836,26.2628],[76.9879,26.2692],[76.9858,26.2778],[76.9822,26.28],[76.9804,26.2893],[76.9718,26.3005],[76.9594,26.3021],[76.9551,26.3097],[76.9412,26.319],[76.9266,26.3206],[76.9177,26.3347],[76.8877,26.3372],[76.8845,26.3347],[76.8838,26.3216],[76.8792,26.3165],[76.8688,26.3091],[76.8638,26.3037],[76.8617,26.2918],[76.8574,26.2887],[76.8403,26.2813],[76.8396,26.2794],[76.8506,26.2685],[76.8519,26.2545],[76.8463,26.2516],[76.8377,26.2577],[76.834,26.2572],[76.8305,26.2434],[76.8236,26.2418],[76.816,26.2096],[76.821,26.1971],[76.8196,26.1941],[76.8103,26.191],[76.8053,26.1868],[76.8002,26.1729],[76.7998,26.167],[76.8094,26.1616],[76.8107,26.1589],[76.811,26.1454],[76.8044,26.1459],[76.8,26.1574],[76.7922,26.1688],[76.7848,26.171],[76.7829,26.169],[76.7845,26.1611],[76.7788,26.1543],[76.7653,26.153],[76.7639,26.1599],[76.7677,26.1656],[76.7677,26.1702],[76.7627,26.1812],[76.7447,26.1922],[76.7341,26.2035],[76.7127,26.204],[76.7084,26.1981],[76.709,26.1922],[76.7246,26.1877],[76.7261,26.178],[76.7232,26.1744],[76.713,26.1758],[76.7095,26.1848],[76.7035,26.1897],[76.7022,26.2022],[76.6987,26.2052],[76.6923,26.205],[76.686,26.201],[76.6801,26.1937],[76.6756,26.1922],[76.6604,26.1935],[76.6549,26.1891],[76.6527,26.1767],[76.6474,26.1771],[76.6407,26.1844],[76.6325,26.1836],[76.631,26.179],[76.635,26.1737],[76.6353,26.155],[76.6332,26.1449],[76.6376,26.135],[76.6453,26.1308],[76.6608,26.1298],[76.6704,26.1252],[76.6745,26.1122],[76.6841,26.1095],[76.6913,26.1022],[76.7226,26.0911],[76.7363,26.087],[76.741,26.0799],[76.7472,26.0768],[76.7596,26.0825],[76.7899,26.0877],[76.7965,26.0975],[76.801,26.0967],[76.8045,26.0868],[76.8078,26.0823],[76.8141,26.0822],[76.8283,26.0883],[76.8382,26.0896],[76.8391,26.0845],[76.8272,26.0751],[76.8301,26.0673],[76.8362,26.0632],[76.8436,26.0554],[76.8485,26.0431],[76.8645,26.0466],[76.8741,26.0557],[76.8849,26.0743],[76.8899,26.091],[76.8922,26.0944],[76.8839,26.0928],[76.8731,26.082],[76.8611,26.0767],[76.853,26.0756],[76.8504,26.0782],[76.8588,26.0868],[76.8655,26.0964],[76.8734,26.0943],[76.8829,26.0946],[76.8949,26.0976],[76.9101,26.1057],[76.9181,26.1081],[76.9392,26.1112],[76.9455,26.1147],[76.9661,26.1289],[76.9827,26.137],[76.9929,26.1401],[76.9948,26.146],[76.9804,26.1556],[76.9786,26.1556],[76.9761,26.1457],[76.9715,26.1428],[76.9562,26.1422],[76.9505,26.1396],[76.9423,26.1326],[76.9294,26.1287],[76.9184,26.1294],[76.9084,26.1425],[76.9127,26.1489],[76.9234,26.1521],[76.9287,26.1562],[76.9241,26.162],[76.9045,26.1598],[76.9023,26.1617],[76.898,26.1758],[76.8948,26.1767],[76.8838,26.1722],[76.8777,26.1745],[76.8795,26.1774],[76.8888,26.1812],[76.9055,26.1812],[76.9169,26.1694],[76.923,26.1652],[76.9323,26.1636],[76.9319,26.1732],[76.9337,26.1764],[76.939,26.1758],[76.943,26.1806],[76.9547,26.1796],[76.9622,26.1825],[76.9629,26.1882],[76.9751,26.178],[76.9783,26.1777],[76.9858,26.1866],[76.994,26.1825],[76.9993,26.1841],[76.9907,26.1886],[76.9882,26.2036],[76.9911,26.2068],[76.9982,26.2065],[77.0007,26.1988],[77.0057,26.1908],[77.0178,26.1873],[77.0205,26.1738],[77.0401,26.1857],[77.0445,26.1856],[77.0847,26.1915],[77.0912,26.1955],[77.0953,26.2013],[77.1036,26.2197],[77.1124,26.2298],[77.1052,26.2327],[77.1055,26.2378],[77.1034,26.2557],[77.0884,26.2762],[77.0895,26.2832],[77.0927,26.2835],[77.108,26.2749],[77.1155,26.2746],[77.117,26.2918],[77.133,26.2899],[77.1348,26.2807],[77.1444,26.2778],[77.148,26.2746],[77.1526,26.2647],[77.1583,26.264],[77.1633,26.2768],[77.1715,26.28],[77.1815,26.2714],[77.194,26.2727],[77.2161,26.2832],[77.2218,26.2925],[77.2143,26.2944],[77.2075,26.2918],[77.2075,26.2995],[77.2043,26.3021],[77.1986,26.2995],[77.1936,26.3091],[77.1786,26.3085],[77.1726,26.3094],[77.1637,26.3139],[77.1658,26.3241],[77.1893,26.3257],[77.2089,26.3254],[77.2129,26.3299],[77.2143,26.3372],[77.2079,26.3375]],[[76.942,26.2978],[76.948,26.2963],[76.9548,26.2706],[76.9451,26.2675],[76.9377,26.2631],[76.9301,26.2615],[76.922,26.2641],[76.9177,26.2682],[76.9203,26.2814],[76.916,26.2911],[76.9168,26.2939],[76.9237,26.2952],[76.926,26.2887],[76.9229,26.2794],[76.9252,26.2743],[76.9319,26.2755],[76.9389,26.2846],[76.942,26.2978]],[[76.9203,26.202],[76.9286,26.2076],[76.9359,26.21],[76.9442,26.2092],[76.945,26.2037],[76.9343,26.192],[76.9218,26.1855],[76.916,26.1871],[76.9113,26.1915],[76.892,26.1897],[76.8908,26.1979],[76.9016,26.2053],[76.9144,26.2018],[76.9203,26.202]],[[76.8183,26.1332],[76.8211,26.1473],[76.8263,26.155],[76.8254,26.1623],[76.819,26.1674],[76.8204,26.1744],[76.8281,26.1819],[76.8468,26.1798],[76.8454,26.1712],[76.8506,26.167],[76.8606,26.1627],[76.8625,26.1586],[76.853,26.1475],[76.8435,26.1467],[76.8416,26.1439],[76.8377,26.1245],[76.8363,26.1224],[76.824,26.1268],[76.8183,26.1332]],[[76.8735,26.1435],[76.8765,26.1522],[76.8806,26.1546],[76.8863,26.1503],[76.8832,26.1431],[76.8735,26.1435]],[[76.7638,26.0947],[76.7562,26.0952],[76.7497,26.1013],[76.7451,26.1018],[76.7457,26.1132],[76.7479,26.116],[76.7583,26.1166],[76.7594,26.1114],[76.7654,26.1015],[76.7638,26.0947]]],[[[77.2041,26.2436],[77.2106,26.2474],[77.22,26.2567],[77.2075,26.2574],[77.1993,26.2504],[77.1891,26.2526],[77.1697,26.2535],[77.1665,26.2528],[77.1484,26.2418],[77.159,26.2404],[77.1736,26.2462],[77.1811,26.2468],[77.1968,26.2415],[77.2041,26.2436]]]]},"properties":{"id":"ranthambhore-tr","name":"Ranthambhore Tiger Reserve","category":"tr","area_km2":676.4}}]}