{"type":"FeatureCollection","features":[{"type":"Feature","geometry":{"type":"MultiPolygon","coordinates":[[[[76.5829,26.1671],[76.5896,26.1733],[76.5908,26.1788],[76.5843,26.1803],[76.5836,26.1837],[76.5896,26.188],[76.591,26.1929],[76.5872,26.1931],[76.5808,26.1871],[76.5653,26.1692],[76.5622,26.1609],[76.5582,26.156],[76.5549,26.1583],[76.5549,26.1652],[76.5487,26.1682],[76.5413,26.163],[76.537,26.1502],[76.5278,26.1334],[76.5209,26.1263],[76.5092,26.1238],[76.4981,26.1174],[76.4933,26.112],[76.4952,26.1018],[76.4826,26.1018],[76.4762,26.0977],[76.4748,26.0892],[76.4783,26.0824],[76.4669,26.0779],[76.4581,26.0691],[76.455,26.0685],[76.452,26.0775],[76.447,26.079],[76.4422,26.0758],[76.437,26.0679],[76.44,26.0626],[76.439,26.0582],[76.4162,26.0503],[76.4032,26.0447],[76.3965,26.0347],[76.3782,26.0181],[76.3735,26.0104],[76.3717,26.003],[76.3773,25.9958],[76.3816,25.9973],[76.3926,26.0065],[76.4017,26.0057],[76.396,25.9993],[76.3965,25.9936],[76.3856,25.9833],[76.3856,25.9778],[76.3808,25.9716],[76.3801,25.9535],[76.3879,25.931],[76.3929,25.9224],[76.3965,25.9242],[76.407,25.9342],[76.4112,25.9428],[76.415,25.9451],[76.4241,25.956],[76.4357,25.9626],[76.4436,25.9701],[76.4533,25.9714],[76.4626,25.9639],[76.4628,25.949],[76.4528,25.9289],[76.4505,25.9171],[76.4648,25.9202],[76.4721,25.9185],[76.4786,25.9129],[76.4914,25.9089],[76.4978,25.9086],[76.5244,25.9173],[76.5406,25.9309],[76.5534,25.9375],[76.5575,25.948],[76.5621,25.953],[76.5744,25.958],[76.5829,25.9699],[76.5918,25.9913],[76.585,26.0014],[76.5939,26.0053],[76.5926,26.0204],[76.5969,26.0236],[76.6093,26.0129],[76.6194,26.0084],[76.6295,26.0083],[76.6358,26.0183],[76.6389,26.0327],[76.631,26.0398],[76.6208,26.0403],[76.6142,26.0352],[76.5997,26.0338],[76.5926,26.0245],[76.5865,26.026],[76.5876,26.0371],[76.5968,26.0565],[76.6113,26.0675],[76.616,26.0658],[76.617,26.0605],[76.624,26.0565],[76.6275,26.0501],[76.6333,26.0502],[76.6303,26.0608],[76.6316,26.068],[76.6425,26.0752],[76.6545,26.1007],[76.6518,26.108],[76.6395,26.1071],[76.6373,26.1195],[76.6283,26.1257],[76.6174,26.1281],[76.6034,26.1336],[76.5917,26.1236],[76.5858,26.1276],[76.5991,26.1366],[76.6031,26.1419],[76.601,26.1443],[76.5936,26.1441],[76.5796,26.1398],[76.5765,26.1409],[76.5796,26.1502],[76.5829,26.1671]]],[[[76.5775,26.1974],[76.5781,26.2022],[76.5649,26.2048],[76.5539,26.2043],[76.5415,26.1966],[76.528,26.1992],[76.5201,26.1994],[76.5189,26.1968],[76.5275,26.1881],[76.5341,26.1911],[76.5421,26.192],[76.548,26.1901],[76.5518,26.1833],[76.5565,26.1837],[76.5637,26.1926],[76.5739,26.1937],[76.5775,26.1974]]]]},"properties":{"id":"ranthambhore-np","name":"Ranthambhore National Park","category":"np","area_km2":282}}]}