{"type":"FeatureCollection","features":[{"type":"Feature","geometry":{"type":"Polygon","coordinates":[[[77.7231,22.792],[77.7339,22.798],[77.7482,22.7948],[77.7492,22.8015],[77.7631,22.8037],[77.7654,22.8074],[77.7524,22.8333],[77.7538,22.8433],[77.7527,22.8498],[77.7551,22.8628],[77.7532,22.867],[77.7458,22.8667],[77.7254,22.87],[77.7199,22.8721],[77.7207,22.8788],[77.7365,22.8931],[77.7422,22.8921],[77.748,22.8811],[77.7549,22.8816],[77.764,22.885],[77.7629,22.894],[77.7758,22.8975],[77.7909,22.9035],[77.8089,22.9071],[77.8252,22.9028],[77.8421,22.9171],[77.8623,22.9309],[77.8698,22.9348],[77.8815,22.9447],[77.9012,22.947],[77.9106,22.9504],[77.9211,22.9522],[77.9455,22.9597],[77.9631,22.9633],[77.9689,22.9616],[77.9795,22.9631],[77.9834,22.9675],[77.9884,22.964],[78.0434,22.9697],[78.0479,22.9738],[78.0569,22.9764],[78.0695,22.9887],[78.0658,22.9963],[78.057,22.988],[78.0499,22.9867],[78.0473,22.9923],[78.056,22.9991],[78.0575,23.0051],[78.0494,23.0032],[78.0557,23.0082],[78.0551,23.0119],[78.0506,23.0117],[78.0503,23.0171],[78.055,23.0172],[78.0625,23.0338],[78.0616,23.036],[78.0536,23.0368],[78.0495,23.028],[78.0469,23.0402],[78.0433,23.0503],[78.0385,23.0509],[78.0381,23.044],[78.0302,23.0277],[78.0124,23.0236],[78.0104,23.021],[77.9976,23.0233],[77.9898,23.0184],[77.9878,23.0231],[77.9797,23.0252],[77.9767,23.0305],[77.9659,23.0399],[77.9605,23.0483],[77.9592,23.0557],[77.9525,23.058],[77.9628,23.062],[77.9644,23.0676],[77.9613,23.0707],[77.9539,23.0703],[77.9529,23.0757],[77.9486,23.0807],[77.9417,23.078],[77.9418,23.0819],[77.9498,23.0863],[77.9513,23.0934],[77.9421,23.0902],[77.9391,23.098],[77.9273,23.1006],[77.9207,23.0963],[77.9195,23.0913],[77.9302,23.0749],[77.9356,23.0628],[77.9312,23.0569],[77.9252,23.0656],[77.9187,23.0797],[77.9123,23.082],[77.9035,23.078],[77.8995,23.0732],[77.892,23.0705],[77.8856,23.0744],[77.8757,23.0697],[77.8671,23.0722],[77.8393,23.0605],[77.8355,23.0577],[77.8338,23.0511],[77.8371,23.0358],[77.8431,23.0194],[77.8402,23.0107],[77.8325,23.006],[77.8313,22.9999],[77.8269,23.0004],[77.8223,23.006],[77.8138,23.0031],[77.8083,22.9936],[77.8012,22.9881],[77.7889,22.9843],[77.776,22.9642],[77.754,22.9589],[77.743,22.9623],[77.7104,22.9628],[77.7002,22.951],[77.7152,22.9433],[77.7156,22.9372],[77.7072,22.9289],[77.7011,22.9351],[77.7021,22.9437],[77.695,22.9511],[77.6637,22.9439],[77.654,22.9448],[77.6525,22.9374],[77.66,22.9337],[77.6606,22.93],[77.6572,22.9227],[77.6594,22.9179],[77.6538,22.9115],[77.6531,22.9033],[77.645,22.9025],[77.6489,22.9139],[77.6442,22.9135],[77.6408,22.9189],[77.6479,22.9201],[77.6497,22.9254],[77.6423,22.927],[77.6363,22.9253],[77.6365,22.9316],[77.6459,22.9439],[77.6315,22.9486],[77.61,22.9492],[77.5788,22.9488],[77.5547,22.9475],[77.55,22.9484],[77.5569,22.9342],[77.5626,22.9326],[77.5613,22.9201],[77.5683,22.9106],[77.5568,22.91],[77.5653,22.9054],[77.5648,22.9018],[77.5501,22.9043],[77.5467,22.9018],[77.553,22.8984],[77.5521,22.8925],[77.5489,22.8918],[77.5427,22.8962],[77.5406,22.9013],[77.536,22.9039],[77.526,22.9035],[77.5257,22.9088],[77.5325,22.9103],[77.534,22.9143],[77.5407,22.9161],[77.5439,22.9222],[77.5384,22.9245],[77.5402,22.9387],[77.5439,22.9493],[77.5327,22.9551],[77.517,22.9592],[77.5031,22.9693],[77.4953,22.9802],[77.4763,23.0004],[77.4664,23.0053],[77.4611,23.0011],[77.4472,23],[77.4374,23.0031],[77.4432,23.0093],[77.4613,23.0066],[77.4706,23.011],[77.4611,23.0162],[77.4526,23.027],[77.42,23.0315],[77.4124,23.0298],[77.3982,23.0183],[77.3922,23.0175],[77.3819,23.0241],[77.3757,23.0115],[77.3767,22.9998],[77.3931,22.9842],[77.397,22.9784],[77.3927,22.9676],[77.4004,22.9559],[77.4218,22.9485],[77.426,22.9402],[77.4242,22.926],[77.4249,22.9192],[77.4107,22.9089],[77.3965,22.9076],[77.393,22.9117],[77.3915,22.9195],[77.3946,22.9349],[77.3899,22.9362],[77.3704,22.9231],[77.3525,22.915],[77.3468,22.9076],[77.3464,22.903],[77.3381,22.8934],[77.3373,22.8888],[77.3416,22.8736],[77.351,22.8638],[77.3643,22.8581],[77.371,22.8599],[77.3688,22.8661],[77.3718,22.8703],[77.3853,22.8721],[77.3934,22.868],[77.411,22.8682],[77.414,22.8653],[77.4155,22.8555],[77.4127,22.8471],[77.4162,22.8366],[77.4237,22.832],[77.4273,22.8271],[77.4365,22.8217],[77.447,22.8199],[77.4468,22.8263],[77.4516,22.8282],[77.4617,22.8271],[77.4653,22.8244],[77.4725,22.8128],[77.4764,22.8135],[77.4848,22.8235],[77.5006,22.8226],[77.5076,22.8277],[77.5176,22.8294],[77.5285,22.8213],[77.5318,22.8126],[77.5383,22.8011],[77.5417,22.7979],[77.5368,22.7911],[77.5267,22.7882],[77.5068,22.7853],[77.503,22.7881],[77.4958,22.787],[77.4896,22.7771],[77.4835,22.7769],[77.4773,22.7667],[77.4803,22.759],[77.4857,22.7509],[77.4885,22.7409],[77.5025,22.7348],[77.5065,22.7304],[77.5158,22.731],[77.5267,22.734],[77.5345,22.738],[77.5422,22.7475],[77.5552,22.7551],[77.5632,22.7551],[77.5793,22.7583],[77.5845,22.7633],[77.5939,22.765],[77.5978,22.769],[77.5957,22.775],[77.5888,22.7797],[77.5667,22.7872],[77.5594,22.792],[77.563,22.798],[77.577,22.8014],[77.5832,22.806],[77.5906,22.8024],[77.5963,22.7955],[77.6061,22.7923],[77.6283,22.7821],[77.6409,22.7849],[77.6388,22.7893],[77.6455,22.7942],[77.662,22.7931],[77.6809,22.7992],[77.6868,22.8109],[77.6818,22.8191],[77.6867,22.824],[77.6909,22.8243],[77.6975,22.8182],[77.7193,22.7938],[77.7231,22.792]],[[77.4695,22.9803],[77.4642,22.9848],[77.4625,22.9915],[77.466,22.997],[77.4759,22.9844],[77.4695,22.9803]]]},"properties":{"id":"ratapani-wls","name":"Ratapani Wildlife Sanctuary","category":"wls","area_km2":910.6}}]}