{"type":"FeatureCollection","features":[{"type":"Feature","geometry":{"type":"Polygon","coordinates":[[[74.0645,22.5501],[74.0753,22.5503],[74.0843,22.5446],[74.0993,22.5382],[74.1007,22.5346],[74.1054,22.5383],[74.114,22.5378],[74.1206,22.5296],[74.1339,22.5209],[74.1505,22.521],[74.1502,22.5285],[74.1594,22.5355],[74.1702,22.5475],[74.1801,22.5482],[74.1891,22.5545],[74.1892,22.5604],[74.1806,22.5542],[74.176,22.5581],[74.1686,22.5586],[74.1589,22.5675],[74.1466,22.5673],[74.1456,22.571],[74.1401,22.5718],[74.1363,22.5692],[74.1279,22.5737],[74.1209,22.5722],[74.1104,22.5758],[74.1087,22.5797],[74.103,22.5763],[74.0957,22.5756],[74.097,22.5792],[74.0855,22.5799],[74.0725,22.5846],[74.0706,22.5796],[74.0661,22.583],[74.064,22.5754],[74.0596,22.574],[74.0583,22.5655],[74.0645,22.5501]]]},"properties":{"id":"ratanmahal-sloth-bear-wls","name":"Ratanmahal Sloth Bear Sanctuary","category":"wls","area_km2":55.7}}]}