{"type":"FeatureCollection","features":[{"type":"Feature","geometry":{"type":"Polygon","coordinates":[[[76.5264,31.0141],[76.5235,31.0216],[76.5183,31.026],[76.5007,31.0261],[76.4971,31.0159],[76.502,30.9982],[76.5015,30.9936],[76.4967,30.9862],[76.4974,30.9786],[76.5148,30.9809],[76.5203,30.9857],[76.5264,30.9812],[76.5314,30.9808],[76.5333,30.9844],[76.5253,30.9901],[76.5368,31.0003],[76.5252,31.0054],[76.5285,31.0159],[76.5341,31.0173],[76.5292,31.0213],[76.5264,31.0141]]]},"properties":{"id":"ropar-lake-ramsar","name":"Ropar Lake","category":"ramsar","area_km2":13.7}}]}