{"type":"FeatureCollection","features":[{"type":"Feature","geometry":{"type":"Polygon","coordinates":[[[78.102,31.8507],[78.0872,31.8501],[78.078,31.8412],[78.077,31.8305],[78.0806,31.8145],[78.0803,31.8097],[78.0726,31.8036],[78.0639,31.8012],[78.062,31.798],[78.0648,31.7915],[78.0623,31.7852],[78.0554,31.7816],[78.0473,31.7802],[78.0361,31.7842],[78.0285,31.7846],[78.0254,31.7788],[78.0045,31.7723],[77.991,31.765],[77.9765,31.765],[77.9667,31.7727],[77.9577,31.7842],[77.9518,31.7871],[77.9451,31.7858],[77.9396,31.7794],[77.9363,31.7715],[77.933,31.7565],[77.9287,31.7513],[77.9209,31.7501],[77.9163,31.753],[77.8988,31.7533],[77.8954,31.7596],[77.8841,31.7672],[77.8674,31.7806],[77.8474,31.7747],[77.8387,31.7752],[77.8308,31.7675],[77.8277,31.7606],[77.8131,31.7603],[77.8084,31.7621],[77.7955,31.7593],[77.7845,31.7528],[77.7632,31.7607],[77.7595,31.7551],[77.7483,31.749],[77.7501,31.7313],[77.7534,31.7239],[77.7525,31.7179],[77.7482,31.7135],[77.7535,31.708],[77.7778,31.6987],[77.783,31.6945],[77.7889,31.685],[77.793,31.6743],[77.8084,31.6678],[77.8144,31.6587],[77.8165,31.6449],[77.8227,31.6411],[77.8225,31.6372],[77.841,31.6269],[77.8553,31.6261],[77.8643,31.6161],[77.8678,31.607],[77.8763,31.5947],[77.8769,31.5852],[77.8747,31.5729],[77.868,31.5699],[77.8786,31.5653],[77.8821,31.5686],[77.8945,31.5688],[77.9004,31.5641],[77.9143,31.5565],[77.92,31.5567],[77.9244,31.5601],[77.9277,31.5675],[77.9449,31.5698],[77.9573,31.5638],[77.9659,31.5659],[77.9877,31.5636],[77.9924,31.5617],[78.0016,31.5523],[78.0102,31.5609],[78.0176,31.5708],[78.0086,31.5828],[78.0074,31.598],[77.9988,31.6055],[77.9865,31.6121],[77.9815,31.6202],[77.9872,31.6362],[77.9862,31.6457],[77.9755,31.6579],[77.9798,31.6654],[77.9848,31.6696],[77.9972,31.6751],[78.0107,31.6862],[78.0319,31.6959],[78.0466,31.6866],[78.0537,31.6775],[78.0618,31.6728],[78.0692,31.6627],[78.068,31.6544],[78.0732,31.6461],[78.082,31.6425],[78.0856,31.6358],[78.0846,31.6295],[78.0658,31.6188],[78.0611,31.6117],[78.0573,31.6014],[78.0575,31.5951],[78.0725,31.5909],[78.087,31.5921],[78.101,31.5852],[78.1134,31.5834],[78.1131,31.5891],[78.1186,31.5939],[78.1238,31.6048],[78.1279,31.6065],[78.1424,31.5947],[78.1659,31.5996],[78.1728,31.6053],[78.1711,31.6131],[78.1728,31.6164],[78.1674,31.6276],[78.1636,31.6508],[78.1678,31.6601],[78.1773,31.6716],[78.1738,31.685],[78.1747,31.7028],[78.1745,31.7208],[78.1721,31.7333],[78.1771,31.7416],[78.1911,31.7479],[78.2027,31.7483],[78.2201,31.7448],[78.2334,31.745],[78.2317,31.7588],[78.2244,31.7695],[78.1937,31.7818],[78.1816,31.7903],[78.1685,31.8075],[78.1559,31.8161],[78.1535,31.8254],[78.145,31.8432],[78.1383,31.8476],[78.1217,31.8509],[78.1086,31.8495],[78.102,31.8507]]]},"properties":{"id":"rupi-bhaba-wls","name":"Rupi Bhaba Wildlife Sanctuary","category":"wls","area_km2":503}}]}