{"type":"FeatureCollection","features":[{"type":"Feature","geometry":{"type":"Polygon","coordinates":[[[74.3378,17.1611],[74.3345,17.1592],[74.3354,17.1536],[74.3436,17.1507],[74.3505,17.152],[74.3547,17.1408],[74.3646,17.1359],[74.3698,17.1382],[74.3734,17.143],[74.3772,17.1417],[74.3731,17.136],[74.3808,17.131],[74.4009,17.1217],[74.406,17.1261],[74.4047,17.1305],[74.3994,17.1279],[74.3929,17.1312],[74.3914,17.1353],[74.3945,17.1413],[74.3891,17.1376],[74.3861,17.1388],[74.3866,17.1502],[74.3767,17.1482],[74.3769,17.158],[74.372,17.1581],[74.3692,17.1536],[74.3631,17.1508],[74.3555,17.1564],[74.3509,17.1567],[74.3463,17.1614],[74.34,17.1586],[74.3378,17.1611]]]},"properties":{"id":"sagareshwar-wls","name":"Sagareshwar Wildlife Sanctuary","category":"wls","area_km2":10.9}}]}