{"type":"FeatureCollection","features":[{"type":"Feature","geometry":{"type":"Polygon","coordinates":[[[73.7377,17.7115],[73.7287,17.709],[73.7181,17.7078],[73.7053,17.7087],[73.6941,17.7157],[73.6815,17.7183],[73.6796,17.7217],[73.6701,17.7282],[73.6601,17.732],[73.6587,17.736],[73.6489,17.7357],[73.6415,17.7404],[73.6263,17.7403],[73.623,17.7493],[73.6162,17.7467],[73.5891,17.7622],[73.5817,17.7516],[73.574,17.7335],[73.5707,17.7224],[73.5734,17.7188],[73.5823,17.7127],[73.5823,17.7077],[73.5924,17.7009],[73.6048,17.7049],[73.6091,17.7099],[73.6153,17.7127],[73.6349,17.7002],[73.65,17.7079],[73.6596,17.6973],[73.6658,17.6937],[73.6835,17.689],[73.6857,17.6862],[73.6839,17.6776],[73.6874,17.6762],[73.698,17.6609],[73.7018,17.6505],[73.6997,17.6467],[73.7003,17.6386],[73.6912,17.6327],[73.6907,17.6258],[73.6963,17.6248],[73.7098,17.6256],[73.7203,17.6204],[73.7231,17.6138],[73.7151,17.6069],[73.7219,17.5994],[73.7249,17.5933],[73.7232,17.5847],[73.7142,17.5752],[73.7173,17.5691],[73.7344,17.5622],[73.742,17.5567],[73.7444,17.5495],[73.7406,17.5373],[73.7269,17.5273],[73.7221,17.5265],[73.716,17.5175],[73.71,17.5139],[73.7064,17.5082],[73.7008,17.5044],[73.7022,17.4924],[73.6971,17.4879],[73.6963,17.4802],[73.7063,17.4668],[73.7065,17.4604],[73.7019,17.4545],[73.7079,17.4443],[73.7069,17.4361],[73.7088,17.4318],[73.7072,17.4253],[73.7007,17.4196],[73.69,17.4224],[73.6731,17.4016],[73.673,17.3959],[73.6915,17.3964],[73.7034,17.3949],[73.704,17.3976],[73.7116,17.401],[73.7185,17.3939],[73.7277,17.3965],[73.744,17.4053],[73.757,17.4001],[73.7627,17.3951],[73.7744,17.3966],[73.7887,17.3955],[73.7989,17.399],[73.8049,17.4028],[73.8113,17.4107],[73.8098,17.4133],[73.8028,17.4138],[73.7916,17.4272],[73.792,17.4322],[73.8035,17.4426],[73.8212,17.4402],[73.8306,17.447],[73.8352,17.4644],[73.8363,17.4797],[73.8249,17.4751],[73.8203,17.4782],[73.8141,17.4776],[73.8067,17.4875],[73.8069,17.4903],[73.8149,17.4907],[73.822,17.4876],[73.829,17.4891],[73.8414,17.5002],[73.8421,17.5071],[73.8497,17.5196],[73.85,17.5274],[73.8454,17.5301],[73.8351,17.548],[73.8327,17.5562],[73.8228,17.571],[73.8187,17.5827],[73.8163,17.5936],[73.8104,17.6055],[73.8111,17.6161],[73.8074,17.624],[73.8097,17.626],[73.8085,17.6336],[73.8002,17.6351],[73.8001,17.6478],[73.807,17.649],[73.8094,17.6559],[73.8062,17.6646],[73.7966,17.6725],[73.7933,17.6774],[73.7942,17.6841],[73.7995,17.694],[73.7995,17.7012],[73.7972,17.7075],[73.7928,17.7104],[73.7751,17.7173],[73.7641,17.7169],[73.7377,17.7115]]]},"properties":{"id":"sahyadri-tr","name":"Sahyadri Tiger Reserve","category":"tr","area_km2":423.6}}]}