{"type":"FeatureCollection","features":[{"type":"Feature","geometry":{"type":"Polygon","coordinates":[[[74.9422,23.415],[74.9421,23.4124],[74.9498,23.4161],[74.9536,23.4204],[74.9589,23.4154],[74.966,23.4147],[74.971,23.4223],[74.9623,23.4198],[74.9621,23.4271],[74.9589,23.4252],[74.9533,23.4341],[74.9582,23.4349],[74.9597,23.4417],[74.9489,23.4353],[74.9448,23.4378],[74.946,23.4428],[74.9528,23.4458],[74.9473,23.4515],[74.9421,23.4524],[74.9429,23.4458],[74.9373,23.4464],[74.9364,23.4426],[74.929,23.4409],[74.9284,23.4361],[74.9235,23.4338],[74.9265,23.428],[74.9319,23.4305],[74.9435,23.4292],[74.9458,23.4209],[74.9408,23.419],[74.9422,23.415]]]},"properties":{"id":"sailana-wls","name":"Sailana Wildlife Sanctuary","category":"wls","area_km2":13}}]}