{"type":"FeatureCollection","features":[{"type":"Feature","geometry":{"type":"Polygon","coordinates":[[[77.6052,31.8435],[77.5928,31.8564],[77.5828,31.8711],[77.5842,31.8763],[77.5684,31.8777],[77.5623,31.8771],[77.5608,31.8594],[77.553,31.8406],[77.5461,31.8388],[77.538,31.8425],[77.5285,31.8405],[77.5096,31.8438],[77.4925,31.8347],[77.4812,31.8319],[77.4737,31.8333],[77.4556,31.8431],[77.449,31.8443],[77.442,31.8403],[77.4327,31.8382],[77.4273,31.8331],[77.4221,31.823],[77.4136,31.8182],[77.412,31.8131],[77.4185,31.8064],[77.4139,31.7887],[77.4148,31.7817],[77.4253,31.7789],[77.4469,31.7855],[77.4601,31.7856],[77.4655,31.7887],[77.4728,31.7861],[77.4823,31.7885],[77.5146,31.7904],[77.5415,31.7884],[77.5646,31.7891],[77.5686,31.7928],[77.588,31.7957],[77.5979,31.7984],[77.6012,31.8066],[77.6165,31.818],[77.6176,31.8218],[77.6078,31.8372],[77.6052,31.8435]]]},"properties":{"id":"sainj-wls","name":"Sainj Wildlife Sanctuary","category":"wls","area_km2":90}}]}