{"type":"FeatureCollection","features":[{"type":"Feature","geometry":{"type":"Polygon","coordinates":[[[88.9104,22.0854],[88.9014,22.0894],[88.8901,22.0895],[88.8814,22.0854],[88.8685,22.0881],[88.8555,22.0977],[88.8486,22.1073],[88.8464,22.1198],[88.8395,22.124],[88.8322,22.126],[88.8169,22.1245],[88.8102,22.1271],[88.803,22.1239],[88.7985,22.1133],[88.795,22.1098],[88.7846,22.1087],[88.7717,22.1005],[88.7692,22.089],[88.7625,22.0867],[88.7535,22.079],[88.7477,22.0656],[88.7425,22.057],[88.7443,22.0427],[88.7428,22.0351],[88.7395,22.0318],[88.7413,22.0179],[88.7376,22.0066],[88.7515,22.0062],[88.7504,21.9976],[88.7408,21.988],[88.7255,21.9795],[88.7239,21.9665],[88.7228,21.9346],[88.7345,21.9217],[88.7426,21.9209],[88.7488,21.9261],[88.7611,21.9296],[88.7727,21.9268],[88.787,21.9196],[88.7991,21.9223],[88.8057,21.9381],[88.8094,21.9407],[88.8239,21.9411],[88.8308,21.9374],[88.8421,21.9248],[88.8582,21.9204],[88.8677,21.9238],[88.882,21.9241],[88.8867,21.9217],[88.897,21.9241],[88.9044,21.9279],[88.9064,21.9322],[88.9056,21.9496],[88.9077,21.9584],[88.9081,21.9715],[88.9031,21.9808],[88.9016,21.9969],[88.9025,22.0039],[88.907,22.0086],[88.9044,22.0414],[88.9056,22.049],[88.8977,22.0626],[88.897,22.0721],[88.9042,22.0814],[88.9104,22.0854]]]},"properties":{"id":"sajnakhali-wls","name":"Sajnakhali Wildlife Sanctuary","category":"wls","area_km2":362.4}}]}