{"type":"FeatureCollection","features":[{"type":"Feature","geometry":{"type":"Polygon","coordinates":[[[78.841,9.3554],[78.8411,9.3502],[78.8373,9.3381],[78.8305,9.3392],[78.83,9.3369],[78.8232,9.3378],[78.8127,9.3349],[78.8038,9.3366],[78.7871,9.337],[78.786,9.3354],[78.805,9.3349],[78.813,9.3332],[78.8236,9.335],[78.8307,9.3336],[78.839,9.3351],[78.8422,9.3426],[78.8437,9.3533],[78.841,9.3554]]]},"properties":{"id":"sakkarakottai-bird-sanctuary-ramsar","name":"Sakkarakottai Bird Sanctuary","category":"ramsar","area_km2":2.3}}]}