{"type":"FeatureCollection","features":[{"type":"Feature","geometry":{"type":"Polygon","coordinates":[[[78.7805,9.3431],[78.7841,9.3365],[78.8015,9.3369],[78.8082,9.3343],[78.8222,9.3367],[78.8303,9.3348],[78.8379,9.336],[78.8425,9.3527],[78.8388,9.3519],[78.8375,9.3423],[78.8306,9.3425],[78.829,9.3398],[78.8213,9.3396],[78.813,9.337],[78.8019,9.3386],[78.7861,9.338],[78.7805,9.3431]]]},"properties":{"id":"sakkarakottai-bird-wls","name":"Sakkarakottai Bird Wildlife Sanctuary","category":"wls","area_km2":2.3}}]}