{"type":"FeatureCollection","features":[{"type":"Feature","geometry":{"type":"Polygon","coordinates":[[[81.3846,26.0069],[81.383,26.0135],[81.3725,26.0076],[81.3641,26.0103],[81.3671,26.0157],[81.3599,26.0128],[81.3615,26.0046],[81.3666,25.9997],[81.3789,25.9999],[81.384,26.002],[81.3832,25.9977],[81.3866,25.9901],[81.3904,25.9884],[81.3969,25.9765],[81.4076,25.9731],[81.4059,25.9848],[81.4094,25.99],[81.4087,25.9952],[81.4006,25.9943],[81.4018,25.9855],[81.4001,25.9801],[81.3968,25.9849],[81.4011,25.9885],[81.3997,25.9938],[81.402,25.9998],[81.3995,26.0043],[81.3846,26.0069]]]},"properties":{"id":"samaspur-bird-sanctuary-ramsar","name":"Samaspur Bird Sanctuary","category":"ramsar","area_km2":8}}]}