{"type":"FeatureCollection","features":[{"type":"Feature","geometry":{"type":"Polygon","coordinates":[[[81.3774,26.003],[81.3779,25.9967],[81.3836,25.9973],[81.3908,25.9883],[81.3951,25.978],[81.3904,25.9726],[81.3946,25.9696],[81.3947,25.9752],[81.409,25.9738],[81.4126,25.9779],[81.4057,25.9767],[81.4074,25.9932],[81.4011,25.9938],[81.4047,25.9977],[81.402,25.9998],[81.3996,25.9946],[81.3957,26.003],[81.3856,26.0051],[81.3824,26.002],[81.3787,26.0039],[81.3796,26.0103],[81.3726,26.0071],[81.3655,26.0081],[81.3614,26.0137],[81.3628,26.0044],[81.3692,26.0013],[81.3774,26.003]]]},"properties":{"id":"samaspur-bird-wls","name":"Samaspur Bird Sanctuary","category":"wls","area_km2":8}}]}