{"type":"FeatureCollection","features":[{"type":"Feature","geometry":{"type":"Polygon","coordinates":[[[75.0426,27.0068],[75.0433,27.0117],[75.0517,27.0174],[75.061,27.0189],[75.062,27.0231],[75.0713,27.0248],[75.0755,27.0278],[75.0736,27.0307],[75.0596,27.0271],[75.0496,27.0288],[75.0477,27.0331],[75.0501,27.041],[75.0472,27.0498],[75.0427,27.0348],[75.0314,27.0254],[75.0254,27.0224],[75.0271,27.015],[75.0137,27.0065],[75.0079,26.9999],[74.9969,27.0064],[74.996,27.0112],[74.9899,27.0142],[74.9454,27.0098],[74.9396,27.0082],[74.93,27.001],[74.9244,26.9808],[74.9192,26.9816],[74.9228,27.0006],[74.9317,27.0103],[74.9364,27.0221],[74.9227,27.0286],[74.9165,27.0204],[74.9073,27.0179],[74.9037,27.0201],[74.899,27.0139],[74.9036,27.0126],[74.9085,27.0051],[74.9084,26.9941],[74.9045,26.9916],[74.9052,26.966],[74.8973,26.9612],[74.8977,26.957],[74.9071,26.9513],[74.9222,26.9554],[74.9288,26.9629],[74.935,26.9624],[74.9452,26.9667],[74.9537,26.9644],[74.9552,26.9613],[74.9642,26.9543],[74.9636,26.9471],[74.9578,26.9416],[74.9474,26.9417],[74.9267,26.9334],[74.9109,26.9196],[74.9007,26.9163],[74.9008,26.9097],[74.9062,26.9135],[74.915,26.9121],[74.9197,26.9227],[74.9362,26.9325],[74.9424,26.9327],[74.9491,26.9279],[74.9603,26.9331],[74.9614,26.9392],[74.9681,26.9474],[74.9751,26.9458],[74.9686,26.9388],[74.969,26.93],[74.9728,26.9291],[74.9836,26.9397],[74.9888,26.9384],[74.9903,26.9306],[74.9955,26.9286],[75.0051,26.9347],[75.0189,26.9305],[75.0377,26.9275],[75.038,26.9193],[75.0436,26.9058],[75.0502,26.8933],[75.0549,26.8897],[75.061,26.8797],[75.0793,26.8792],[75.0912,26.8832],[75.1012,26.8936],[75.1071,26.8963],[75.1314,26.9035],[75.1419,26.899],[75.1529,26.9002],[75.169,26.8993],[75.1781,26.9023],[75.1792,26.9118],[75.1834,26.9155],[75.1916,26.9155],[75.2012,26.9177],[75.2333,26.9312],[75.2295,26.9429],[75.22,26.9496],[75.1627,26.9492],[75.1527,26.9505],[75.1388,26.9485],[75.1232,26.9517],[75.1182,26.9572],[75.1186,26.9694],[75.1151,26.9794],[75.101,26.9838],[75.0971,26.979],[75.0775,26.9826],[75.0727,26.9797],[75.0601,26.9807],[75.0541,26.9907],[75.0608,26.9954],[75.0751,26.997],[75.0836,27.0154],[75.0761,27.019],[75.067,27.0046],[75.0598,27.0034],[75.0426,27.0068]]]},"properties":{"id":"sambhar-lake-ramsar","name":"Sambhar Lake","category":"ramsar","area_km2":240}}]}