{"type":"FeatureCollection","features":[{"type":"Feature","geometry":{"type":"Polygon","coordinates":[[[81.6746,24.0689],[81.6641,24.0708],[81.6553,24.0669],[81.6415,24.0675],[81.6271,24.061],[81.6191,24.0606],[81.6117,24.0522],[81.6062,24.0522],[81.6011,24.056],[81.591,24.0566],[81.5853,24.0628],[81.5694,24.0668],[81.5599,24.0733],[81.5534,24.0668],[81.5433,24.0692],[81.5377,24.0684],[81.5321,24.0633],[81.5281,24.053],[81.5194,24.0441],[81.5119,24.0397],[81.505,24.0387],[81.4982,24.0414],[81.4824,24.0402],[81.4809,24.0349],[81.4839,24.0317],[81.5117,24.0239],[81.5136,24.0151],[81.5064,24.0096],[81.5018,23.9967],[81.5037,23.9882],[81.5075,23.9812],[81.5169,23.979],[81.5288,23.9831],[81.5409,23.9807],[81.5452,23.9687],[81.5512,23.9661],[81.558,23.9578],[81.5467,23.9564],[81.5387,23.9432],[81.5399,23.9223],[81.5416,23.9141],[81.5505,23.9082],[81.5535,23.9083],[81.562,23.9144],[81.568,23.9134],[81.5743,23.9066],[81.5863,23.8994],[81.5909,23.891],[81.6003,23.8895],[81.6038,23.8847],[81.6116,23.8923],[81.6102,23.9041],[81.6208,23.9067],[81.6312,23.9057],[81.6385,23.9108],[81.6592,23.9176],[81.6611,23.9229],[81.6671,23.9254],[81.6717,23.9196],[81.672,23.9138],[81.6837,23.9215],[81.6858,23.9272],[81.7009,23.9323],[81.7077,23.932],[81.7131,23.9415],[81.7183,23.9394],[81.7152,23.9341],[81.7176,23.927],[81.7169,23.92],[81.719,23.9157],[81.725,23.9133],[81.7313,23.9183],[81.7381,23.9141],[81.7428,23.9173],[81.7515,23.9278],[81.7637,23.9326],[81.7668,23.9372],[81.767,23.9437],[81.7713,23.9471],[81.7651,23.9467],[81.7566,23.9499],[81.7456,23.962],[81.7458,23.9662],[81.7707,23.9744],[81.7778,23.9793],[81.781,23.9855],[81.781,23.992],[81.7894,24.0061],[81.7917,24.0184],[81.7885,24.0255],[81.7928,24.0301],[81.7943,24.0369],[81.7891,24.0423],[81.7929,24.0528],[81.7865,24.0574],[81.7806,24.0563],[81.7711,24.0496],[81.7606,24.049],[81.7491,24.0431],[81.7322,24.045],[81.7197,24.0494],[81.7068,24.0484],[81.6928,24.0521],[81.6854,24.0684],[81.6746,24.0689]]]},"properties":{"id":"sanjay-dubri-wls","name":"Sanjay Dubri Wildlife Sanctuary","category":"wls","area_km2":347.9}}]}