{"type":"FeatureCollection","features":[{"type":"Feature","geometry":{"type":"Polygon","coordinates":[[[82.2096,23.8511],[82.2195,23.8623],[82.2223,23.8733],[82.229,23.8782],[82.2383,23.8809],[82.2437,23.8886],[82.24,23.8939],[82.2281,23.8948],[82.2255,23.9027],[82.2369,23.9104],[82.2329,23.9213],[82.226,23.9238],[82.214,23.9254],[82.2121,23.9285],[82.2146,23.9407],[82.2106,23.946],[82.2049,23.9458],[82.2029,23.9521],[82.2156,23.9621],[82.2158,23.974],[82.2184,23.984],[82.2166,23.9877],[82.2049,23.9863],[82.2,23.9795],[82.1836,23.9838],[82.1834,23.9787],[82.1772,23.9733],[82.1738,23.9669],[82.173,23.9559],[82.1604,23.9523],[82.1591,23.9386],[82.163,23.9299],[82.1606,23.919],[82.1511,23.915],[82.1401,23.9139],[82.1309,23.9109],[82.1261,23.9179],[82.1273,23.934],[82.1244,23.9437],[82.1128,23.9473],[82.1048,23.9546],[82.1104,23.9622],[82.111,23.972],[82.1002,23.9784],[82.0916,23.9797],[82.0851,23.9834],[82.0827,23.994],[82.0737,24.0018],[82.068,24.0043],[82.0494,24.0021],[82.04,24.0076],[82.0237,24.0283],[82.0166,24.031],[82.0109,24.0197],[82.005,24.0118],[81.9983,24.0148],[81.9939,24.0013],[81.9963,23.995],[82.0076,23.9834],[82.007,23.9728],[82.002,23.966],[81.9987,23.9562],[81.9892,23.953],[81.9844,23.9446],[81.9891,23.9364],[81.9972,23.9326],[82.0107,23.929],[82.0093,23.9263],[81.9969,23.9285],[81.9892,23.9265],[81.9844,23.9169],[81.9877,23.907],[81.9943,23.905],[82.0053,23.8978],[82.019,23.8915],[82.0278,23.8821],[82.0262,23.8767],[82.0276,23.8693],[82.0148,23.8708],[82.0112,23.8765],[82.0121,23.8882],[82.0029,23.8954],[81.9899,23.8991],[81.9907,23.8959],[81.9853,23.8878],[81.98,23.8867],[81.9696,23.8894],[81.9618,23.8976],[81.9574,23.9068],[81.95,23.9093],[81.9411,23.9093],[81.9339,23.9068],[81.9277,23.8951],[81.9226,23.8932],[81.9065,23.8933],[81.899,23.8917],[81.8962,23.8939],[81.8926,23.9028],[81.8878,23.906],[81.8776,23.908],[81.8781,23.9121],[81.8897,23.9141],[81.8902,23.9219],[81.8757,23.9267],[81.875,23.9425],[81.8714,23.9475],[81.861,23.9512],[81.8477,23.9543],[81.8424,23.9569],[81.8327,23.9536],[81.826,23.9532],[81.8241,23.9558],[81.8276,23.9689],[81.8189,23.9699],[81.8044,23.9756],[81.8003,23.9685],[81.7865,23.9649],[81.7791,23.9566],[81.7776,23.9501],[81.7713,23.9471],[81.7776,23.943],[81.7845,23.929],[81.7795,23.9227],[81.7802,23.9131],[81.7756,23.9078],[81.7832,23.8998],[81.786,23.8927],[81.7842,23.8853],[81.7959,23.8854],[81.7982,23.8825],[81.7983,23.8725],[81.8013,23.8664],[81.7954,23.8647],[81.7813,23.854],[81.7732,23.8389],[81.7883,23.8434],[81.7929,23.8406],[81.7941,23.8355],[81.8056,23.8391],[81.808,23.8428],[81.821,23.8346],[81.8371,23.8335],[81.8407,23.8291],[81.8379,23.8253],[81.8223,23.82],[81.8172,23.8167],[81.8117,23.8095],[81.815,23.8065],[81.8234,23.8079],[81.8276,23.8139],[81.8368,23.8161],[81.8407,23.8218],[81.8631,23.8245],[81.8677,23.8341],[81.8882,23.8355],[81.8922,23.8405],[81.8987,23.8407],[81.9046,23.8448],[81.9104,23.8572],[81.9154,23.8587],[81.9215,23.8709],[81.9313,23.8705],[81.9395,23.8678],[81.939,23.8621],[81.9456,23.8622],[81.9461,23.8588],[81.9537,23.8573],[81.9561,23.8529],[81.9633,23.8536],[81.9703,23.8572],[81.9775,23.8563],[81.9814,23.8607],[81.9889,23.8605],[81.9997,23.8628],[82.0092,23.8608],[82.02,23.8494],[82.0333,23.8472],[82.0447,23.8409],[82.0388,23.833],[82.0385,23.8268],[82.0477,23.825],[82.0527,23.8194],[82.0602,23.82],[82.0705,23.818],[82.0761,23.8195],[82.0817,23.8164],[82.0937,23.8166],[82.1049,23.8195],[82.1148,23.8179],[82.1215,23.8228],[82.1285,23.8198],[82.1437,23.8163],[82.1619,23.8215],[82.1715,23.8183],[82.1781,23.8211],[82.1809,23.8363],[82.1905,23.8429],[82.195,23.8424],[82.1987,23.849],[82.2095,23.8527],[82.2096,23.8511]]]},"properties":{"id":"sanjay-np","name":"Sanjay National Park","category":"np","area_km2":464.6}}]}