{"type":"FeatureCollection","features":[{"type":"Feature","geometry":{"type":"MultiPolygon","coordinates":[[[[72.9022,19.2779],[72.8991,19.2835],[72.8916,19.2914],[72.8904,19.2827],[72.8986,19.2725],[72.8964,19.2573],[72.8883,19.2635],[72.8862,19.268],[72.8818,19.2642],[72.8822,19.2597],[72.8772,19.2591],[72.8823,19.2548],[72.8793,19.2502],[72.8747,19.2486],[72.8757,19.2445],[72.87,19.23],[72.8635,19.2323],[72.875,19.2175],[72.8854,19.2089],[72.8846,19.1972],[72.8792,19.1887],[72.8734,19.1866],[72.8736,19.1814],[72.8893,19.1819],[72.89,19.1688],[72.8922,19.1633],[72.8968,19.1647],[72.8993,19.1603],[72.893,19.1506],[72.8961,19.1472],[72.8935,19.1422],[72.9008,19.1393],[72.9021,19.1412],[72.9131,19.1389],[72.9183,19.1411],[72.9231,19.1471],[72.9266,19.1552],[72.9244,19.1622],[72.9233,19.1573],[72.921,19.1642],[72.9156,19.1675],[72.918,19.1707],[72.9284,19.1662],[72.9347,19.1756],[72.9417,19.1899],[72.9406,19.1991],[72.9451,19.2067],[72.9494,19.2054],[72.9463,19.2132],[72.95,19.2206],[72.9577,19.2237],[72.9619,19.2305],[72.9648,19.2399],[72.9682,19.2452],[72.9754,19.2415],[72.9734,19.2505],[72.9701,19.2468],[72.9663,19.2479],[72.9694,19.2543],[72.9652,19.258],[72.9582,19.251],[72.9544,19.253],[72.9522,19.2628],[72.9488,19.2662],[72.9438,19.2648],[72.9423,19.2677],[72.9453,19.2737],[72.941,19.2836],[72.9381,19.2864],[72.9332,19.2852],[72.9329,19.2804],[72.9298,19.2872],[72.9259,19.2892],[72.9063,19.2871],[72.9047,19.2852],[72.9087,19.2763],[72.9022,19.2779]],[[72.913,19.2689],[72.9104,19.2718],[72.9166,19.2768],[72.9193,19.2724],[72.9156,19.2677],[72.913,19.2689]],[[72.9225,19.275],[72.9181,19.2836],[72.9219,19.2851],[72.929,19.2799],[72.9285,19.2762],[72.9225,19.275]],[[72.9411,19.2428],[72.9456,19.2468],[72.9517,19.2367],[72.9517,19.2303],[72.9484,19.2293],[72.9499,19.2232],[72.9456,19.2213],[72.9452,19.2269],[72.9401,19.2331],[72.9411,19.2428]]],[[[72.9233,19.3289],[72.9222,19.3334],[72.9164,19.3366],[72.9125,19.3449],[72.908,19.3407],[72.9103,19.3289],[72.9036,19.3347],[72.897,19.3336],[72.898,19.3269],[72.894,19.3279],[72.896,19.3211],[72.9009,19.3188],[72.9,19.3128],[72.9042,19.303],[72.9097,19.2999],[72.908,19.2941],[72.9115,19.291],[72.9258,19.2923],[72.9285,19.2947],[72.9336,19.2899],[72.9373,19.2916],[72.9365,19.2991],[72.9413,19.3022],[72.9382,19.3085],[72.9372,19.3164],[72.9328,19.3276],[72.929,19.3298],[72.9261,19.3236],[72.9233,19.3289]]]]},"properties":{"id":"sanjay-gandhi-borivilli-np","name":"Sanjay Gandhi (Borivilli) National Park","category":"np","area_km2":87}}]}