{"type":"FeatureCollection","features":[{"type":"Feature","geometry":{"type":"Polygon","coordinates":[[[74.8956,22.7608],[74.8877,22.7574],[74.8271,22.7516],[74.8189,22.736],[74.8176,22.7067],[74.8248,22.685],[74.8346,22.6692],[74.8819,22.6643],[74.8936,22.6899],[74.8983,22.6964],[74.9067,22.7124],[74.9072,22.7197],[74.9156,22.7254],[74.9367,22.7363],[74.9508,22.7446],[75.0239,22.7721],[75.0018,22.7908],[74.9404,22.7936],[74.9087,22.7748],[74.8956,22.7608]]]},"properties":{"id":"sardarpur-wls","name":"Sardarpur Wildlife Sanctuary","category":"wls","area_km2":348.1}}]}