{"type":"FeatureCollection","features":[{"type":"Feature","geometry":{"type":"Polygon","coordinates":[[[76.5103,27.4214],[76.5132,27.4256],[76.5113,27.4415],[76.5061,27.4489],[76.5105,27.4503],[76.5114,27.4573],[76.502,27.4628],[76.499,27.4668],[76.4997,27.4804],[76.5046,27.4815],[76.5097,27.4708],[76.5209,27.4597],[76.5323,27.456],[76.5343,27.4687],[76.5445,27.4743],[76.5453,27.4793],[76.5345,27.5012],[76.5225,27.5134],[76.5229,27.5192],[76.527,27.5299],[76.5156,27.5378],[76.5103,27.537],[76.5054,27.5323],[76.5037,27.5257],[76.506,27.5111],[76.4966,27.5082],[76.4845,27.5099],[76.4844,27.512],[76.4926,27.5178],[76.4894,27.5378],[76.4828,27.5453],[76.4795,27.5572],[76.4796,27.5658],[76.4749,27.5832],[76.4652,27.5974],[76.4654,27.6069],[76.4673,27.6098],[76.464,27.6166],[76.4646,27.647],[76.4593,27.6496],[76.457,27.6579],[76.4609,27.6726],[76.4622,27.6823],[76.4689,27.6988],[76.4661,27.6983],[76.4604,27.6909],[76.4504,27.6742],[76.4467,27.673],[76.4506,27.6667],[76.4469,27.6617],[76.4422,27.664],[76.4387,27.6572],[76.4447,27.6509],[76.4416,27.6456],[76.44,27.6294],[76.4434,27.6221],[76.4422,27.6108],[76.4431,27.5994],[76.4457,27.5894],[76.44,27.593],[76.441,27.6022],[76.4376,27.6063],[76.439,27.6135],[76.4352,27.6166],[76.4281,27.6171],[76.4224,27.606],[76.4183,27.6127],[76.4113,27.5984],[76.4064,27.5925],[76.4035,27.5945],[76.4072,27.5989],[76.4148,27.6154],[76.4056,27.6274],[76.4004,27.6237],[76.401,27.6339],[76.4051,27.6446],[76.4148,27.6589],[76.4106,27.6601],[76.3941,27.6459],[76.3876,27.634],[76.3879,27.63],[76.3832,27.633],[76.393,27.6523],[76.3891,27.6536],[76.3809,27.6416],[76.3814,27.6378],[76.3771,27.6347],[76.3592,27.6058],[76.3574,27.5975],[76.3484,27.5791],[76.3474,27.5725],[76.3509,27.5676],[76.3688,27.5732],[76.3733,27.5772],[76.3755,27.5853],[76.3838,27.5924],[76.3866,27.5898],[76.3863,27.5803],[76.3885,27.5764],[76.3988,27.5698],[76.397,27.5597],[76.4075,27.5496],[76.4161,27.5313],[76.4162,27.5185],[76.4124,27.5037],[76.3956,27.5025],[76.3846,27.5104],[76.3755,27.5103],[76.3721,27.5054],[76.3625,27.4994],[76.3533,27.4862],[76.3446,27.4703],[76.3453,27.4528],[76.343,27.446],[76.3447,27.4409],[76.3378,27.4303],[76.3348,27.4189],[76.3435,27.4048],[76.3374,27.3911],[76.3339,27.3863],[76.3423,27.3819],[76.3381,27.3727],[76.3314,27.3713],[76.3225,27.3797],[76.3179,27.3789],[76.3124,27.3666],[76.315,27.3623],[76.3281,27.3565],[76.3348,27.3553],[76.3362,27.349],[76.3286,27.3463],[76.3052,27.3471],[76.3099,27.3363],[76.3075,27.3301],[76.3037,27.3294],[76.2984,27.3373],[76.2926,27.3346],[76.29,27.3219],[76.2918,27.3176],[76.2881,27.312],[76.2882,27.3052],[76.2967,27.3087],[76.2986,27.3134],[76.2987,27.3046],[76.3068,27.298],[76.3092,27.3],[76.3128,27.3113],[76.3151,27.3116],[76.315,27.2837],[76.3226,27.2951],[76.3283,27.3006],[76.3511,27.3335],[76.3587,27.3487],[76.3691,27.3508],[76.372,27.3437],[76.3791,27.3411],[76.3834,27.3441],[76.4,27.3466],[76.4057,27.3399],[76.4105,27.3394],[76.4143,27.3428],[76.4143,27.3673],[76.4115,27.3753],[76.4105,27.3952],[76.4148,27.4036],[76.4224,27.4133],[76.4309,27.4188],[76.4404,27.4192],[76.4542,27.4167],[76.4756,27.4057],[76.4823,27.404],[76.4837,27.4158],[76.4918,27.4205],[76.5013,27.4129],[76.5075,27.4133],[76.5103,27.4214]]]},"properties":{"id":"sariska-wls","name":"Sariska Wildlife Sanctuary","category":"wls","area_km2":219}}]}