{"type":"FeatureCollection","features":[{"type":"Feature","geometry":{"type":"Polygon","coordinates":[[[76.2378,27.147],[76.2401,27.158],[76.2457,27.1632],[76.2519,27.1745],[76.269,27.1813],[76.2756,27.173],[76.2759,27.1627],[76.2838,27.1524],[76.2838,27.1383],[76.2854,27.1256],[76.2802,27.1054],[76.2782,27.0798],[76.2765,27.07],[76.2775,27.0658],[76.2852,27.0625],[76.2964,27.0626],[76.3013,27.0652],[76.3037,27.0737],[76.3022,27.0782],[76.3058,27.0834],[76.3066,27.0939],[76.2973,27.096],[76.2951,27.0985],[76.2995,27.1085],[76.2984,27.1197],[76.302,27.1305],[76.2993,27.1377],[76.3016,27.1383],[76.3091,27.1215],[76.3135,27.1191],[76.335,27.1225],[76.3462,27.1288],[76.3464,27.1313],[76.3548,27.1344],[76.3578,27.1285],[76.3666,27.1279],[76.3697,27.1316],[76.3679,27.1421],[76.3733,27.141],[76.3755,27.1519],[76.3721,27.1591],[76.3766,27.168],[76.3809,27.1669],[76.3891,27.1512],[76.3917,27.1362],[76.3953,27.1274],[76.3938,27.119],[76.3887,27.1118],[76.3895,27.1037],[76.3955,27.093],[76.4022,27.0907],[76.4068,27.1019],[76.4083,27.1119],[76.4072,27.1256],[76.3971,27.1457],[76.3965,27.1581],[76.3882,27.1628],[76.387,27.1706],[76.3759,27.1783],[76.3748,27.1833],[76.3688,27.1812],[76.3593,27.1696],[76.3562,27.1823],[76.3595,27.1925],[76.3607,27.202],[76.3681,27.2137],[76.3754,27.2055],[76.3761,27.2014],[76.3842,27.1917],[76.3837,27.1886],[76.3913,27.1879],[76.3922,27.1843],[76.3972,27.1844],[76.398,27.1895],[76.4034,27.1927],[76.408,27.1867],[76.4127,27.1851],[76.4136,27.1917],[76.4042,27.1988],[76.3993,27.2074],[76.384,27.2133],[76.3757,27.2187],[76.3795,27.224],[76.3908,27.2154],[76.4038,27.2114],[76.3981,27.2239],[76.3926,27.2262],[76.3876,27.2315],[76.384,27.2395],[76.3865,27.2494],[76.3931,27.2538],[76.3952,27.26],[76.4015,27.2651],[76.3994,27.2741],[76.4142,27.2717],[76.4234,27.2669],[76.4362,27.2736],[76.4448,27.2762],[76.4491,27.2741],[76.4621,27.2762],[76.4745,27.2748],[76.4776,27.2718],[76.4805,27.2558],[76.4885,27.2481],[76.4871,27.2382],[76.484,27.2288],[76.4771,27.2171],[76.4754,27.2102],[76.4649,27.2026],[76.4582,27.2109],[76.4446,27.2218],[76.4335,27.2279],[76.422,27.228],[76.416,27.2316],[76.41,27.2319],[76.4047,27.2377],[76.404,27.2301],[76.4137,27.2184],[76.4185,27.2176],[76.4207,27.2259],[76.4246,27.2249],[76.4282,27.2193],[76.4274,27.2099],[76.4297,27.2056],[76.4402,27.208],[76.452,27.2042],[76.4574,27.1933],[76.4489,27.1842],[76.4398,27.188],[76.435,27.1845],[76.4311,27.1747],[76.4265,27.1681],[76.4279,27.1621],[76.4277,27.1492],[76.4151,27.129],[76.423,27.1294],[76.4334,27.1445],[76.4398,27.1553],[76.4451,27.1697],[76.4499,27.1772],[76.4587,27.1844],[76.4684,27.1986],[76.4776,27.2052],[76.4819,27.2103],[76.4964,27.2165],[76.5091,27.2256],[76.5157,27.2375],[76.5278,27.2549],[76.5419,27.2649],[76.5445,27.2823],[76.5456,27.3063],[76.5445,27.3119],[76.5363,27.3234],[76.5345,27.3311],[76.5375,27.3453],[76.5336,27.3575],[76.5254,27.3689],[76.5324,27.371],[76.5356,27.3793],[76.5334,27.3865],[76.539,27.4046],[76.5292,27.4026],[76.5183,27.4184],[76.5103,27.4214],[76.5075,27.4133],[76.5013,27.4129],[76.4918,27.4205],[76.4837,27.4158],[76.4823,27.404],[76.4756,27.4057],[76.4542,27.4167],[76.4404,27.4192],[76.4309,27.4188],[76.4224,27.4133],[76.4148,27.4036],[76.4105,27.3952],[76.4115,27.3753],[76.4143,27.3673],[76.4143,27.3428],[76.4105,27.3394],[76.4057,27.3399],[76.4,27.3466],[76.3834,27.3441],[76.3791,27.3411],[76.372,27.3437],[76.3691,27.3508],[76.3587,27.3487],[76.3511,27.3335],[76.3283,27.3006],[76.3226,27.2951],[76.315,27.2837],[76.3158,27.269],[76.3123,27.2564],[76.3117,27.2491],[76.3126,27.2286],[76.3145,27.2233],[76.3209,27.1963],[76.3111,27.192],[76.3131,27.1828],[76.3229,27.183],[76.3269,27.167],[76.3267,27.1572],[76.3231,27.157],[76.3113,27.1629],[76.3066,27.1728],[76.3001,27.1767],[76.2946,27.1709],[76.2881,27.1729],[76.2903,27.1915],[76.2836,27.2008],[76.2785,27.2052],[76.2765,27.211],[76.268,27.2229],[76.2643,27.2232],[76.2617,27.2166],[76.2647,27.2059],[76.2762,27.1868],[76.2728,27.1841],[76.2665,27.1955],[76.2663,27.1995],[76.2609,27.2073],[76.2572,27.2077],[76.2517,27.1994],[76.2418,27.1937],[76.2302,27.1915],[76.2219,27.1858],[76.2247,27.1809],[76.225,27.1702],[76.2215,27.1626],[76.2233,27.159],[76.2121,27.1473],[76.2046,27.1436],[76.2058,27.1365],[76.2296,27.1413],[76.2378,27.147]]]},"properties":{"id":"sariska-np","name":"Sariska National Park","category":"np","area_km2":273.8}}]}