{"type":"FeatureCollection","features":[{"type":"Feature","geometry":{"type":"MultiPolygon","coordinates":[[[[77.13,11.4549],[77.1288,11.4671],[77.1195,11.4684],[77.1193,11.4613],[77.1066,11.4548],[77.1032,11.4558],[77.096,11.4508],[77.0884,11.4328],[77.077,11.4033],[77.0896,11.4051],[77.0955,11.4016],[77.1036,11.4027],[77.1072,11.406],[77.1093,11.4133],[77.1149,11.4151],[77.1138,11.4079],[77.1239,11.4073],[77.1332,11.414],[77.1362,11.4125],[77.1362,11.4064],[77.1399,11.4084],[77.141,11.4263],[77.15,11.4309],[77.1734,11.4323],[77.1865,11.4312],[77.1909,11.4335],[77.203,11.4308],[77.2052,11.435],[77.1949,11.4397],[77.1927,11.4434],[77.1954,11.4505],[77.184,11.451],[77.1804,11.4455],[77.1689,11.4365],[77.1634,11.4355],[77.1604,11.4605],[77.1544,11.4683],[77.1525,11.465],[77.1564,11.4609],[77.156,11.4568],[77.1487,11.4533],[77.1512,11.4425],[77.1341,11.434],[77.1306,11.4397],[77.1315,11.4469],[77.13,11.4549]]],[[[77.2599,11.8107],[77.2498,11.813],[77.2494,11.8042],[77.2384,11.7947],[77.2293,11.7958],[77.2173,11.7954],[77.1891,11.7925],[77.1816,11.7863],[77.1474,11.782],[77.1379,11.7727],[77.1305,11.7737],[77.1228,11.7725],[77.1155,11.7747],[77.1107,11.7735],[77.1125,11.7657],[77.1123,11.7572],[77.1086,11.754],[77.1112,11.7504],[77.1116,11.7431],[77.1147,11.7389],[77.1141,11.7346],[77.1173,11.731],[77.1176,11.7213],[77.1147,11.7218],[77.1047,11.7329],[77.0802,11.7361],[77.0823,11.7402],[77.0711,11.7513],[77.0598,11.7642],[77.0564,11.7698],[77.0612,11.776],[77.0669,11.7784],[77.0696,11.7823],[77.0631,11.7903],[77.0503,11.7896],[77.0445,11.7861],[77.0399,11.7806],[77.0349,11.77],[77.0288,11.7746],[77.0282,11.7638],[77.0234,11.7548],[77.0194,11.7515],[77.0093,11.7514],[77.0052,11.7455],[76.9977,11.7407],[76.9947,11.7301],[76.9856,11.7172],[76.9703,11.7035],[76.9455,11.6732],[76.933,11.6617],[76.9035,11.6419],[76.8941,11.6393],[76.8885,11.636],[76.8804,11.6368],[76.8771,11.6472],[76.877,11.6603],[76.875,11.6717],[76.8764,11.6911],[76.876,11.707],[76.8789,11.7221],[76.8782,11.7262],[76.8715,11.7218],[76.8625,11.7111],[76.8635,11.7054],[76.8561,11.6976],[76.85,11.6867],[76.8484,11.6798],[76.8409,11.661],[76.8336,11.649],[76.8375,11.6416],[76.8345,11.6397],[76.8384,11.6354],[76.8454,11.6323],[76.8447,11.6282],[76.8494,11.6244],[76.8504,11.6161],[76.8579,11.6141],[76.8556,11.6076],[76.8563,11.5994],[76.8467,11.5946],[76.8486,11.5911],[76.8462,11.5855],[76.8472,11.5815],[76.8541,11.577],[76.8745,11.5807],[76.8832,11.5733],[76.892,11.5724],[76.8996,11.5758],[76.906,11.581],[76.9122,11.5756],[76.9161,11.5641],[76.9184,11.565],[76.9197,11.5769],[76.9251,11.5777],[76.9322,11.5744],[76.9391,11.5791],[76.9457,11.5729],[76.9534,11.5728],[76.9552,11.5694],[76.9608,11.5713],[76.9684,11.5643],[76.974,11.5654],[76.9732,11.5575],[76.9795,11.5534],[76.9843,11.5556],[76.9903,11.552],[76.9929,11.5471],[77.0077,11.5452],[77.0053,11.5363],[77.0095,11.5287],[77.0073,11.5231],[77.0148,11.5256],[77.0039,11.5137],[76.9979,11.5134],[76.994,11.5087],[76.9962,11.5],[76.9919,11.4916],[76.9923,11.4782],[77.0001,11.4735],[77.0086,11.457],[77.014,11.4503],[77.0179,11.4486],[77.0263,11.4526],[77.0398,11.4526],[77.0477,11.4618],[77.059,11.4602],[77.0619,11.4615],[77.0747,11.4552],[77.0751,11.4594],[77.0792,11.4608],[77.0749,11.4635],[77.0742,11.4682],[77.0697,11.4698],[77.0696,11.4761],[77.0663,11.4818],[77.0682,11.4884],[77.0687,11.4999],[77.0789,11.4979],[77.0961,11.4897],[77.1126,11.4932],[77.1145,11.4881],[77.1205,11.4872],[77.1229,11.4944],[77.1258,11.4959],[77.1379,11.4954],[77.1435,11.497],[77.142,11.5067],[77.1373,11.5079],[77.1261,11.5047],[77.1163,11.5056],[77.1137,11.5081],[77.1151,11.5157],[77.1124,11.5347],[77.1215,11.5358],[77.1222,11.5391],[77.1392,11.5396],[77.1426,11.5426],[77.1553,11.5428],[77.1597,11.5453],[77.1718,11.5421],[77.1785,11.5575],[77.1953,11.5794],[77.2009,11.58],[77.2048,11.5871],[77.2144,11.5838],[77.2174,11.5686],[77.2224,11.5627],[77.2223,11.5575],[77.2284,11.5528],[77.2534,11.5519],[77.2649,11.5553],[77.2667,11.5543],[77.2694,11.5425],[77.2773,11.5397],[77.2903,11.5454],[77.2927,11.5509],[77.2929,11.5603],[77.303,11.5692],[77.31,11.5716],[77.313,11.5694],[77.317,11.5542],[77.3158,11.5469],[77.3111,11.5395],[77.3177,11.5311],[77.3278,11.5258],[77.3436,11.525],[77.3454,11.5261],[77.3545,11.5436],[77.3597,11.5493],[77.3662,11.5648],[77.3744,11.5643],[77.3726,11.5509],[77.3687,11.5342],[77.3705,11.5282],[77.39,11.5275],[77.4084,11.5289],[77.4312,11.5371],[77.4338,11.5482],[77.4474,11.5616],[77.4503,11.567],[77.4525,11.5763],[77.4509,11.5934],[77.4589,11.6035],[77.4586,11.6068],[77.4497,11.6129],[77.4448,11.6197],[77.4409,11.6349],[77.4394,11.646],[77.4503,11.6542],[77.455,11.664],[77.4507,11.6692],[77.4398,11.6743],[77.4426,11.681],[77.4362,11.7034],[77.4422,11.7069],[77.44,11.7113],[77.4436,11.7131],[77.4403,11.7186],[77.4395,11.7146],[77.4356,11.7151],[77.4357,11.7313],[77.427,11.7327],[77.4239,11.7279],[77.4197,11.7287],[77.4186,11.7334],[77.4075,11.7301],[77.4081,11.7368],[77.407,11.7523],[77.4046,11.7609],[77.4044,11.7716],[77.4081,11.7717],[77.4124,11.7667],[77.4216,11.7602],[77.4221,11.7724],[77.4136,11.7748],[77.3953,11.7862],[77.3879,11.7885],[77.3691,11.7869],[77.3647,11.7903],[77.3599,11.7799],[77.3498,11.7754],[77.3348,11.7714],[77.3274,11.7756],[77.3126,11.7935],[77.2937,11.809],[77.2878,11.8005],[77.2746,11.803],[77.2733,11.8054],[77.2599,11.8107]]],[[[76.9242,11.6996],[76.9332,11.7033],[76.9408,11.719],[76.9364,11.7316],[76.9223,11.7308],[76.9204,11.7272],[76.9209,11.7153],[76.9242,11.6996]]]]},"properties":{"id":"sathyamangalam-wls","name":"Sathyamangalam Wildlife Sanctuary","category":"wls","area_km2":1411.6}}]}