{"type":"FeatureCollection","features":[{"type":"Feature","geometry":{"type":"Polygon","coordinates":[[[84.7686,20.7197],[84.7573,20.726],[84.7566,20.7314],[84.7528,20.7356],[84.7591,20.7529],[84.7565,20.7597],[84.754,20.7545],[84.7462,20.7498],[84.7482,20.7432],[84.7416,20.733],[84.744,20.7212],[84.7408,20.7131],[84.738,20.7138],[84.734,20.7071],[84.7193,20.6995],[84.718,20.6909],[84.7279,20.6867],[84.7326,20.6792],[84.7277,20.6761],[84.7276,20.6727],[84.7332,20.6695],[84.7188,20.6625],[84.7172,20.655],[84.7098,20.6436],[84.7021,20.6401],[84.696,20.6318],[84.6868,20.6349],[84.6591,20.6389],[84.6597,20.6334],[84.6549,20.6191],[84.6546,20.6134],[84.6593,20.6074],[84.6668,20.6047],[84.6636,20.5969],[84.6664,20.5924],[84.6763,20.5852],[84.683,20.5734],[84.6802,20.5659],[84.675,20.5617],[84.6653,20.5586],[84.6662,20.5524],[84.6608,20.5523],[84.655,20.5451],[84.6543,20.5364],[84.6565,20.5321],[84.6575,20.5204],[84.6644,20.5183],[84.6689,20.5202],[84.672,20.5156],[84.6899,20.5033],[84.7019,20.5079],[84.6992,20.5131],[84.7006,20.5209],[84.704,20.5204],[84.7095,20.5256],[84.7193,20.5308],[84.7283,20.5286],[84.7338,20.5315],[84.7371,20.5375],[84.743,20.5401],[84.7592,20.5348],[84.7491,20.5178],[84.7319,20.516],[84.7145,20.5224],[84.7149,20.5128],[84.7132,20.5056],[84.7064,20.5001],[84.6987,20.4971],[84.6963,20.4905],[84.6971,20.4829],[84.6939,20.4731],[84.6942,20.4686],[84.6889,20.4664],[84.6884,20.463],[84.6826,20.4592],[84.6904,20.458],[84.6932,20.4495],[84.6879,20.4472],[84.6914,20.4398],[84.6835,20.4364],[84.6827,20.4321],[84.6755,20.4328],[84.6739,20.4289],[84.6653,20.4237],[84.6484,20.4226],[84.6369,20.4249],[84.6314,20.4306],[84.626,20.4296],[84.6202,20.4336],[84.616,20.4273],[84.6107,20.4258],[84.606,20.4193],[84.5979,20.4189],[84.5902,20.403],[84.5976,20.3975],[84.6037,20.3981],[84.6105,20.4039],[84.6071,20.4087],[84.6095,20.4138],[84.6216,20.4129],[84.6263,20.411],[84.6382,20.4115],[84.6429,20.4064],[84.6487,20.4047],[84.6705,20.4129],[84.673,20.41],[84.6806,20.408],[84.6961,20.4106],[84.7009,20.4079],[84.6916,20.4059],[84.6811,20.4066],[84.6837,20.4018],[84.6946,20.4033],[84.7036,20.3973],[84.7146,20.4005],[84.716,20.4055],[84.7113,20.408],[84.7109,20.412],[84.7232,20.4087],[84.7286,20.4035],[84.7366,20.4012],[84.7414,20.4081],[84.7481,20.409],[84.7519,20.4131],[84.7624,20.4118],[84.776,20.4143],[84.778,20.4223],[84.7886,20.4271],[84.7859,20.4323],[84.7766,20.4361],[84.7906,20.4465],[84.8008,20.4503],[84.8076,20.4487],[84.8099,20.4512],[84.8094,20.4597],[84.8031,20.4614],[84.8091,20.4755],[84.8047,20.48],[84.797,20.4829],[84.7971,20.4884],[84.801,20.5016],[84.797,20.5036],[84.7952,20.5132],[84.7903,20.5178],[84.8051,20.518],[84.8098,20.5073],[84.8243,20.5],[84.828,20.4896],[84.8311,20.4869],[84.8263,20.4809],[84.8302,20.4734],[84.8248,20.4731],[84.8229,20.4669],[84.8178,20.4588],[84.8211,20.447],[84.8285,20.4434],[84.8401,20.443],[84.8587,20.4506],[84.8634,20.449],[84.8696,20.4538],[84.8877,20.4429],[84.8953,20.4353],[84.8997,20.4357],[84.9126,20.4325],[84.9191,20.4262],[84.9229,20.4294],[84.9446,20.4214],[84.9421,20.4372],[84.9548,20.4444],[84.9625,20.4448],[84.9646,20.4498],[84.9703,20.4529],[84.9688,20.4622],[84.9751,20.4649],[84.9555,20.4957],[84.9533,20.5002],[84.9513,20.5121],[84.9556,20.5168],[84.9539,20.5257],[84.9498,20.5326],[84.9566,20.5351],[84.9594,20.5411],[84.9596,20.5483],[84.9751,20.5651],[84.9763,20.5723],[84.982,20.5646],[84.9881,20.5723],[84.9889,20.5794],[85.0293,20.5886],[85.0372,20.5844],[85.0499,20.5841],[85.0574,20.5769],[85.0669,20.5776],[85.0707,20.5835],[85.0763,20.5805],[85.083,20.5913],[85.0876,20.5943],[85.0887,20.6042],[85.094,20.6114],[85.0846,20.6169],[85.0741,20.6135],[85.0698,20.6206],[85.0564,20.625],[85.0418,20.6357],[85.0315,20.6391],[85.0244,20.63],[85.0215,20.6345],[85.0145,20.6384],[85.0064,20.6324],[85.0039,20.6368],[84.9909,20.6385],[84.9818,20.644],[84.9759,20.645],[84.965,20.6561],[84.9638,20.6599],[84.9664,20.6664],[84.9597,20.6839],[84.9486,20.6978],[84.9437,20.6966],[84.9335,20.6987],[84.9191,20.704],[84.9123,20.7087],[84.8972,20.7132],[84.8883,20.7123],[84.8785,20.719],[84.8716,20.7206],[84.869,20.7262],[84.8583,20.7308],[84.8571,20.7394],[84.8521,20.7466],[84.8481,20.7474],[84.8424,20.7556],[84.8384,20.7537],[84.8443,20.7491],[84.8462,20.7439],[84.8374,20.7364],[84.8315,20.737],[84.8286,20.7322],[84.818,20.7272],[84.8127,20.728],[84.8082,20.7228],[84.7974,20.7247],[84.7957,20.714],[84.7978,20.7085],[84.7946,20.7001],[84.7882,20.7034],[84.7838,20.7083],[84.7868,20.7118],[84.7836,20.7137],[84.7837,20.7208],[84.7734,20.7212],[84.7686,20.7197]]]},"properties":{"id":"satkosia-gorge-ramsar","name":"Satkosia Gorge","category":"ramsar","area_km2":982}}]}