{"type":"FeatureCollection","features":[{"type":"Feature","geometry":{"type":"Polygon","coordinates":[[[84.7902,20.5157],[84.7999,20.5168],[84.8046,20.5148],[84.8122,20.5067],[84.8201,20.5047],[84.8272,20.5001],[84.8321,20.4942],[84.8336,20.4873],[84.8264,20.4778],[84.819,20.4595],[84.821,20.4515],[84.8311,20.4449],[84.8407,20.4433],[84.856,20.451],[84.8644,20.4502],[84.8709,20.4534],[84.8764,20.4524],[84.8917,20.4408],[84.8978,20.4374],[84.9137,20.4332],[84.9229,20.4319],[84.9358,20.4274],[84.939,20.4286],[84.946,20.4398],[84.9534,20.4444],[84.9628,20.448],[84.9706,20.4541],[84.9688,20.4592],[84.9731,20.4671],[84.9799,20.4687],[84.9872,20.4745],[84.9889,20.4782],[84.9774,20.4866],[84.9587,20.4955],[84.9543,20.5001],[84.9529,20.5076],[84.9553,20.5122],[84.9529,20.5275],[84.9599,20.5345],[84.9601,20.5416],[84.9633,20.5475],[84.9739,20.5579],[84.9804,20.5581],[84.9831,20.5618],[84.9897,20.5781],[84.996,20.5808],[85.0079,20.5824],[85.0237,20.5869],[85.0446,20.5859],[85.0543,20.5776],[85.0598,20.5755],[85.0654,20.5769],[85.0687,20.5812],[85.0744,20.5809],[85.0823,20.5887],[85.0875,20.5963],[85.0881,20.6038],[85.0915,20.6112],[85.085,20.6164],[85.0728,20.6191],[85.0631,20.6244],[85.0503,20.6355],[85.0441,20.6374],[85.0293,20.6387],[85.0267,20.6463],[85.0232,20.6484],[85.0152,20.6414],[85.0119,20.6336],[85.0053,20.6287],[84.997,20.6274],[84.9865,20.6321],[84.9762,20.6423],[84.9676,20.6485],[84.9548,20.6618],[84.9527,20.6671],[84.9572,20.6857],[84.9486,20.6872],[84.9412,20.694],[84.9205,20.7025],[84.9071,20.7044],[84.8966,20.7087],[84.8722,20.7149],[84.8644,20.7108],[84.8582,20.7158],[84.8549,20.7302],[84.8554,20.7436],[84.8446,20.7521],[84.842,20.7494],[84.8461,20.7408],[84.8443,20.7373],[84.8355,20.7341],[84.8225,20.7261],[84.811,20.7267],[84.8053,20.7248],[84.8009,20.7191],[84.7983,20.7029],[84.7945,20.6999],[84.7887,20.7008],[84.7842,20.7072],[84.7849,20.7158],[84.7809,20.7192],[84.7673,20.7167],[84.7626,20.7173],[84.758,20.7225],[84.7538,20.7332],[84.7567,20.7474],[84.7547,20.7533],[84.7455,20.7487],[84.7373,20.7341],[84.7406,20.7197],[84.7396,20.7126],[84.7346,20.7048],[84.7222,20.6962],[84.7215,20.6909],[84.7311,20.686],[84.733,20.6766],[84.7306,20.6677],[84.722,20.6617],[84.7163,20.6479],[84.7109,20.6429],[84.703,20.6385],[84.6996,20.6334],[84.685,20.6343],[84.663,20.6416],[84.6599,20.6379],[84.6574,20.6283],[84.6577,20.6149],[84.6605,20.6096],[84.6681,20.601],[84.6702,20.5913],[84.6815,20.5793],[84.6843,20.5694],[84.6786,20.5619],[84.6698,20.5576],[84.668,20.551],[84.6584,20.5472],[84.654,20.5357],[84.6478,20.5286],[84.6482,20.5249],[84.6543,20.5169],[84.662,20.5191],[84.6659,20.5164],[84.6936,20.5064],[84.6998,20.5052],[84.7035,20.508],[84.7022,20.5159],[84.7052,20.5214],[84.7126,20.524],[84.7235,20.5315],[84.7347,20.5329],[84.7437,20.5386],[84.7472,20.5386],[84.7595,20.5329],[84.7693,20.5322],[84.7774,20.5289],[84.7839,20.5199],[84.7902,20.5157]]]},"properties":{"id":"satkosia-gorge-wls","name":"Satkosia Gorge Wildlife Sanctuary","category":"wls","area_km2":745.5}}]}