{"type":"FeatureCollection","features":[{"type":"Feature","geometry":{"type":"Polygon","coordinates":[[[78.0292,22.5806],[78.0228,22.5791],[78.0244,22.5681],[78.0227,22.5644],[78.0119,22.5642],[78.0045,22.5601],[78.0013,22.5518],[78.0022,22.5449],[77.9995,22.5383],[78.0099,22.5303],[78.0168,22.5268],[78.0165,22.5183],[78.009,22.504],[78.0248,22.4982],[78.0589,22.4963],[78.069,22.4927],[78.0881,22.4911],[78.0949,22.4892],[78.1083,22.4815],[78.1249,22.4768],[78.1374,22.4774],[78.1513,22.4738],[78.1701,22.4738],[78.1793,22.4763],[78.1917,22.4746],[78.2075,22.4705],[78.2143,22.4705],[78.2215,22.4744],[78.2313,22.4741],[78.2396,22.4713],[78.2443,22.4675],[78.2586,22.4656],[78.2718,22.4699],[78.2989,22.467],[78.3171,22.4615],[78.3473,22.4536],[78.3488,22.4445],[78.3518,22.4392],[78.3684,22.4296],[78.3708,22.4103],[78.3811,22.3987],[78.3879,22.3978],[78.3892,22.3946],[78.4048,22.3917],[78.4079,22.3874],[78.4248,22.3816],[78.4298,22.3836],[78.432,22.3808],[78.4372,22.383],[78.443,22.3796],[78.4492,22.3794],[78.4476,22.3825],[78.4526,22.3837],[78.4553,22.377],[78.4637,22.3794],[78.4716,22.3758],[78.4702,22.3822],[78.476,22.3825],[78.4817,22.3797],[78.4853,22.3845],[78.4924,22.3893],[78.4972,22.3993],[78.5052,22.4046],[78.5118,22.4023],[78.5187,22.4076],[78.5253,22.4186],[78.5317,22.4202],[78.5445,22.4149],[78.5496,22.4199],[78.5591,22.4183],[78.5647,22.429],[78.5588,22.4369],[78.5572,22.4421],[78.5407,22.4399],[78.515,22.4326],[78.5052,22.4499],[78.4989,22.4554],[78.4921,22.4573],[78.4779,22.4538],[78.4615,22.4483],[78.4273,22.451],[78.4199,22.451],[78.4092,22.4467],[78.3964,22.4472],[78.3947,22.4503],[78.3957,22.4619],[78.4153,22.4681],[78.422,22.4724],[78.4261,22.4785],[78.4419,22.4827],[78.4484,22.4863],[78.4476,22.4916],[78.4378,22.5052],[78.4345,22.5139],[78.4117,22.5245],[78.3949,22.5293],[78.4042,22.5529],[78.3876,22.5536],[78.3812,22.5524],[78.376,22.5413],[78.3694,22.5409],[78.3396,22.5449],[78.3261,22.5389],[78.3234,22.5435],[78.3041,22.5439],[78.2712,22.5489],[78.255,22.5551],[78.2525,22.5607],[78.2437,22.5654],[78.2358,22.5648],[78.2269,22.5603],[78.2139,22.558],[78.2036,22.5594],[78.1953,22.5541],[78.1846,22.5515],[78.1709,22.5558],[78.1693,22.5624],[78.155,22.5665],[78.1504,22.5706],[78.1439,22.5725],[78.1316,22.5705],[78.1236,22.5734],[78.0992,22.5692],[78.0735,22.5573],[78.0574,22.5556],[78.0457,22.5595],[78.0376,22.5701],[78.0414,22.5754],[78.0389,22.5801],[78.0292,22.5806]]]},"properties":{"id":"satpura-tr","name":"Satpura Tiger Reserve","category":"tr","area_km2":528.7}}]}