{"type":"FeatureCollection","features":[{"type":"Feature","geometry":{"type":"MultiPolygon","coordinates":[[[[76.3152,25.8679],[76.3098,25.876],[76.3097,25.8798],[76.3152,25.8819],[76.3146,25.8924],[76.308,25.895],[76.297,25.8847],[76.2966,25.8742],[76.2936,25.8706],[76.2838,25.8698],[76.2788,25.8584],[76.2853,25.8544],[76.3129,25.8633],[76.3152,25.8679]]],[[[76.3813,25.9787],[76.3746,25.992],[76.3611,25.9906],[76.3533,25.9867],[76.3491,25.9755],[76.3473,25.9599],[76.3383,25.9578],[76.3354,25.9327],[76.3238,25.9292],[76.3185,25.9168],[76.3246,25.8983],[76.3287,25.8944],[76.3273,25.8805],[76.3292,25.8733],[76.3336,25.8719],[76.3394,25.8741],[76.3458,25.8876],[76.3637,25.9118],[76.3809,25.9258],[76.391,25.9261],[76.3879,25.931],[76.3801,25.9535],[76.3808,25.9716],[76.3856,25.9778],[76.3856,25.9833],[76.3813,25.9787]]]]},"properties":{"id":"sawaimadhopur-wls","name":"Sawaimadhopur Wildlife Sanctuary","category":"wls","area_km2":131.3}}]}