{"type":"FeatureCollection","features":[{"type":"Feature","geometry":{"type":"MultiPolygon","coordinates":[[[[76.3358,25.8334],[76.3462,25.8448],[76.346,25.8492],[76.33,25.8514],[76.312,25.851],[76.3075,25.8492],[76.3034,25.8414],[76.3028,25.8339],[76.3057,25.8315],[76.3117,25.836],[76.3172,25.8334],[76.3156,25.8255],[76.3079,25.8185],[76.3005,25.8148],[76.2876,25.7932],[76.2835,25.788],[76.2832,25.7796],[76.287,25.773],[76.295,25.7648],[76.3057,25.7579],[76.3097,25.7465],[76.307,25.7329],[76.2936,25.7169],[76.2864,25.7055],[76.2915,25.6978],[76.2974,25.6986],[76.3037,25.7042],[76.3126,25.7176],[76.3182,25.7357],[76.3323,25.7505],[76.3344,25.7576],[76.3323,25.7732],[76.3373,25.7805],[76.3439,25.7816],[76.3486,25.7912],[76.3456,25.7973],[76.3313,25.8019],[76.3279,25.809],[76.3329,25.8274],[76.3358,25.8334]]],[[[76.4505,25.9171],[76.4528,25.9289],[76.4628,25.949],[76.4626,25.9639],[76.4533,25.9714],[76.4436,25.9701],[76.4357,25.9626],[76.4241,25.956],[76.415,25.9451],[76.4112,25.9428],[76.407,25.9342],[76.3929,25.9194],[76.3901,25.9111],[76.3798,25.9103],[76.3711,25.8986],[76.365,25.8948],[76.3614,25.886],[76.3611,25.8779],[76.3647,25.8737],[76.3708,25.8733],[76.3735,25.8641],[76.3788,25.8569],[76.3758,25.8518],[76.3648,25.8414],[76.3544,25.8384],[76.3484,25.8348],[76.3435,25.8252],[76.3396,25.8219],[76.3365,25.8078],[76.3439,25.8037],[76.3613,25.8017],[76.3654,25.8112],[76.3727,25.8177],[76.3801,25.8158],[76.3858,25.8231],[76.388,25.8359],[76.396,25.8422],[76.4011,25.8525],[76.4112,25.856],[76.4165,25.8597],[76.421,25.8688],[76.4298,25.8721],[76.4302,25.8847],[76.4338,25.8848],[76.4425,25.8761],[76.4473,25.8666],[76.4584,25.8668],[76.4595,25.8713],[76.446,25.8819],[76.4415,25.9126],[76.4437,25.917],[76.4505,25.9171]]]]},"properties":{"id":"sawai-man-singh-wls","name":"Sawai Man Singh Wildlife Sanctuary","category":"wls","area_km2":103.3}}]}