{"type":"FeatureCollection","features":[{"type":"Feature","geometry":{"type":"Polygon","coordinates":[[[76.6448,33.1623],[76.6385,33.1616],[76.6252,33.1645],[76.6165,33.1544],[76.6108,33.1323],[76.6151,33.1247],[76.6157,33.1084],[76.618,33.1022],[76.6186,33.0914],[76.6267,33.0758],[76.6265,33.0667],[76.6214,33.057],[76.6208,33.0418],[76.6134,33.0246],[76.5948,33.0103],[76.5919,33.0052],[76.576,32.9942],[76.5663,32.9889],[76.5661,32.9822],[76.5777,32.9716],[76.5908,32.9706],[76.5993,32.9728],[76.6072,32.9802],[76.6226,32.9822],[76.6452,32.9742],[76.6521,32.9742],[76.6666,32.9678],[76.674,32.963],[76.691,32.9443],[76.6933,32.9386],[76.6785,32.9343],[76.6654,32.9417],[76.6469,32.9405],[76.6345,32.9367],[76.6262,32.9301],[76.6309,32.9214],[76.636,32.9047],[76.6449,32.8929],[76.6624,32.884],[76.6719,32.8762],[76.6743,32.8697],[76.674,32.8543],[76.6804,32.8531],[76.6892,32.8647],[76.6989,32.8803],[76.7063,32.8851],[76.7056,32.8939],[76.7099,32.9062],[76.7101,32.9138],[76.7149,32.9166],[76.7237,32.9166],[76.7301,32.9202],[76.7344,32.9194],[76.7401,32.9114],[76.7685,32.9017],[76.7736,32.9134],[76.7783,32.9189],[76.7786,32.9259],[76.7685,32.9371],[76.7685,32.9413],[76.7848,32.954],[76.7973,32.9663],[76.8054,32.9717],[76.8192,32.9778],[76.8361,32.9944],[76.8363,33.0038],[76.8185,33.0241],[76.7964,33.038],[76.775,33.0502],[76.7648,33.0592],[76.7524,33.0761],[76.7479,33.0918],[76.747,33.1085],[76.7522,33.1346],[76.7584,33.1509],[76.7653,33.1631],[76.7662,33.17],[76.7562,33.1776],[76.7508,33.179],[76.7342,33.1778],[76.7271,33.1823],[76.7152,33.1815],[76.7143,33.1784],[76.7069,33.1742],[76.6919,33.1743],[76.6799,33.1716],[76.6701,33.1717],[76.6621,33.1648],[76.6448,33.1623]]]},"properties":{"id":"sechu-tuan-nala-wls","name":"Sechu Tuan Nala Wildlife Sanctuary","category":"wls","area_km2":390.3}}]}