{"type":"FeatureCollection","features":[{"type":"Feature","geometry":{"type":"Polygon","coordinates":[[[83.5203,23.6713],[83.5294,23.6773],[83.539,23.674],[83.5331,23.6686],[83.5308,23.6611],[83.5193,23.6598],[83.4871,23.6611],[83.4725,23.6569],[83.4714,23.6503],[83.4824,23.6392],[83.4805,23.6327],[83.4699,23.6308],[83.4559,23.6262],[83.4472,23.622],[83.4458,23.6153],[83.4347,23.6185],[83.4299,23.6159],[83.4246,23.6167],[83.4228,23.6222],[83.4183,23.6228],[83.4041,23.6134],[83.3973,23.5999],[83.3892,23.5937],[83.3772,23.5893],[83.3556,23.5837],[83.3505,23.5797],[83.3489,23.5735],[83.3537,23.5702],[83.3594,23.5699],[83.38,23.5797],[83.3987,23.5813],[83.4056,23.5836],[83.423,23.5974],[83.4376,23.6021],[83.458,23.6067],[83.465,23.604],[83.4763,23.5912],[83.4836,23.5847],[83.4824,23.582],[83.4517,23.5753],[83.4026,23.572],[83.3924,23.5694],[83.3748,23.5604],[83.3632,23.5585],[83.343,23.5612],[83.3338,23.5615],[83.3311,23.5592],[83.3297,23.5488],[83.3356,23.5439],[83.3537,23.5462],[83.3593,23.5456],[83.3757,23.5394],[83.385,23.5398],[83.4096,23.5477],[83.4392,23.5592],[83.4472,23.5543],[83.4582,23.5543],[83.4806,23.5581],[83.4903,23.5581],[83.5016,23.5553],[83.5102,23.5503],[83.5163,23.5429],[83.516,23.5318],[83.5102,23.5213],[83.4999,23.5212],[83.4964,23.5258],[83.488,23.528],[83.4876,23.5117],[83.4809,23.5103],[83.4728,23.5191],[83.4612,23.5184],[83.4519,23.515],[83.4474,23.5106],[83.4427,23.5123],[83.4421,23.5074],[83.4484,23.4968],[83.4779,23.4932],[83.4782,23.4897],[83.4711,23.4861],[83.4726,23.4831],[83.4839,23.4791],[83.4904,23.4684],[83.4951,23.4635],[83.4993,23.4679],[83.4871,23.4927],[83.4883,23.4935],[83.5053,23.4891],[83.5207,23.4902],[83.5237,23.4823],[83.5308,23.4823],[83.5412,23.4921],[83.5451,23.4908],[83.5465,23.484],[83.5436,23.4793],[83.5361,23.4744],[83.5361,23.4671],[83.5396,23.4652],[83.5734,23.4707],[83.587,23.4679],[83.5938,23.463],[83.6048,23.4352],[83.6199,23.4224],[83.6339,23.4205],[83.6372,23.4256],[83.6372,23.436],[83.6312,23.4534],[83.6386,23.4573],[83.6375,23.4627],[83.6294,23.4692],[83.6196,23.4736],[83.6039,23.4771],[83.5979,23.4814],[83.5963,23.4912],[83.5976,23.4973],[83.6113,23.4987],[83.6235,23.497],[83.6297,23.4993],[83.6345,23.4903],[83.6431,23.4805],[83.6583,23.4785],[83.6604,23.4848],[83.6707,23.4802],[83.6744,23.4854],[83.6802,23.4838],[83.6872,23.4773],[83.6979,23.4788],[83.6949,23.4849],[83.6868,23.4918],[83.6907,23.4983],[83.6951,23.4997],[83.7151,23.4973],[83.7243,23.5002],[83.7278,23.5073],[83.7183,23.5132],[83.6906,23.52],[83.6874,23.527],[83.6772,23.5336],[83.6811,23.5405],[83.6897,23.5405],[83.6984,23.5374],[83.7125,23.5342],[83.7174,23.5352],[83.7252,23.5407],[83.7276,23.5476],[83.7255,23.553],[83.7193,23.552],[83.713,23.5472],[83.7068,23.5481],[83.708,23.5595],[83.7049,23.5629],[83.6906,23.5675],[83.6829,23.5744],[83.6731,23.5748],[83.6663,23.5709],[83.6615,23.5607],[83.6507,23.5532],[83.6371,23.5463],[83.6368,23.5349],[83.632,23.5314],[83.6269,23.5325],[83.6145,23.5458],[83.6064,23.5491],[83.607,23.5586],[83.6016,23.5643],[83.608,23.5764],[83.6073,23.5793],[83.5975,23.5808],[83.597,23.5864],[83.6071,23.6087],[83.6077,23.6195],[83.5963,23.6218],[83.5985,23.638],[83.5868,23.6445],[83.5696,23.6487],[83.5711,23.6519],[83.585,23.6525],[83.5895,23.6562],[83.5877,23.6667],[83.5824,23.6737],[83.5693,23.6785],[83.5681,23.6817],[83.5705,23.695],[83.5748,23.7026],[83.5634,23.7024],[83.5498,23.7053],[83.5496,23.7116],[83.542,23.7055],[83.5303,23.7055],[83.5163,23.7137],[83.5061,23.7161],[83.4745,23.7153],[83.464,23.7135],[83.4578,23.7107],[83.4536,23.7],[83.435,23.7026],[83.4257,23.7009],[83.4177,23.6974],[83.4129,23.6913],[83.4101,23.677],[83.4101,23.6706],[83.4134,23.6652],[83.4205,23.6643],[83.4284,23.6689],[83.4357,23.6674],[83.4507,23.6706],[83.4557,23.6757],[83.4671,23.6811],[83.4766,23.6737],[83.4826,23.6743],[83.4875,23.6785],[83.4885,23.6828],[83.4947,23.6833],[83.5073,23.6767],[83.5075,23.6717],[83.5006,23.6683],[83.5025,23.6654],[83.512,23.6663],[83.5203,23.6713]]]},"properties":{"id":"semarsot-wls","name":"Semarsot Wildlife Sanctuary","category":"wls","area_km2":430.4}}]}