{"type":"FeatureCollection","features":[{"type":"Feature","geometry":{"type":"Polygon","coordinates":[[[88.3025,27.0213],[88.2816,27.0264],[88.262,27.0111],[88.2507,27.0002],[88.2369,26.989],[88.2438,26.9869],[88.2562,26.99],[88.2584,26.9941],[88.2674,26.9896],[88.2732,26.9922],[88.2824,26.9867],[88.282,26.9727],[88.286,26.9623],[88.2952,26.9644],[88.3019,26.9616],[88.3081,26.9624],[88.3181,26.9684],[88.3393,26.9713],[88.3528,26.9811],[88.3472,26.9891],[88.3363,26.9914],[88.3343,26.9953],[88.3402,27.002],[88.3386,27.0043],[88.3235,27.0115],[88.3056,27.0076],[88.3017,27.0118],[88.3025,27.0213]]]},"properties":{"id":"senchal-wls","name":"Senchal Wildlife Sanctuary","category":"wls","area_km2":38.9}}]}