{"type":"FeatureCollection","features":[{"type":"Feature","geometry":{"type":"Polygon","coordinates":[[[91.3383,23.6749],[91.3352,23.6794],[91.3223,23.6843],[91.3161,23.6745],[91.3099,23.671],[91.2978,23.667],[91.2947,23.6615],[91.2878,23.6583],[91.2891,23.6541],[91.2956,23.6482],[91.3055,23.65],[91.3083,23.6543],[91.3168,23.6566],[91.3233,23.6539],[91.3153,23.6455],[91.3099,23.642],[91.314,23.6376],[91.3204,23.6383],[91.33,23.6427],[91.3328,23.6537],[91.3396,23.654],[91.3425,23.6645],[91.3416,23.6686],[91.3355,23.6693],[91.3383,23.6749]],[[91.3186,23.6747],[91.3252,23.6716],[91.323,23.6677],[91.3168,23.6682],[91.3186,23.6747]]]},"properties":{"id":"sepahijala-wls","name":"Sepahijala Wildlife Sanctuary","category":"wls","area_km2":18.5}}]}