{"type":"FeatureCollection","features":[{"type":"Feature","geometry":{"type":"MultiPolygon","coordinates":[[[[78.6127,15.5086],[78.6121,15.5015],[78.6091,15.4964],[78.6279,15.4726],[78.6259,15.4659],[78.6085,15.4539],[78.6061,15.4478],[78.6073,15.4396],[78.6126,15.4274],[78.6463,15.422],[78.6651,15.4181],[78.6752,15.4138],[78.689,15.4158],[78.6986,15.4253],[78.724,15.4347],[78.7337,15.4313],[78.7411,15.4349],[78.7471,15.433],[78.7517,15.4233],[78.7725,15.4194],[78.7913,15.4143],[78.8053,15.4077],[78.8108,15.4002],[78.823,15.3971],[78.835,15.3975],[78.8497,15.4074],[78.8623,15.4027],[78.8681,15.4085],[78.8691,15.4159],[78.8671,15.4267],[78.8721,15.44],[78.8705,15.4456],[78.8629,15.4489],[78.861,15.4535],[78.8641,15.4553],[78.8898,15.4476],[78.9035,15.448],[78.9091,15.4596],[78.9079,15.4884],[78.9081,15.4997],[78.91,15.5242],[78.9096,15.5332],[78.9124,15.5445],[78.9105,15.564],[78.9153,15.5799],[78.9268,15.6034],[78.9303,15.6204],[78.9278,15.639],[78.923,15.647],[78.9221,15.6557],[78.9247,15.6617],[78.9219,15.6688],[78.9183,15.6697],[78.9055,15.6779],[78.8971,15.6814],[78.8876,15.6816],[78.876,15.6793],[78.87,15.6761],[78.87,15.6816],[78.8834,15.6896],[78.8962,15.694],[78.9012,15.7164],[78.9028,15.728],[78.9012,15.753],[78.9095,15.7594],[78.9192,15.7612],[78.933,15.7715],[78.9364,15.7802],[78.9364,15.7891],[78.9328,15.7932],[78.9245,15.7946],[78.92,15.8008],[78.9188,15.8269],[78.9187,15.8414],[78.9159,15.8455],[78.9045,15.8479],[78.8909,15.8493],[78.8842,15.8513],[78.8838,15.8572],[78.8895,15.8613],[78.9056,15.8657],[78.9102,15.8709],[78.912,15.8782],[78.9007,15.8822],[78.9196,15.8888],[78.935,15.8922],[78.9624,15.913],[78.9707,15.9162],[78.9942,15.9164],[79.0061,15.9191],[79.0341,15.9189],[79.0467,15.9198],[79.0491,15.9235],[79.0446,15.9264],[79.032,15.9278],[79.0123,15.9283],[79.0108,15.9335],[79.0168,15.9363],[79.0325,15.9386],[79.0436,15.9335],[79.0586,15.9322],[79.0762,15.9331],[79.1083,15.9246],[79.1159,15.9251],[79.1209,15.9285],[79.1187,15.9319],[79.1104,15.9374],[79.1035,15.9376],[79.0926,15.9445],[79.0859,15.9452],[79.075,15.9429],[79.0736,15.9456],[79.0774,15.9591],[79.0845,15.9616],[79.1249,15.968],[79.1599,15.9518],[79.1701,15.9491],[79.1855,15.9466],[79.1936,15.9495],[79.2152,15.9498],[79.2195,15.9582],[79.2179,15.9687],[79.211,15.9824],[79.2171,16.0188],[79.2148,16.0249],[79.2043,16.027],[79.1874,16.0224],[79.1808,16.0247],[79.1824,16.0389],[79.1865,16.0432],[79.1993,16.0448],[79.2036,16.0507],[79.2136,16.058],[79.2183,16.0647],[79.2162,16.0736],[79.2057,16.0765],[79.1989,16.0808],[79.2057,16.0952],[79.2059,16.1067],[79.2042,16.1153],[79.2166,16.1477],[79.2232,16.1586],[79.2312,16.1632],[79.2386,16.1774],[79.2399,16.1866],[79.2428,16.1909],[79.2572,16.2024],[79.2609,16.2079],[79.2654,16.224],[79.266,16.2368],[79.2738,16.2497],[79.2738,16.2663],[79.2784,16.2751],[79.278,16.2839],[79.2713,16.293],[79.269,16.3023],[79.2614,16.3083],[79.2626,16.3169],[79.2846,16.3269],[79.2903,16.3309],[79.2915,16.3371],[79.2898,16.3479],[79.2877,16.3496],[79.2772,16.3457],[79.2666,16.347],[79.2668,16.3528],[79.2715,16.362],[79.2776,16.3793],[79.2768,16.3904],[79.2839,16.3953],[79.2945,16.4003],[79.2964,16.4046],[79.3083,16.4163],[79.3114,16.4238],[79.3116,16.4315],[79.304,16.4461],[79.3104,16.4548],[79.3112,16.46],[79.3097,16.476],[79.3038,16.484],[79.2888,16.4867],[79.2874,16.502],[79.2943,16.5138],[79.2943,16.5172],[79.2869,16.5229],[79.2824,16.5357],[79.276,16.5416],[79.2781,16.5482],[79.2836,16.5496],[79.2969,16.548],[79.3107,16.5651],[79.3152,16.5694],[79.3349,16.5742],[79.3468,16.569],[79.353,16.5571],[79.3696,16.5546],[79.3756,16.5507],[79.3825,16.5389],[79.3893,16.5359],[79.4065,16.5334],[79.4124,16.5355],[79.4385,16.53],[79.4507,16.5307],[79.454,16.5558],[79.4478,16.5847],[79.4535,16.5913],[79.4571,16.5897],[79.458,16.5829],[79.4628,16.5788],[79.4768,16.5815],[79.4749,16.5886],[79.4713,16.5929],[79.4592,16.599],[79.4564,16.6148],[79.4671,16.62],[79.4596,16.6237],[79.4472,16.6197],[79.4402,16.6148],[79.4369,16.6067],[79.4331,16.5907],[79.4186,16.5802],[79.3968,16.5798],[79.3779,16.5828],[79.356,16.5794],[79.3452,16.5821],[79.3372,16.582],[79.3264,16.5765],[79.3082,16.5741],[79.2955,16.563],[79.2875,16.5609],[79.2774,16.5615],[79.2665,16.5658],[79.2591,16.5669],[79.2522,16.5593],[79.251,16.5501],[79.2448,16.5318],[79.2397,16.5285],[79.2272,16.5238],[79.2192,16.5104],[79.2145,16.4847],[79.2165,16.4785],[79.2144,16.4737],[79.2089,16.472],[79.1991,16.4774],[79.1881,16.4781],[79.1834,16.4762],[79.177,16.4809],[79.1782,16.4856],[79.1753,16.5007],[79.1787,16.5125],[79.1877,16.5136],[79.1949,16.5088],[79.2064,16.5086],[79.2062,16.5115],[79.2127,16.5161],[79.2112,16.5202],[79.2158,16.523],[79.202,16.5241],[79.2137,16.5265],[79.2166,16.5313],[79.2079,16.5318],[79.1885,16.528],[79.1837,16.532],[79.1757,16.5301],[79.1738,16.5186],[79.1635,16.513],[79.1565,16.5069],[79.15,16.511],[79.1401,16.5063],[79.1218,16.5138],[79.1174,16.5205],[79.1125,16.5205],[79.1072,16.5136],[79.0996,16.508],[79.0895,16.5043],[79.0767,16.5036],[79.0642,16.5082],[79.0591,16.5149],[79.0632,16.5173],[79.0817,16.516],[79.087,16.5233],[79.098,16.5286],[79.1081,16.5406],[79.1155,16.5475],[79.1129,16.553],[79.1024,16.5504],[79.092,16.5517],[79.083,16.5611],[79.0762,16.5614],[79.0701,16.5584],[79.0641,16.5526],[79.0592,16.5425],[79.0533,16.5433],[79.0512,16.5577],[79.0564,16.5657],[79.0545,16.5678],[79.0387,16.5682],[79.0216,16.5641],[79.0179,16.5651],[79.0086,16.5719],[79.0002,16.5749],[78.9846,16.5754],[78.9695,16.5708],[78.9628,16.5725],[78.9482,16.5724],[78.9413,16.5744],[78.9359,16.5734],[78.9261,16.5631],[78.919,16.561],[78.9123,16.5566],[78.9071,16.5566],[78.8857,16.5601],[78.879,16.5556],[78.8836,16.5522],[78.8936,16.5496],[78.9099,16.5495],[78.915,16.5386],[78.9237,16.5285],[78.9307,16.5341],[78.946,16.5341],[78.9589,16.5283],[78.9713,16.5129],[78.9719,16.5056],[78.9747,16.5022],[78.9903,16.4978],[79.0026,16.4918],[79.0073,16.4931],[79.0087,16.4983],[79.0126,16.4986],[79.0169,16.4914],[79.013,16.4829],[79.013,16.4764],[79.0224,16.472],[79.0269,16.4673],[79.0476,16.4582],[79.0559,16.4495],[79.0623,16.4453],[79.066,16.4455],[79.0642,16.431],[79.0613,16.422],[79.0526,16.4162],[79.0391,16.4177],[79.0333,16.4096],[79.0314,16.4122],[79.0218,16.4151],[79.017,16.4234],[79.0119,16.4285],[78.9998,16.4268],[78.9891,16.4217],[78.9816,16.4029],[78.9827,16.3943],[78.9916,16.3912],[79.0058,16.3899],[79.0151,16.3943],[79.0354,16.3892],[79.0415,16.3837],[79.0422,16.3779],[79.0347,16.3697],[79.0301,16.367],[79.0142,16.3737],[79.0086,16.37],[79.0091,16.3647],[79.0019,16.3565],[79.0026,16.3483],[78.9988,16.3389],[78.9944,16.3392],[78.9841,16.3495],[78.9734,16.3632],[78.9698,16.3642],[78.9502,16.3492],[78.9287,16.3304],[78.9131,16.3293],[78.8943,16.3406],[78.8886,16.3471],[78.8877,16.3583],[78.8839,16.3601],[78.8593,16.3608],[78.8466,16.3632],[78.8337,16.3622],[78.8165,16.3565],[78.7936,16.3425],[78.7808,16.3408],[78.7675,16.3445],[78.7467,16.3455],[78.7439,16.3517],[78.7459,16.3696],[78.7508,16.3727],[78.7764,16.3777],[78.7926,16.3917],[78.8025,16.3924],[78.807,16.398],[78.8141,16.3985],[78.823,16.407],[78.834,16.4114],[78.8427,16.4129],[78.8579,16.4075],[78.8701,16.4063],[78.8724,16.4098],[78.8718,16.4169],[78.8609,16.4303],[78.8594,16.4385],[78.8632,16.4519],[78.8769,16.4574],[78.8903,16.4574],[78.9013,16.4539],[78.9117,16.4405],[78.9134,16.422],[78.9105,16.4012],[78.9108,16.3935],[78.9161,16.3867],[78.9241,16.3833],[78.9321,16.3837],[78.9335,16.3935],[78.9356,16.396],[78.9504,16.3935],[78.9565,16.3986],[78.9557,16.407],[78.9494,16.4163],[78.9503,16.446],[78.9551,16.4551],[78.9706,16.4524],[78.978,16.4524],[78.983,16.4565],[78.9874,16.4719],[78.9877,16.4787],[78.9839,16.4821],[78.9702,16.4887],[78.9598,16.4887],[78.9518,16.487],[78.9452,16.4915],[78.9396,16.4904],[78.9351,16.4864],[78.9289,16.4941],[78.9304,16.4978],[78.9363,16.5007],[78.9357,16.5072],[78.9289,16.5112],[78.917,16.5155],[78.8992,16.5032],[78.8855,16.5027],[78.8751,16.5038],[78.8659,16.5089],[78.8365,16.5192],[78.8163,16.5217],[78.8095,16.52],[78.8005,16.5138],[78.7937,16.4984],[78.7976,16.481],[78.7976,16.4713],[78.8089,16.4619],[78.808,16.4514],[78.8027,16.4487],[78.8065,16.4403],[78.8054,16.4323],[78.7873,16.4327],[78.7856,16.4232],[78.7828,16.4175],[78.7759,16.4154],[78.773,16.422],[78.7697,16.4224],[78.7617,16.4125],[78.7563,16.4079],[78.7434,16.4014],[78.7302,16.389],[78.7231,16.3862],[78.71,16.3858],[78.6993,16.3791],[78.687,16.3646],[78.667,16.3603],[78.6518,16.3444],[78.6488,16.3387],[78.649,16.3245],[78.6514,16.3194],[78.6522,16.303],[78.6448,16.2906],[78.6455,16.2803],[78.6402,16.2718],[78.6307,16.2738],[78.6246,16.2772],[78.6218,16.2847],[78.6052,16.2915],[78.5969,16.3004],[78.5874,16.2969],[78.5839,16.2851],[78.5836,16.2778],[78.5769,16.2744],[78.5735,16.2766],[78.5709,16.2857],[78.5674,16.291],[78.561,16.2908],[78.5526,16.2851],[78.5435,16.2756],[78.5421,16.2698],[78.5458,16.2693],[78.5541,16.2625],[78.5543,16.259],[78.5416,16.247],[78.5402,16.2426],[78.541,16.2181],[78.5484,16.2143],[78.5526,16.2145],[78.5646,16.2194],[78.5691,16.2249],[78.5665,16.2402],[78.5634,16.2428],[78.5568,16.2349],[78.5522,16.2377],[78.5524,16.2421],[78.5595,16.2565],[78.5771,16.2621],[78.5851,16.2624],[78.5961,16.2546],[78.5972,16.2509],[78.5932,16.2429],[78.5841,16.2309],[78.5809,16.2245],[78.5803,16.2101],[78.5725,16.2031],[78.5662,16.2],[78.5543,16.1989],[78.5176,16.2042],[78.5092,16.2079],[78.5046,16.2177],[78.4924,16.2208],[78.4852,16.2274],[78.4828,16.2331],[78.4743,16.2361],[78.4733,16.2276],[78.4645,16.2275],[78.4586,16.225],[78.4546,16.2188],[78.4492,16.2266],[78.4392,16.2222],[78.4359,16.2168],[78.4266,16.2159],[78.4223,16.2074],[78.418,16.1921],[78.4176,16.1839],[78.4207,16.1798],[78.4335,16.1755],[78.434,16.1606],[78.4368,16.1504],[78.4318,16.1367],[78.4318,16.1314],[78.4354,16.1264],[78.4432,16.1095],[78.4565,16.1038],[78.462,16.0994],[78.4641,16.0911],[78.4621,16.0856],[78.4651,16.0774],[78.4659,16.0692],[78.4791,16.0674],[78.4987,16.06],[78.5215,16.0542],[78.5421,16.0442],[78.5518,16.0428],[78.5577,16.045],[78.5703,16.0524],[78.5924,16.0691],[78.5964,16.0781],[78.6029,16.0847],[78.61,16.0871],[78.6272,16.0876],[78.6377,16.0846],[78.6498,16.0792],[78.6504,16.0721],[78.6552,16.0685],[78.6681,16.0545],[78.6726,16.0459],[78.6786,16.0384],[78.665,16.0343],[78.6388,16.0385],[78.6348,16.0356],[78.6296,16.0272],[78.6295,16.0168],[78.6213,16.0063],[78.6168,16.0026],[78.618,15.9958],[78.6148,15.9829],[78.607,15.9769],[78.6051,15.9718],[78.6082,15.9683],[78.6118,15.9581],[78.632,15.9464],[78.6482,15.9279],[78.667,15.9155],[78.6699,15.9122],[78.6691,15.9005],[78.6795,15.8941],[78.6803,15.8746],[78.6861,15.8712],[78.7063,15.8646],[78.6963,15.8574],[78.6883,15.8542],[78.6834,15.8469],[78.6785,15.8431],[78.6552,15.8436],[78.6533,15.8385],[78.657,15.8313],[78.6494,15.8202],[78.6463,15.8088],[78.6409,15.8052],[78.638,15.7911],[78.6311,15.7871],[78.625,15.7774],[78.6212,15.7756],[78.6201,15.7664],[78.6332,15.7584],[78.636,15.7546],[78.6389,15.7447],[78.641,15.7275],[78.6389,15.7134],[78.6246,15.6921],[78.6166,15.6777],[78.6137,15.6648],[78.6103,15.6556],[78.6104,15.64],[78.6143,15.6382],[78.6225,15.6244],[78.625,15.6084],[78.6214,15.5983],[78.6234,15.5935],[78.621,15.5803],[78.6232,15.5678],[78.6318,15.5635],[78.6307,15.5601],[78.6237,15.5548],[78.6216,15.5476],[78.6154,15.5357],[78.6148,15.5244],[78.6107,15.5157],[78.6127,15.5086]]],[[[78.354,15.7455],[78.3716,15.7415],[78.3738,15.7438],[78.3811,15.7417],[78.3804,15.76],[78.3667,15.7615],[78.3579,15.7551],[78.3482,15.7555],[78.3448,15.748],[78.3501,15.7487],[78.354,15.7455]]],[[[78.4076,16.1343],[78.4032,16.1408],[78.4053,16.1505],[78.4016,16.1591],[78.3969,16.1605],[78.3946,16.1482],[78.3919,16.1437],[78.3846,16.1445],[78.3781,16.1515],[78.3768,16.145],[78.3836,16.1379],[78.3795,16.1327],[78.3842,16.1321],[78.3921,16.1268],[78.4056,16.1293],[78.4076,16.1343]]],[[[79.236,16.6178],[79.224,16.6153],[79.2119,16.6147],[79.2034,16.6189],[79.2037,16.6257],[79.2161,16.6331],[79.2171,16.6392],[79.2141,16.6436],[79.2023,16.6423],[79.1989,16.6329],[79.1938,16.6272],[79.1938,16.6135],[79.1839,16.6075],[79.1705,16.6029],[79.1612,16.6017],[79.1439,16.6022],[79.1207,16.6066],[79.1062,16.6115],[79.0924,16.6173],[79.0896,16.6114],[79.0958,16.6051],[79.0946,16.5986],[79.105,16.5938],[79.108,16.5906],[79.107,16.5864],[79.1018,16.5843],[79.1093,16.5825],[79.1147,16.5779],[79.1311,16.5761],[79.1448,16.5796],[79.1515,16.5769],[79.1556,16.5628],[79.1616,16.5595],[79.1673,16.5606],[79.1688,16.5656],[79.1661,16.5686],[79.1684,16.5747],[79.1681,16.5821],[79.1752,16.59],[79.1805,16.5869],[79.1824,16.5737],[79.1789,16.5664],[79.1792,16.5604],[79.1848,16.5585],[79.1915,16.5457],[79.195,16.5499],[79.2071,16.5509],[79.208,16.5551],[79.1987,16.558],[79.2054,16.5641],[79.2107,16.5625],[79.2023,16.5748],[79.2171,16.5766],[79.2211,16.581],[79.2124,16.5826],[79.2084,16.5877],[79.2212,16.5929],[79.2263,16.5921],[79.2362,16.595],[79.2383,16.5907],[79.2394,16.5773],[79.2478,16.5795],[79.2448,16.5839],[79.2537,16.5874],[79.2613,16.5866],[79.2635,16.5894],[79.2582,16.5922],[79.2713,16.5955],[79.2734,16.6017],[79.2769,16.6024],[79.2732,16.6077],[79.278,16.6116],[79.2775,16.615],[79.2632,16.6215],[79.2529,16.6185],[79.2419,16.6204],[79.236,16.6178]]],[[[79.4238,16.6664],[79.4217,16.6713],[79.4122,16.6748],[79.4109,16.6841],[79.4042,16.6848],[79.3957,16.6891],[79.3952,16.692],[79.4032,16.6957],[79.4016,16.7004],[79.3966,16.7031],[79.3799,16.7038],[79.3751,16.7015],[79.3649,16.6881],[79.3633,16.6807],[79.359,16.677],[79.3447,16.6763],[79.3246,16.6655],[79.3128,16.6682],[79.3111,16.674],[79.3157,16.6774],[79.3162,16.6822],[79.3093,16.6836],[79.304,16.6806],[79.3031,16.6742],[79.3048,16.6663],[79.3008,16.6645],[79.2859,16.6689],[79.2559,16.6607],[79.2534,16.6527],[79.2477,16.6532],[79.2464,16.6478],[79.2535,16.6399],[79.2652,16.6369],[79.2674,16.634],[79.2744,16.6398],[79.2685,16.6483],[79.2652,16.648],[79.265,16.6543],[79.2693,16.6516],[79.275,16.6536],[79.2739,16.6483],[79.277,16.6461],[79.28,16.6339],[79.2764,16.6355],[79.2764,16.6304],[79.2722,16.6303],[79.2844,16.6166],[79.2978,16.6213],[79.3064,16.6205],[79.3172,16.5949],[79.3214,16.5885],[79.3324,16.5828],[79.3416,16.5862],[79.3557,16.5873],[79.3595,16.5892],[79.3612,16.5954],[79.3757,16.601],[79.376,16.6108],[79.3724,16.6183],[79.3641,16.6258],[79.3536,16.6302],[79.3471,16.6305],[79.3414,16.6274],[79.3306,16.6178],[79.3228,16.6214],[79.3051,16.6517],[79.3047,16.6566],[79.3106,16.6591],[79.319,16.6509],[79.3228,16.6497],[79.3327,16.6615],[79.3405,16.6622],[79.3494,16.6551],[79.3511,16.6487],[79.3624,16.6456],[79.3734,16.6475],[79.3829,16.6402],[79.3966,16.6436],[79.408,16.642],[79.4171,16.6427],[79.4335,16.6493],[79.4331,16.6533],[79.4264,16.6569],[79.4232,16.662],[79.4238,16.6664]]]]},"properties":{"id":"seshachalam-hills-br","name":"Seshachalam Hills Biosphere Reserve","category":"br","area_km2":4756}}]}