{"type":"FeatureCollection","features":[{"type":"Feature","geometry":{"type":"Polygon","coordinates":[[[92.4349,27.116],[92.435,27.1048],[92.4637,27.0689],[92.4987,27.0753],[92.5207,27.0863],[92.5272,27.0946],[92.5193,27.1028],[92.5207,27.1082],[92.527,27.1149],[92.5372,27.1182],[92.55,27.1184],[92.5509,27.1274],[92.5494,27.1329],[92.5592,27.1562],[92.5565,27.1591],[92.5485,27.1596],[92.5159,27.15],[92.5119,27.1472],[92.4998,27.1514],[92.4827,27.1537],[92.4712,27.1496],[92.462,27.1416],[92.4591,27.1345],[92.4445,27.1313],[92.4386,27.1282],[92.4387,27.1239],[92.4349,27.116]]]},"properties":{"id":"sessa-orchid-wls","name":"Sessa Orchid Wildlife Sanctuary","category":"wls","area_km2":100}}]}