{"type":"FeatureCollection","features":[{"type":"Feature","geometry":{"type":"Polygon","coordinates":[[[74.6972,34.1743],[74.703,34.1751],[74.7044,34.1676],[74.7132,34.1603],[74.7131,34.1565],[74.7208,34.154],[74.7266,34.1451],[74.7327,34.1407],[74.7479,34.1374],[74.7482,34.1398],[74.7591,34.1379],[74.7641,34.135],[74.7702,34.1405],[74.7628,34.1501],[74.7531,34.1582],[74.7436,34.1615],[74.7329,34.1683],[74.7225,34.1706],[74.7211,34.1781],[74.7066,34.1911],[74.7013,34.1925],[74.6905,34.1877],[74.6893,34.1767],[74.6972,34.1743]]]},"properties":{"id":"shallbugh-wetland-conservation-reserve-ramsar","name":"Shallbugh Wetland Conservation Reserve","category":"ramsar","area_km2":16.8}}]}