{"type":"FeatureCollection","features":[{"type":"Feature","geometry":{"type":"Polygon","coordinates":[[[74.8995,14.1904],[74.8964,14.1953],[74.8965,14.1871],[74.8913,14.1861],[74.8836,14.1791],[74.8841,14.1747],[74.8783,14.1732],[74.8684,14.1757],[74.8685,14.1798],[74.8639,14.1799],[74.8685,14.1841],[74.8591,14.184],[74.8503,14.1768],[74.8431,14.174],[74.8328,14.1629],[74.8278,14.1615],[74.8101,14.1603],[74.7829,14.16],[74.7773,14.1611],[74.7692,14.168],[74.7648,14.1748],[74.7558,14.1846],[74.7491,14.1837],[74.7442,14.1761],[74.7401,14.1599],[74.7341,14.1566],[74.7273,14.1581],[74.6922,14.1755],[74.6759,14.1799],[74.6651,14.1801],[74.6521,14.1756],[74.6479,14.171],[74.6388,14.1649],[74.6246,14.1594],[74.6208,14.1556],[74.622,14.1447],[74.6335,14.1398],[74.6379,14.1221],[74.6415,14.1136],[74.6353,14.1053],[74.6341,14.0991],[74.6374,14.0928],[74.6456,14.0861],[74.6568,14.0685],[74.6585,14.0609],[74.6565,14.039],[74.6592,14.0359],[74.6781,14.0329],[74.6692,14.0039],[74.6636,13.9943],[74.6645,13.9831],[74.6687,13.9725],[74.6958,13.9499],[74.696,13.9454],[74.6902,13.9402],[74.6901,13.9338],[74.6972,13.9273],[74.7084,13.9228],[74.7126,13.9128],[74.7119,13.9006],[74.7151,13.9006],[74.7248,13.9083],[74.7365,13.9128],[74.7519,13.9156],[74.7679,13.9142],[74.7784,13.9117],[74.7825,13.9175],[74.7793,13.9268],[74.7708,13.9356],[74.7671,13.9354],[74.7552,13.9248],[74.736,13.9298],[74.7282,13.9328],[74.7293,13.9396],[74.7369,13.9454],[74.7371,13.9485],[74.7276,13.9612],[74.7128,13.9768],[74.7059,13.9824],[74.6867,13.9918],[74.6841,13.9987],[74.6846,14.0112],[74.6879,14.0197],[74.6925,14.023],[74.707,14.0295],[74.7263,14.0457],[74.7408,14.0596],[74.7643,14.0719],[74.7759,14.0792],[74.7724,14.0818],[74.7846,14.0869],[74.7964,14.0891],[74.8109,14.0814],[74.8246,14.0711],[74.8369,14.0654],[74.8485,14.0532],[74.8528,14.0502],[74.8606,14.0504],[74.8702,14.0454],[74.8755,14.0396],[74.8782,14.0246],[74.8849,14.0191],[74.8926,14.0184],[74.9038,14.0203],[74.9547,14.0577],[74.9609,14.0665],[74.9559,14.0812],[74.9606,14.088],[74.9686,14.0924],[74.9646,14.0998],[74.9728,14.1018],[74.9659,14.1021],[74.9648,14.1051],[74.9762,14.1112],[74.9612,14.108],[74.9668,14.1172],[74.9634,14.1192],[74.9587,14.1107],[74.9553,14.1153],[74.9577,14.1183],[74.9509,14.1219],[74.9549,14.1249],[74.9467,14.125],[74.9453,14.1304],[74.9413,14.1224],[74.9322,14.1257],[74.936,14.1271],[74.9375,14.1338],[74.9321,14.1325],[74.9278,14.1248],[74.9265,14.1276],[74.9176,14.1291],[74.9139,14.1356],[74.9248,14.1377],[74.9216,14.1438],[74.9152,14.1388],[74.9125,14.1404],[74.9162,14.1466],[74.9096,14.1448],[74.9125,14.1507],[74.9086,14.1508],[74.9093,14.1552],[74.9009,14.1507],[74.9047,14.1562],[74.8993,14.1558],[74.8951,14.151],[74.8926,14.1535],[74.8952,14.1591],[74.8862,14.1557],[74.8834,14.1618],[74.8871,14.1604],[74.8858,14.1689],[74.887,14.1788],[74.8951,14.1851],[74.9026,14.1865],[74.8995,14.1904]]]},"properties":{"id":"sharavathi-valley-ltm-wls","name":"Sharavathi Valley LTM Wildlife Sanctuary","category":"wls","area_km2":930.2}}]}