{"type":"FeatureCollection","features":[{"type":"Feature","geometry":{"type":"Polygon","coordinates":[[[77.0966,8.9668],[77.0911,8.9673],[77.0865,8.9582],[77.0787,8.9625],[77.0785,8.955],[77.0912,8.9448],[77.096,8.9445],[77.1001,8.9396],[77.093,8.9403],[77.1046,8.9351],[77.1084,8.9377],[77.1152,8.9329],[77.1307,8.925],[77.1306,8.9207],[77.1493,8.9127],[77.1572,8.9134],[77.1557,8.9166],[77.1664,8.9101],[77.1642,8.906],[77.1703,8.9006],[77.1812,8.8984],[77.1934,8.8783],[77.1894,8.8772],[77.1742,8.8875],[77.1715,8.8909],[77.1557,8.8981],[77.1512,8.9028],[77.1392,8.907],[77.129,8.9142],[77.1233,8.9142],[77.1208,8.9183],[77.1135,8.9176],[77.1013,8.9253],[77.0915,8.9299],[77.0904,8.9242],[77.0823,8.9298],[77.0887,8.9303],[77.0867,8.9345],[77.0791,8.9382],[77.071,8.9372],[77.0688,8.9326],[77.1014,8.9174],[77.1168,8.9115],[77.1352,8.9025],[77.1468,8.8946],[77.1495,8.8841],[77.1459,8.8653],[77.1623,8.8609],[77.1682,8.8533],[77.1696,8.848],[77.1791,8.8357],[77.1882,8.8298],[77.1974,8.8321],[77.2076,8.8318],[77.2133,8.829],[77.215,8.8225],[77.2204,8.8148],[77.2312,8.8072],[77.2422,8.8093],[77.2466,8.8142],[77.247,8.8236],[77.253,8.8277],[77.2639,8.842],[77.2597,8.8513],[77.2624,8.8552],[77.2572,8.8616],[77.26,8.8652],[77.2566,8.8781],[77.2448,8.8801],[77.2375,8.8857],[77.2401,8.8945],[77.2384,8.8978],[77.2278,8.9036],[77.2211,8.904],[77.2188,8.9141],[77.2135,8.919],[77.1977,8.9235],[77.192,8.9231],[77.184,8.9301],[77.1743,8.9312],[77.1626,8.935],[77.1343,8.9467],[77.1117,8.9539],[77.0966,8.9668]]]},"properties":{"id":"shendurney-wls","name":"Shendurney Wildlife Sanctuary","category":"wls","area_km2":100.3}}]}