{"type":"FeatureCollection","features":[{"type":"Feature","geometry":{"type":"Polygon","coordinates":[[[76.4596,24.7087],[76.4686,24.6924],[76.4672,24.6874],[76.4714,24.682],[76.4841,24.6734],[76.4867,24.6668],[76.4983,24.6625],[76.5003,24.6469],[76.5094,24.6335],[76.5175,24.6336],[76.5226,24.6315],[76.5212,24.6211],[76.5225,24.6155],[76.5303,24.6151],[76.5614,24.6232],[76.5639,24.6286],[76.5595,24.6457],[76.5681,24.6581],[76.5602,24.6641],[76.5622,24.6678],[76.5595,24.674],[76.5563,24.6929],[76.5504,24.703],[76.536,24.7011],[76.531,24.7036],[76.5043,24.6962],[76.5183,24.7026],[76.5377,24.7079],[76.5436,24.7113],[76.5413,24.7176],[76.5232,24.7283],[76.5191,24.7339],[76.5004,24.7472],[76.4941,24.7484],[76.4888,24.7438],[76.4912,24.7522],[76.4829,24.7616],[76.4736,24.7578],[76.4556,24.7474],[76.4592,24.7428],[76.4556,24.7403],[76.4536,24.7286],[76.4543,24.7207],[76.4596,24.7087]]]},"properties":{"id":"shergarh-wls","name":"Shergarh Wildlife Sanctuary","category":"wls","area_km2":98.7}}]}