{"type":"FeatureCollection","features":[{"type":"Feature","geometry":{"type":"Polygon","coordinates":[[[75.4734,13.9915],[75.4645,13.996],[75.4594,13.9911],[75.4558,13.9814],[75.4474,13.9692],[75.4477,13.964],[75.4424,13.9656],[75.4388,13.9595],[75.4327,13.9542],[75.4317,13.9498],[75.4381,13.9421],[75.45,13.9359],[75.4502,13.9342],[75.4401,13.9263],[75.4298,13.9241],[75.4298,13.9335],[75.4267,13.9362],[75.4202,13.9367],[75.4176,13.9413],[75.4118,13.9437],[75.4055,13.9368],[75.3983,13.924],[75.3955,13.9165],[75.402,13.9091],[75.4007,13.8992],[75.3893,13.8979],[75.3845,13.9035],[75.3833,13.9087],[75.3872,13.9156],[75.3894,13.925],[75.387,13.9328],[75.3815,13.9334],[75.3717,13.9286],[75.3683,13.922],[75.3689,13.9081],[75.3726,13.8709],[75.3719,13.8357],[75.3827,13.7707],[75.4002,13.7362],[75.4198,13.7261],[75.446,13.735],[75.4513,13.7381],[75.4574,13.7509],[75.4555,13.7536],[75.4607,13.7585],[75.4653,13.7582],[75.4626,13.7689],[75.4665,13.7733],[75.4703,13.7732],[75.4678,13.7658],[75.4724,13.7595],[75.4853,13.7577],[75.4905,13.7533],[75.5028,13.7494],[75.5053,13.7578],[75.5138,13.7615],[75.5181,13.7599],[75.5192,13.7543],[75.5454,13.7537],[75.5593,13.7576],[75.5651,13.7682],[75.5611,13.783],[75.5636,13.7879],[75.5707,13.7874],[75.5798,13.7739],[75.5841,13.7699],[75.5924,13.7668],[75.6146,13.7703],[75.6157,13.7735],[75.6121,13.7871],[75.6177,13.796],[75.6249,13.7912],[75.6342,13.7929],[75.6412,13.7813],[75.6409,13.7769],[75.6516,13.7794],[75.6544,13.7856],[75.6602,13.7823],[75.664,13.7855],[75.6633,13.7967],[75.6575,13.8075],[75.6629,13.8081],[75.6655,13.8164],[75.664,13.8188],[75.6576,13.8179],[75.6578,13.8138],[75.6483,13.8158],[75.6418,13.8281],[75.6307,13.8399],[75.6417,13.8601],[75.6509,13.8658],[75.6501,13.868],[75.6416,13.8673],[75.6381,13.8632],[75.6369,13.8568],[75.6305,13.8506],[75.6189,13.8443],[75.6248,13.8331],[75.6178,13.8305],[75.6136,13.8327],[75.6087,13.8428],[75.6061,13.8396],[75.596,13.8361],[75.5995,13.8289],[75.6048,13.8287],[75.6065,13.8246],[75.602,13.8226],[75.5952,13.8155],[75.5942,13.8089],[75.59,13.8044],[75.5836,13.8073],[75.5875,13.8142],[75.5886,13.8209],[75.5945,13.823],[75.5962,13.8283],[75.5847,13.8425],[75.581,13.8424],[75.5768,13.8379],[75.5765,13.8337],[75.5707,13.8333],[75.5663,13.8301],[75.5519,13.8295],[75.5463,13.8313],[75.5327,13.8314],[75.5256,13.8432],[75.5212,13.8478],[75.521,13.8581],[75.5191,13.8663],[75.5251,13.8724],[75.5237,13.8782],[75.5186,13.8787],[75.5221,13.885],[75.5158,13.8894],[75.5076,13.8853],[75.4877,13.8901],[75.4798,13.8857],[75.4793,13.8898],[75.474,13.8913],[75.4736,13.8959],[75.4868,13.9064],[75.4957,13.9105],[75.5099,13.9094],[75.5132,13.9114],[75.516,13.9179],[75.5105,13.921],[75.4986,13.9219],[75.4923,13.9199],[75.4834,13.9198],[75.4873,13.9275],[75.4826,13.9315],[75.4788,13.9391],[75.4736,13.9417],[75.4786,13.9443],[75.4866,13.9372],[75.4959,13.937],[75.5018,13.9325],[75.5035,13.9277],[75.5077,13.9383],[75.5128,13.9364],[75.513,13.9399],[75.5065,13.9441],[75.4908,13.947],[75.4854,13.9498],[75.4835,13.9572],[75.4884,13.9556],[75.4935,13.959],[75.493,13.9634],[75.4985,13.9709],[75.4871,13.9799],[75.4879,13.9839],[75.4813,13.9906],[75.4734,13.9915]],[[75.5719,13.8016],[75.5755,13.8012],[75.5772,13.7953],[75.569,13.7914],[75.5611,13.7908],[75.5566,13.7929],[75.5569,13.7967],[75.5653,13.7937],[75.5719,13.8016]],[[75.533,13.7843],[75.5354,13.7852],[75.5354,13.776],[75.5288,13.7723],[75.5268,13.7795],[75.533,13.7843]],[[75.549,13.7765],[75.5489,13.7814],[75.5556,13.7836],[75.5593,13.7764],[75.5547,13.7716],[75.5546,13.7754],[75.549,13.7765]],[[75.6357,13.8121],[75.6274,13.8125],[75.6201,13.824],[75.6353,13.8213],[75.6357,13.8121]]]},"properties":{"id":"shettihalli-wls","name":"Shettihalli Wildlife Sanctuary","category":"wls","area_km2":395.6}}]}