{"type":"FeatureCollection","features":[{"type":"Feature","geometry":{"type":"Polygon","coordinates":[[[77.1855,31.4225],[77.1977,31.4239],[77.1976,31.4322],[77.1891,31.4416],[77.1966,31.4535],[77.2014,31.4636],[77.2257,31.4545],[77.2263,31.465],[77.214,31.4766],[77.2119,31.489],[77.201,31.4749],[77.1933,31.4736],[77.1849,31.4758],[77.1846,31.4797],[77.1895,31.4816],[77.1941,31.49],[77.2022,31.4938],[77.2031,31.5002],[77.1887,31.5007],[77.1884,31.5045],[77.2029,31.508],[77.2017,31.5104],[77.1895,31.5077],[77.1929,31.5136],[77.2047,31.5192],[77.1984,31.5257],[77.1899,31.5173],[77.1726,31.5162],[77.1749,31.5193],[77.1672,31.5244],[77.1591,31.5353],[77.1525,31.5364],[77.1535,31.5331],[77.1487,31.5297],[77.1359,31.5252],[77.1231,31.5148],[77.1103,31.5118],[77.0996,31.5134],[77.0858,31.5062],[77.0907,31.5034],[77.0873,31.5016],[77.0993,31.4909],[77.0979,31.4853],[77.1044,31.4844],[77.1073,31.4812],[77.1163,31.4818],[77.1213,31.4772],[77.1477,31.4832],[77.1654,31.4776],[77.1655,31.4739],[77.156,31.471],[77.1509,31.4637],[77.1415,31.4589],[77.1366,31.4526],[77.1426,31.4508],[77.1552,31.4542],[77.1562,31.4486],[77.1447,31.438],[77.1544,31.4372],[77.1581,31.432],[77.1489,31.4316],[77.1432,31.429],[77.1414,31.42],[77.1543,31.4177],[77.1719,31.4239],[77.1855,31.4225]]]},"properties":{"id":"shikari-devi-wls","name":"Shikari Devi Wildlife Sanctuary","category":"wls","area_km2":29.9}}]}