{"type":"FeatureCollection","features":[{"type":"Feature","geometry":{"type":"Polygon","coordinates":[[[77.229,31.0916],[77.2339,31.0897],[77.2359,31.0929],[77.2442,31.0963],[77.2481,31.0917],[77.2579,31.0867],[77.2662,31.0896],[77.2624,31.0952],[77.2611,31.1033],[77.2514,31.1082],[77.2489,31.1143],[77.2343,31.1214],[77.2292,31.1203],[77.2164,31.1086],[77.2233,31.0974],[77.229,31.0916]]]},"properties":{"id":"shimla-water-catchment-wls","name":"Shimla Water Catchment Wildlife Sanctuary","category":"wls","area_km2":10}}]}