{"type":"FeatureCollection","features":[{"type":"Feature","geometry":{"type":"Polygon","coordinates":[[[88.6918,27.7628],[88.691,27.7592],[88.6979,27.7418],[88.7084,27.723],[88.7175,27.7181],[88.7432,27.7249],[88.7496,27.7244],[88.7545,27.7312],[88.7608,27.745],[88.7604,27.7496],[88.7547,27.7607],[88.7584,27.7733],[88.7539,27.7856],[88.7477,27.7928],[88.7361,27.7965],[88.7272,27.7945],[88.7,27.7794],[88.6937,27.7725],[88.6918,27.7628]]]},"properties":{"id":"shingba-rhododendron-wls","name":"Shingba (Rhododendron) Wildlife Sanctuary","category":"wls","area_km2":43}}]}