{"type":"FeatureCollection","features":[{"type":"Feature","geometry":{"type":"Polygon","coordinates":[[[94.4294,25.1238],[94.4223,25.1228],[94.4179,25.1132],[94.4152,25.1115],[94.413,25.0994],[94.4099,25.0922],[94.4096,25.0858],[94.4166,25.0814],[94.4189,25.0775],[94.4263,25.0755],[94.4301,25.0712],[94.4477,25.0647],[94.4628,25.0697],[94.4683,25.0749],[94.481,25.084],[94.4798,25.0954],[94.4836,25.1003],[94.4877,25.1008],[94.5006,25.1077],[94.5092,25.1207],[94.4956,25.1302],[94.487,25.1344],[94.4832,25.1288],[94.4681,25.1283],[94.4572,25.123],[94.4398,25.1242],[94.4294,25.1238]]]},"properties":{"id":"shirui-np-sirohi-np","name":"Shirui National Park (Sirohi National Park)","category":"np","area_km2":100}}]}