{"type":"FeatureCollection","features":[{"type":"Feature","geometry":{"type":"Polygon","coordinates":[[[73.8174,21.8095],[73.8121,21.8053],[73.8146,21.7981],[73.8097,21.8021],[73.8103,21.8068],[73.8034,21.8141],[73.7951,21.8078],[73.7888,21.8134],[73.7938,21.8169],[73.7807,21.8177],[73.7774,21.8148],[73.7758,21.8202],[73.7693,21.815],[73.7717,21.8105],[73.7646,21.8165],[73.7655,21.8207],[73.7615,21.8255],[73.7527,21.8137],[73.7546,21.807],[73.7502,21.8091],[73.7513,21.8148],[73.742,21.815],[73.7438,21.8179],[73.7517,21.8209],[73.7477,21.8247],[73.7277,21.8297],[73.709,21.8411],[73.698,21.842],[73.7033,21.846],[73.6956,21.8542],[73.6892,21.8498],[73.6653,21.8432],[73.658,21.8439],[73.643,21.8416],[73.636,21.8385],[73.5907,21.8377],[73.5793,21.8348],[73.574,21.8353],[73.5606,21.831],[73.5526,21.8298],[73.5484,21.8245],[73.5421,21.8219],[73.5395,21.8168],[73.5515,21.8177],[73.5536,21.8209],[73.5611,21.8193],[73.5536,21.8136],[73.5525,21.8079],[73.5599,21.8067],[73.5374,21.7957],[73.5321,21.7883],[73.5453,21.7878],[73.5618,21.7989],[73.5705,21.8008],[73.5773,21.805],[73.5769,21.8018],[73.587,21.7976],[73.5894,21.7917],[73.5817,21.7887],[73.5654,21.7847],[73.562,21.7809],[73.5659,21.7734],[73.558,21.7725],[73.551,21.7691],[73.5417,21.7618],[73.5436,21.7584],[73.5573,21.761],[73.5572,21.7519],[73.5609,21.7481],[73.562,21.7407],[73.5532,21.7377],[73.5484,21.7317],[73.546,21.7326],[73.5518,21.7387],[73.559,21.7409],[73.5602,21.7449],[73.5561,21.7497],[73.5529,21.7575],[73.5463,21.7559],[73.5393,21.7586],[73.5393,21.7621],[73.5539,21.776],[73.5463,21.7728],[73.5357,21.7712],[73.5285,21.7655],[73.5242,21.7643],[73.5271,21.7565],[73.5273,21.7468],[73.5185,21.7479],[73.5151,21.7521],[73.5096,21.7514],[73.5057,21.7465],[73.5107,21.7447],[73.5109,21.7389],[73.5164,21.739],[73.5218,21.7286],[73.5194,21.7179],[73.5207,21.7108],[73.5166,21.7068],[73.5184,21.7015],[73.5251,21.6961],[73.5267,21.7015],[73.5342,21.7051],[73.531,21.7128],[73.5261,21.7143],[73.5308,21.7174],[73.5434,21.7162],[73.5464,21.7094],[73.5587,21.7099],[73.5621,21.7073],[73.5562,21.6969],[73.5493,21.6902],[73.5582,21.6747],[73.567,21.6774],[73.5718,21.6819],[73.5787,21.6831],[73.5849,21.6884],[73.5954,21.6827],[73.6034,21.6853],[73.6151,21.6819],[73.626,21.6822],[73.6335,21.6863],[73.6449,21.6791],[73.6451,21.6846],[73.6482,21.6872],[73.6566,21.6841],[73.663,21.6865],[73.6707,21.6852],[73.6705,21.6823],[73.6555,21.6807],[73.6596,21.6706],[73.6652,21.6613],[73.6722,21.654],[73.6841,21.6186],[73.6841,21.6149],[73.6773,21.607],[73.6653,21.6022],[73.6665,21.5944],[73.6645,21.5862],[73.6685,21.5842],[73.6802,21.5888],[73.6845,21.5886],[73.7104,21.5789],[73.7207,21.588],[73.7171,21.5914],[73.7172,21.5966],[73.7115,21.5995],[73.7142,21.6078],[73.7048,21.6137],[73.7035,21.6214],[73.7067,21.6303],[73.7026,21.6312],[73.7032,21.6373],[73.7007,21.6399],[73.7084,21.6433],[73.7098,21.6532],[73.7167,21.6541],[73.717,21.6486],[73.7207,21.6483],[73.7253,21.6435],[73.7303,21.6442],[73.7324,21.6514],[73.7363,21.6518],[73.7388,21.6415],[73.7417,21.6365],[73.7386,21.6303],[73.7303,21.6279],[73.7389,21.6213],[73.7414,21.6232],[73.7497,21.622],[73.7454,21.619],[73.7463,21.6153],[73.7541,21.6181],[73.7604,21.6251],[73.7548,21.627],[73.7596,21.6346],[73.7635,21.6294],[73.7651,21.622],[73.786,21.6307],[73.7856,21.6407],[73.7812,21.6437],[73.7882,21.6472],[73.7948,21.6441],[73.8019,21.6499],[73.8074,21.6439],[73.8052,21.6396],[73.8474,21.6618],[73.8536,21.6662],[73.8668,21.6706],[73.8671,21.675],[73.89,21.6752],[73.8918,21.6798],[73.8916,21.6919],[73.89,21.698],[73.8839,21.7054],[73.8862,21.7066],[73.881,21.7147],[73.868,21.7181],[73.8584,21.7265],[73.8516,21.7364],[73.8462,21.7373],[73.8362,21.7468],[73.8328,21.7555],[73.8263,21.7579],[73.8236,21.7646],[73.8317,21.7711],[73.8343,21.7755],[73.8293,21.7784],[73.8288,21.7861],[73.8363,21.7878],[73.8339,21.7928],[73.8278,21.7923],[73.8273,21.7989],[73.8315,21.7999],[73.8256,21.8113],[73.8174,21.8095]]]},"properties":{"id":"shoolpaneswar-dhumkhal-wls","name":"Shoolpaneswar (Dhumkhal) Wildlife Sanctuary","category":"wls","area_km2":607.7}}]}