{"type":"FeatureCollection","features":[{"type":"Feature","geometry":{"type":"Polygon","coordinates":[[[76.435,31.4094],[76.4235,31.4063],[76.4122,31.4141],[76.413,31.4088],[76.4275,31.396],[76.4346,31.3917],[76.4462,31.3884],[76.4568,31.3779],[76.4612,31.3753],[76.4827,31.3552],[76.4963,31.3334],[76.5035,31.3253],[76.5103,31.3128],[76.5143,31.2944],[76.5215,31.2881],[76.5419,31.2788],[76.5434,31.2825],[76.5511,31.2791],[76.5498,31.276],[76.5625,31.2721],[76.5724,31.2674],[76.5834,31.2761],[76.5877,31.2743],[76.5962,31.2612],[76.6011,31.2592],[76.6117,31.2498],[76.6105,31.2441],[76.6022,31.2412],[76.5975,31.2368],[76.6019,31.2333],[76.6077,31.2337],[76.6193,31.2296],[76.624,31.2307],[76.6201,31.2388],[76.6214,31.2442],[76.6146,31.2482],[76.6155,31.2643],[76.6097,31.2741],[76.61,31.2805],[76.6036,31.2764],[76.5975,31.283],[76.5918,31.2837],[76.5878,31.2895],[76.5916,31.291],[76.5899,31.2987],[76.5861,31.2954],[76.5788,31.295],[76.5819,31.298],[76.5818,31.3047],[76.576,31.3046],[76.571,31.3102],[76.5619,31.324],[76.5568,31.3228],[76.559,31.3325],[76.5498,31.3374],[76.5391,31.3369],[76.5461,31.3392],[76.5417,31.3441],[76.5344,31.34],[76.5396,31.3469],[76.5347,31.3537],[76.5254,31.3608],[76.5224,31.3566],[76.5263,31.3496],[76.5236,31.349],[76.519,31.3557],[76.5126,31.3562],[76.522,31.3635],[76.515,31.3662],[76.5165,31.3607],[76.5117,31.3596],[76.5017,31.3639],[76.5038,31.3668],[76.5091,31.3644],[76.514,31.3673],[76.507,31.3703],[76.502,31.3773],[76.4926,31.3852],[76.4908,31.3887],[76.4869,31.3847],[76.4812,31.3878],[76.4878,31.3941],[76.479,31.3902],[76.4805,31.3952],[76.4746,31.3941],[76.4691,31.397],[76.4693,31.4002],[76.4619,31.4038],[76.4632,31.4069],[76.448,31.4091],[76.4432,31.4111],[76.435,31.4094]]]},"properties":{"id":"shri-naina-devi-wls","name":"Shri Naina Devi Wildlife Sanctuary","category":"wls","area_km2":123}}]}