{"type":"FeatureCollection","features":[{"type":"Feature","geometry":{"type":"Polygon","coordinates":[[[76.4392,11.203],[76.433,11.2041],[76.4306,11.2073],[76.4204,11.2092],[76.4135,11.2073],[76.4081,11.2024],[76.4058,11.1868],[76.4091,11.1775],[76.4142,11.1719],[76.4122,11.1633],[76.4069,11.1537],[76.412,11.1475],[76.4148,11.1406],[76.4115,11.133],[76.4156,11.121],[76.4078,11.1141],[76.3914,11.1131],[76.3875,11.1097],[76.3913,11.0984],[76.3999,11.0954],[76.4077,11.0881],[76.4124,11.0876],[76.4259,11.0786],[76.4386,11.082],[76.4435,11.0873],[76.4436,11.0927],[76.4514,11.0999],[76.4631,11.1046],[76.4697,11.1122],[76.4796,11.1172],[76.4812,11.1305],[76.4875,11.1372],[76.4847,11.1417],[76.4759,11.1387],[76.4707,11.1408],[76.4715,11.154],[76.4739,11.1623],[76.4641,11.1695],[76.4618,11.1733],[76.4619,11.1843],[76.4585,11.1874],[76.4522,11.1987],[76.4385,11.199],[76.4392,11.203]]]},"properties":{"id":"silent-valley-np","name":"Silent Valley National Park","category":"np","area_km2":89.5}}]}