{"type":"FeatureCollection","features":[{"type":"Feature","geometry":{"type":"Polygon","coordinates":[[[77.4878,30.475],[77.4685,30.4673],[77.4605,30.4574],[77.4723,30.444],[77.4791,30.4293],[77.4842,30.4252],[77.4911,30.4305],[77.4962,30.4376],[77.514,30.4485],[77.5181,30.4491],[77.5293,30.4366],[77.5287,30.4312],[77.5323,30.4205],[77.5436,30.4062],[77.5517,30.399],[77.5498,30.3959],[77.5538,30.3923],[77.5606,30.3926],[77.5626,30.3977],[77.559,30.3992],[77.5633,30.4043],[77.5572,30.4096],[77.5498,30.4129],[77.5538,30.4215],[77.5481,30.4297],[77.5483,30.4424],[77.5408,30.4512],[77.5281,30.4578],[77.5098,30.4571],[77.5022,30.4596],[77.501,30.464],[77.4919,30.4659],[77.4878,30.475]]]},"properties":{"id":"sim-balbara-national-park-np","name":"Sim Balbara National Park","category":"np","area_km2":27.9}}]}