{"type":"FeatureCollection","features":[{"type":"Feature","geometry":{"type":"Polygon","coordinates":[[[86.2883,21.8047],[86.2808,21.806],[86.2684,21.8123],[86.2605,21.8123],[86.2537,21.8086],[86.2334,21.7951],[86.2138,21.7894],[86.1999,21.7876],[86.1968,21.7841],[86.1928,21.7866],[86.1853,21.7792],[86.1819,21.7801],[86.1759,21.7866],[86.1809,21.7859],[86.1912,21.7886],[86.1922,21.7907],[86.1863,21.7966],[86.1791,21.7961],[86.174,21.8],[86.1605,21.7991],[86.16,21.7921],[86.1664,21.7857],[86.167,21.7775],[86.1608,21.776],[86.1621,21.772],[86.1675,21.7698],[86.1796,21.7588],[86.1792,21.756],[86.1725,21.7548],[86.1676,21.7626],[86.1568,21.7671],[86.1472,21.7797],[86.1404,21.7804],[86.1371,21.7859],[86.1326,21.7854],[86.1301,21.7812],[86.1325,21.7653],[86.1308,21.7622],[86.1249,21.7655],[86.1233,21.7724],[86.1121,21.7815],[86.1081,21.7798],[86.1037,21.7867],[86.1037,21.7924],[86.1004,21.7958],[86.1006,21.8011],[86.0961,21.8028],[86.0895,21.7987],[86.0914,21.7945],[86.0885,21.7828],[86.1012,21.774],[86.1033,21.7712],[86.1062,21.7589],[86.1005,21.7545],[86.098,21.7481],[86.1015,21.7417],[86.0955,21.7396],[86.0969,21.733],[86.1108,21.7226],[86.1202,21.7208],[86.1242,21.7182],[86.1252,21.7095],[86.1387,21.6992],[86.1348,21.6944],[86.1204,21.6945],[86.1187,21.691],[86.1207,21.6828],[86.1308,21.6781],[86.1398,21.6849],[86.1497,21.6818],[86.1537,21.6781],[86.1577,21.6675],[86.162,21.6618],[86.1669,21.6611],[86.1629,21.6546],[86.165,21.6465],[86.1701,21.6413],[86.171,21.6342],[86.1744,21.6263],[86.1836,21.628],[86.1883,21.6253],[86.1907,21.6169],[86.1981,21.6178],[86.2077,21.6079],[86.2154,21.6077],[86.2144,21.6036],[86.217,21.5973],[86.208,21.5915],[86.2011,21.5892],[86.1949,21.5967],[86.1873,21.5956],[86.1826,21.5888],[86.1824,21.5847],[86.1921,21.589],[86.1982,21.5829],[86.1958,21.5771],[86.2017,21.5723],[86.2133,21.5746],[86.2266,21.5837],[86.2305,21.5846],[86.2402,21.5805],[86.2441,21.5836],[86.2589,21.5837],[86.263,21.5727],[86.2567,21.563],[86.2506,21.5599],[86.2383,21.5586],[86.2456,21.5529],[86.2438,21.5429],[86.2468,21.5344],[86.2415,21.5295],[86.2258,21.5266],[86.2229,21.5278],[86.2118,21.526],[86.2022,21.5154],[86.2025,21.5112],[86.209,21.4974],[86.2162,21.4959],[86.2205,21.4983],[86.2305,21.4948],[86.2361,21.5056],[86.2433,21.5092],[86.2527,21.5205],[86.2585,21.523],[86.2612,21.5206],[86.262,21.5084],[86.2653,21.5028],[86.264,21.4959],[86.2685,21.4939],[86.2847,21.496],[86.2818,21.4871],[86.2937,21.4853],[86.3002,21.4905],[86.3059,21.5057],[86.3278,21.5164],[86.3382,21.5147],[86.3492,21.5185],[86.3539,21.5283],[86.3722,21.5386],[86.3725,21.5332],[86.3773,21.5327],[86.4029,21.5384],[86.409,21.5436],[86.4186,21.5464],[86.4134,21.5553],[86.4144,21.5636],[86.4185,21.5689],[86.4266,21.5715],[86.4352,21.5688],[86.437,21.5728],[86.4426,21.5728],[86.4513,21.5935],[86.459,21.5972],[86.4642,21.6054],[86.4655,21.6141],[86.4602,21.6246],[86.4607,21.6294],[86.4726,21.6299],[86.4805,21.6405],[86.4797,21.6532],[86.4724,21.6641],[86.4696,21.6755],[86.4805,21.6744],[86.4842,21.6762],[86.4895,21.6925],[86.4944,21.6982],[86.5071,21.6977],[86.5127,21.6991],[86.5166,21.7132],[86.5106,21.7198],[86.5084,21.731],[86.4893,21.748],[86.4879,21.7526],[86.478,21.7646],[86.4712,21.7666],[86.4598,21.7596],[86.4505,21.7477],[86.4406,21.7464],[86.4245,21.7504],[86.417,21.7573],[86.4092,21.7669],[86.3899,21.7825],[86.3732,21.7931],[86.3621,21.8013],[86.3507,21.8076],[86.3261,21.807],[86.3012,21.804],[86.2883,21.8047]]]},"properties":{"id":"simlipal-np","name":"Simlipal National Park","category":"np","area_km2":845.7}}]}