{"type":"FeatureCollection","features":[{"type":"Feature","geometry":{"type":"Polygon","coordinates":[[[86.4879,21.7526],[86.4943,21.7513],[86.501,21.7458],[86.5145,21.7408],[86.5201,21.7447],[86.5295,21.7461],[86.534,21.7592],[86.5337,21.769],[86.5305,21.7751],[86.5233,21.7744],[86.5224,21.7777],[86.5294,21.7872],[86.5402,21.784],[86.5415,21.7952],[86.5357,21.7972],[86.536,21.8006],[86.5451,21.8062],[86.5488,21.8061],[86.553,21.7985],[86.5641,21.8077],[86.5617,21.8126],[86.5693,21.8141],[86.5796,21.8138],[86.5868,21.8164],[86.5902,21.8285],[86.5847,21.8313],[86.5752,21.8302],[86.5735,21.8339],[86.5651,21.8385],[86.5592,21.8392],[86.5571,21.8488],[86.5636,21.8455],[86.5723,21.8474],[86.575,21.8525],[86.5831,21.8433],[86.587,21.8458],[86.598,21.8471],[86.6005,21.8498],[86.6009,21.8604],[86.6034,21.8662],[86.5995,21.8741],[86.5994,21.8892],[86.6036,21.8987],[86.6026,21.905],[86.607,21.9112],[86.6158,21.9157],[86.616,21.9237],[86.6127,21.9262],[86.6096,21.9374],[86.6065,21.9423],[86.5958,21.9465],[86.5925,21.9426],[86.5936,21.9311],[86.592,21.925],[86.588,21.924],[86.5784,21.9292],[86.5593,21.937],[86.5499,21.9324],[86.5497,21.939],[86.557,21.9463],[86.5728,21.9464],[86.5793,21.9508],[86.5893,21.9525],[86.6006,21.9653],[86.6148,21.9695],[86.616,21.9745],[86.609,21.9771],[86.6018,21.9823],[86.5885,21.9861],[86.5824,21.9909],[86.5821,21.9954],[86.5874,21.9972],[86.5948,22.0096],[86.5945,22.0165],[86.5913,22.0274],[86.5793,22.0285],[86.5743,22.0272],[86.5639,22.0145],[86.556,22.0121],[86.5413,21.996],[86.5344,21.9943],[86.5234,21.9963],[86.5174,21.9954],[86.5067,22.0009],[86.5024,22.0096],[86.4954,22.0163],[86.4924,22.0318],[86.4894,22.0315],[86.4835,22.021],[86.4776,22.0218],[86.4749,22.0281],[86.4694,22.032],[86.467,22.0388],[86.4749,22.0432],[86.472,22.0476],[86.4793,22.05],[86.4825,22.0469],[86.4875,22.0516],[86.4869,22.0559],[86.4807,22.0624],[86.483,22.0701],[86.48,22.0726],[86.4727,22.0728],[86.4621,22.0667],[86.4578,22.0604],[86.451,22.0658],[86.4338,22.0618],[86.42,22.0514],[86.4084,22.0467],[86.4053,22.043],[86.4004,22.043],[86.3885,22.0381],[86.3808,22.0327],[86.3728,22.0329],[86.3473,22.0229],[86.3316,22.0237],[86.33,22.0276],[86.3411,22.0343],[86.3418,22.0411],[86.3595,22.044],[86.3673,22.0411],[86.3811,22.0453],[86.3787,22.0495],[86.373,22.0489],[86.3722,22.0524],[86.378,22.0563],[86.3902,22.0566],[86.398,22.0636],[86.4096,22.0656],[86.4149,22.0729],[86.4207,22.077],[86.4295,22.0793],[86.4424,22.0903],[86.4452,22.1094],[86.4386,22.1163],[86.4224,22.108],[86.418,22.1025],[86.415,22.1025],[86.4108,22.1106],[86.4051,22.1114],[86.3973,22.1082],[86.3901,22.1032],[86.3849,22.0955],[86.3779,22.0912],[86.3787,22.0977],[86.3733,22.1017],[86.365,22.0989],[86.3614,22.1001],[86.3524,22.1105],[86.347,22.1102],[86.3398,22.1056],[86.3458,22.0888],[86.3499,22.0857],[86.3454,22.0836],[86.3421,22.0895],[86.3335,22.0942],[86.3259,22.0926],[86.3246,22.0865],[86.3165,22.0887],[86.3145,22.0814],[86.3075,22.0773],[86.3018,22.0654],[86.2976,22.071],[86.2888,22.0752],[86.2801,22.0816],[86.272,22.0802],[86.2652,22.0719],[86.2538,22.0705],[86.2517,22.0676],[86.2534,22.0523],[86.2512,22.0382],[86.2557,22.0363],[86.2603,22.0381],[86.26,22.0339],[86.2531,22.0348],[86.2483,22.0328],[86.2439,22.0359],[86.2385,22.0315],[86.2349,22.036],[86.2192,22.0303],[86.2166,22.0258],[86.2181,22.019],[86.2024,22.0158],[86.1978,22.0104],[86.1949,22.0162],[86.1911,22.017],[86.1844,22.013],[86.1818,22.0088],[86.1799,21.9976],[86.1885,21.9928],[86.19,21.9884],[86.1873,21.9839],[86.1798,21.9797],[86.1693,21.978],[86.1648,21.9805],[86.1577,21.9689],[86.1655,21.9726],[86.1739,21.9692],[86.1867,21.969],[86.1968,21.9721],[86.2085,21.9621],[86.2149,21.9594],[86.2217,21.9625],[86.2293,21.9615],[86.2251,21.9488],[86.2282,21.9393],[86.2439,21.9334],[86.2482,21.9341],[86.2525,21.9308],[86.2529,21.9248],[86.2479,21.9244],[86.2391,21.9322],[86.2251,21.9368],[86.2164,21.9359],[86.2103,21.9431],[86.2042,21.9411],[86.2019,21.9494],[86.1939,21.9518],[86.1929,21.958],[86.1878,21.9613],[86.1777,21.9593],[86.1675,21.9548],[86.1559,21.9558],[86.1536,21.9511],[86.1583,21.947],[86.1568,21.9404],[86.1585,21.9358],[86.151,21.9372],[86.1497,21.9336],[86.1531,21.9282],[86.1635,21.9196],[86.1727,21.9212],[86.18,21.9179],[86.1954,21.9215],[86.1969,21.9107],[86.193,21.9],[86.1949,21.8919],[86.189,21.891],[86.1882,21.9018],[86.1835,21.9008],[86.1803,21.905],[86.1632,21.9095],[86.1522,21.9147],[86.1365,21.9083],[86.1254,21.8997],[86.121,21.9022],[86.1233,21.8941],[86.1196,21.8905],[86.1131,21.8783],[86.1104,21.8672],[86.103,21.8588],[86.0981,21.8562],[86.1014,21.8506],[86.0995,21.8452],[86.0932,21.8428],[86.0879,21.8465],[86.0816,21.844],[86.0813,21.8368],[86.093,21.8346],[86.095,21.8311],[86.0831,21.8214],[86.0823,21.8164],[86.0915,21.8134],[86.0968,21.8211],[86.1024,21.8203],[86.1037,21.8102],[86.1105,21.8044],[86.1116,21.8102],[86.1182,21.8187],[86.1206,21.8177],[86.1188,21.8063],[86.1223,21.7998],[86.1321,21.7974],[86.1441,21.7983],[86.1507,21.8017],[86.1593,21.8015],[86.1631,21.8132],[86.1668,21.8143],[86.1699,21.8057],[86.1765,21.8073],[86.1793,21.8034],[86.1863,21.8011],[86.1998,21.7907],[86.1999,21.7876],[86.2138,21.7894],[86.2334,21.7951],[86.2537,21.8086],[86.2605,21.8123],[86.2684,21.8123],[86.2808,21.806],[86.3012,21.804],[86.3261,21.807],[86.3507,21.8076],[86.3621,21.8013],[86.3732,21.7931],[86.3899,21.7825],[86.4092,21.7669],[86.417,21.7573],[86.4245,21.7504],[86.4406,21.7464],[86.4505,21.7477],[86.4598,21.7596],[86.4712,21.7666],[86.478,21.7646],[86.4879,21.7526]]]},"properties":{"id":"simlipal-wls","name":"Simlipal Wildlife Sanctuary","category":"wls","area_km2":1354.3}}]}