{"type":"FeatureCollection","features":[{"type":"Feature","geometry":{"type":"Polygon","coordinates":[[[88.0526,27.2152],[88.0402,27.2205],[88.0288,27.2206],[88.0164,27.2142],[88.0124,27.2021],[88.0153,27.2],[88.0156,27.1926],[88.0131,27.1878],[88.0124,27.1779],[88.0192,27.1711],[88.0114,27.1662],[88.0113,27.1591],[88.0073,27.1432],[88.0007,27.1402],[87.9999,27.1347],[87.9913,27.1307],[87.9884,27.1187],[87.9916,27.1095],[87.9911,27.1052],[88.0026,27.1046],[88.0114,27.0972],[88.0133,27.0928],[88.0309,27.0968],[88.0393,27.0998],[88.0426,27.104],[88.0619,27.1217],[88.0792,27.1342],[88.0887,27.1441],[88.089,27.1559],[88.0867,27.1645],[88.0782,27.1725],[88.078,27.1806],[88.0744,27.1855],[88.0744,27.1928],[88.0798,27.1975],[88.0786,27.2013],[88.0692,27.2078],[88.065,27.2133],[88.0526,27.2152]]]},"properties":{"id":"singalila-np","name":"Singalila National Park","category":"np","area_km2":78.6}}]}