{"type":"FeatureCollection","features":[{"type":"Feature","geometry":{"type":"Polygon","coordinates":[[[78.1635,23.3124],[78.1596,23.3149],[78.1575,23.31],[78.1477,23.311],[78.1359,23.3078],[78.1247,23.3028],[78.1197,23.2926],[78.1251,23.2869],[78.1303,23.2924],[78.1381,23.2936],[78.1399,23.2867],[78.1401,23.274],[78.1294,23.2651],[78.1247,23.2574],[78.1276,23.2523],[78.1288,23.2428],[78.1313,23.2477],[78.1389,23.2561],[78.1461,23.2576],[78.1492,23.2539],[78.1554,23.2405],[78.1505,23.2304],[78.1512,23.221],[78.1477,23.2142],[78.142,23.2094],[78.1415,23.2021],[78.1488,23.1935],[78.1456,23.1894],[78.1446,23.1727],[78.1421,23.1688],[78.1459,23.1599],[78.1434,23.155],[78.1388,23.1531],[78.1288,23.1562],[78.1257,23.1537],[78.1283,23.1464],[78.1182,23.1392],[78.117,23.1314],[78.1131,23.1301],[78.1037,23.1382],[78.1028,23.1411],[78.0856,23.1415],[78.078,23.1456],[78.0731,23.1519],[78.0677,23.152],[78.0721,23.138],[78.0768,23.135],[78.0814,23.136],[78.0945,23.1331],[78.1004,23.1269],[78.0954,23.1154],[78.0891,23.1145],[78.0862,23.1075],[78.0879,23.0984],[78.083,23.0946],[78.0761,23.0964],[78.0674,23.0944],[78.0631,23.0864],[78.0706,23.0802],[78.0776,23.0707],[78.0761,23.0678],[78.0664,23.0652],[78.0625,23.0579],[78.0658,23.0534],[78.0916,23.0498],[78.1132,23.0573],[78.1248,23.0556],[78.1319,23.0588],[78.1409,23.0683],[78.1453,23.0779],[78.1439,23.085],[78.1338,23.1033],[78.1388,23.1074],[78.1435,23.1053],[78.1562,23.0929],[78.1661,23.0902],[78.1666,23.0809],[78.1728,23.0764],[78.1785,23.0804],[78.1859,23.0798],[78.1906,23.0826],[78.1946,23.0888],[78.2024,23.0934],[78.2116,23.0893],[78.2154,23.0899],[78.2159,23.0972],[78.2243,23.0996],[78.2235,23.1113],[78.2346,23.1133],[78.2423,23.1163],[78.2477,23.1152],[78.2569,23.11],[78.2617,23.1121],[78.2653,23.1211],[78.2721,23.1248],[78.2686,23.1282],[78.2747,23.1348],[78.2586,23.1367],[78.257,23.1332],[78.2508,23.1309],[78.2365,23.1365],[78.2319,23.132],[78.217,23.1303],[78.2122,23.1322],[78.2084,23.1397],[78.2087,23.1439],[78.2145,23.1386],[78.2218,23.1379],[78.2237,23.1417],[78.2171,23.1506],[78.219,23.1575],[78.2147,23.1596],[78.2121,23.1556],[78.2051,23.1552],[78.2003,23.1606],[78.1996,23.1655],[78.2023,23.1746],[78.209,23.1698],[78.2171,23.1683],[78.2197,23.1717],[78.2189,23.1813],[78.2295,23.1877],[78.2413,23.178],[78.2506,23.1789],[78.2495,23.1825],[78.2424,23.1842],[78.2397,23.1902],[78.2306,23.2001],[78.2312,23.2063],[78.2372,23.2052],[78.2484,23.1955],[78.2548,23.1972],[78.2525,23.2048],[78.2389,23.2192],[78.2372,23.2246],[78.2425,23.2277],[78.2585,23.2277],[78.2623,23.2289],[78.2641,23.2349],[78.2569,23.2433],[78.2556,23.252],[78.2613,23.2637],[78.2599,23.2737],[78.2544,23.2776],[78.2477,23.2788],[78.239,23.2745],[78.2314,23.2794],[78.233,23.283],[78.2281,23.2907],[78.2203,23.2905],[78.222,23.3035],[78.2136,23.3103],[78.2079,23.3112],[78.1944,23.3044],[78.1934,23.312],[78.1894,23.3142],[78.189,23.3038],[78.1827,23.3025],[78.1822,23.2861],[78.171,23.2866],[78.1691,23.2903],[78.1707,23.3005],[78.1635,23.3124]],[[78.1904,23.1686],[78.1865,23.1763],[78.1887,23.1859],[78.192,23.1862],[78.1944,23.193],[78.2007,23.1901],[78.2002,23.1826],[78.1904,23.1686]],[[78.1598,23.1405],[78.1643,23.149],[78.1674,23.1467],[78.1667,23.1412],[78.1746,23.135],[78.1803,23.1229],[78.177,23.1181],[78.1701,23.1267],[78.1581,23.1264],[78.1532,23.1284],[78.1528,23.1384],[78.1598,23.1405]],[[78.1911,23.2919],[78.1871,23.2942],[78.1876,23.3008],[78.1918,23.2983],[78.1911,23.2919]]]},"properties":{"id":"singhori-wls","name":"Singhori Wildlife Sanctuary","category":"wls","area_km2":312}}]}