{"type":"FeatureCollection","features":[{"type":"Feature","geometry":{"type":"Polygon","coordinates":[[[94.3781,26.0672],[94.3753,26.058],[94.3708,26.0523],[94.3668,26.0396],[94.3599,26.0277],[94.3593,26.0211],[94.3641,26.0121],[94.3676,26.0148],[94.3671,26.0193],[94.3708,26.0232],[94.377,26.0244],[94.385,26.0205],[94.39,26.0203],[94.3936,26.0129],[94.4088,26.0147],[94.4108,26.0251],[94.4028,26.0357],[94.407,26.0517],[94.4036,26.0619],[94.4038,26.0707],[94.4008,26.0773],[94.3896,26.0825],[94.3871,26.0744],[94.3823,26.0726],[94.3781,26.0672]]]},"properties":{"id":"singphan-national-park-wls","name":"Singphan Wildlife Sanctuary","category":"wls","area_km2":23.6}}]}