{"type":"FeatureCollection","features":[{"type":"Feature","geometry":{"type":"Polygon","coordinates":[[[74.4764,24.4092],[74.4714,24.4078],[74.4679,24.3955],[74.47,24.3858],[74.4765,24.368],[74.4802,24.3728],[74.4782,24.385],[74.4785,24.3939],[74.483,24.3894],[74.4929,24.3672],[74.4929,24.3605],[74.496,24.3521],[74.4954,24.3353],[74.4906,24.347],[74.4865,24.3496],[74.4832,24.3576],[74.4789,24.3534],[74.4865,24.3275],[74.4969,24.3071],[74.4971,24.2957],[74.4924,24.2902],[74.48,24.2942],[74.4834,24.2901],[74.4854,24.2799],[74.4776,24.2802],[74.4727,24.2764],[74.4658,24.2798],[74.4636,24.2845],[74.4662,24.2885],[74.4661,24.2989],[74.4617,24.2943],[74.4569,24.2937],[74.4547,24.3056],[74.4517,24.3056],[74.4522,24.2929],[74.4505,24.2855],[74.4393,24.2847],[74.434,24.2917],[74.4232,24.2954],[74.4218,24.3046],[74.4166,24.3138],[74.4126,24.3124],[74.4113,24.3069],[74.4185,24.2877],[74.4146,24.2835],[74.4047,24.2842],[74.3958,24.2916],[74.3862,24.2959],[74.3831,24.3007],[74.3714,24.3047],[74.3663,24.3044],[74.3675,24.2941],[74.3627,24.2994],[74.3602,24.2959],[74.3521,24.2948],[74.3359,24.303],[74.3325,24.3016],[74.3335,24.295],[74.3395,24.2863],[74.3322,24.2827],[74.329,24.284],[74.328,24.2932],[74.3241,24.2957],[74.3163,24.2917],[74.3192,24.283],[74.322,24.2672],[74.3265,24.2596],[74.3312,24.2585],[74.3305,24.2545],[74.3374,24.2502],[74.3436,24.2413],[74.3511,24.2373],[74.3537,24.2315],[74.3486,24.2265],[74.3507,24.2191],[74.3565,24.211],[74.3598,24.2149],[74.3737,24.213],[74.3801,24.2202],[74.3899,24.2189],[74.3889,24.2135],[74.3831,24.2129],[74.3914,24.1999],[74.397,24.1945],[74.3943,24.1898],[74.3864,24.1844],[74.4051,24.163],[74.4044,24.1527],[74.4096,24.1425],[74.4148,24.1421],[74.418,24.1499],[74.4254,24.15],[74.4275,24.1435],[74.4308,24.1431],[74.432,24.1491],[74.4395,24.1516],[74.4493,24.158],[74.4564,24.1579],[74.4589,24.1662],[74.4655,24.1655],[74.4705,24.1588],[74.4717,24.1503],[74.4831,24.1471],[74.483,24.1548],[74.4872,24.1575],[74.4929,24.1462],[74.4971,24.1453],[74.4957,24.1518],[74.4993,24.1582],[74.5062,24.1551],[74.5141,24.1547],[74.5128,24.149],[74.5087,24.1464],[74.5116,24.1386],[74.5198,24.1361],[74.5183,24.1312],[74.5235,24.1276],[74.5288,24.1366],[74.5314,24.1357],[74.5398,24.1181],[74.534,24.1129],[74.5368,24.1022],[74.5375,24.0929],[74.5421,24.0919],[74.5432,24.0871],[74.5402,24.0806],[74.5422,24.0783],[74.554,24.0734],[74.5571,24.0793],[74.5638,24.0803],[74.5673,24.0854],[74.5789,24.0793],[74.5801,24.071],[74.5727,24.062],[74.5783,24.0573],[74.5852,24.0584],[74.5904,24.0638],[74.5932,24.0703],[74.5981,24.0734],[74.5911,24.0896],[74.5933,24.0914],[74.6043,24.0921],[74.6043,24.1029],[74.6076,24.1132],[74.6012,24.1242],[74.6019,24.129],[74.6077,24.1321],[74.6083,24.1387],[74.6123,24.1448],[74.6309,24.1392],[74.6382,24.141],[74.6425,24.1528],[74.6431,24.1619],[74.6368,24.178],[74.6268,24.1823],[74.6242,24.1877],[74.618,24.191],[74.6181,24.199],[74.6146,24.2017],[74.6109,24.2129],[74.6072,24.2175],[74.6005,24.2202],[74.5926,24.227],[74.568,24.2651],[74.5617,24.2716],[74.5548,24.285],[74.5596,24.2818],[74.5671,24.2823],[74.5719,24.2736],[74.5763,24.2707],[74.5759,24.2655],[74.5865,24.2578],[74.5905,24.2584],[74.5886,24.2641],[74.5905,24.2677],[74.5992,24.271],[74.5974,24.2776],[74.5886,24.2765],[74.5798,24.2855],[74.5739,24.283],[74.5716,24.2862],[74.5737,24.2972],[74.5694,24.3049],[74.5693,24.3091],[74.5652,24.31],[74.5594,24.3154],[74.5585,24.3258],[74.5484,24.341],[74.5424,24.345],[74.5363,24.341],[74.5375,24.3254],[74.5423,24.3134],[74.5438,24.3003],[74.5406,24.2988],[74.5443,24.2929],[74.5464,24.278],[74.543,24.2804],[74.5377,24.2942],[74.5341,24.2996],[74.527,24.3164],[74.5263,24.326],[74.5227,24.3309],[74.5226,24.3393],[74.5189,24.3545],[74.5086,24.3698],[74.5017,24.3772],[74.4935,24.395],[74.4941,24.3989],[74.4906,24.405],[74.4832,24.4046],[74.4764,24.4092]],[[74.5127,24.2551],[74.5151,24.2535],[74.5198,24.236],[74.5144,24.2311],[74.5156,24.2184],[74.5212,24.2155],[74.5248,24.2201],[74.5236,24.2127],[74.5284,24.2127],[74.5319,24.2178],[74.5331,24.2102],[74.5357,24.2085],[74.5425,24.2126],[74.5472,24.2179],[74.5545,24.2107],[74.5586,24.2036],[74.569,24.1906],[74.5752,24.1778],[74.5777,24.1672],[74.5729,24.1659],[74.5692,24.1685],[74.5686,24.1771],[74.5622,24.1769],[74.5584,24.1797],[74.5506,24.1762],[74.5501,24.1722],[74.5555,24.1622],[74.5555,24.1553],[74.5611,24.1438],[74.5594,24.1394],[74.5461,24.1392],[74.5372,24.1439],[74.5308,24.1546],[74.5176,24.1587],[74.5144,24.1657],[74.5097,24.1604],[74.5042,24.1591],[74.4953,24.167],[74.4936,24.173],[74.4953,24.1877],[74.4952,24.1978],[74.503,24.2004],[74.4967,24.2074],[74.4887,24.2042],[74.4848,24.2084],[74.4853,24.2135],[74.489,24.2156],[74.4938,24.2124],[74.4884,24.2329],[74.4915,24.2341],[74.5003,24.221],[74.4993,24.2154],[74.5106,24.2143],[74.5116,24.219],[74.5075,24.2258],[74.5062,24.2399],[74.5082,24.2443],[74.506,24.2495],[74.5127,24.2551]],[[74.5964,24.1477],[74.5953,24.1541],[74.6025,24.1568],[74.6053,24.1513],[74.6036,24.1375],[74.598,24.1413],[74.5964,24.1477]],[[74.5884,24.1405],[74.5922,24.1346],[74.59,24.1327],[74.5828,24.136],[74.5864,24.1277],[74.5928,24.1287],[74.591,24.1189],[74.5782,24.1199],[74.5761,24.1311],[74.5635,24.1376],[74.5626,24.1409],[74.5735,24.1416],[74.5749,24.1468],[74.5804,24.1472],[74.5845,24.1385],[74.5884,24.1405]]]},"properties":{"id":"sitamata-wls","name":"Sitamata Wildlife Sanctuary","category":"wls","area_km2":422.9}}]}