{"type":"FeatureCollection","features":[{"type":"Feature","geometry":{"type":"MultiPolygon","coordinates":[[[[83.4943,27.1635],[83.4905,27.166],[83.4782,27.1668],[83.4804,27.1764],[83.4927,27.1746],[83.4949,27.1872],[83.499,27.1868],[83.4999,27.1909],[83.4913,27.1923],[83.4887,27.2074],[83.4895,27.2138],[83.4826,27.2171],[83.4816,27.2219],[83.4773,27.2232],[83.4697,27.2167],[83.472,27.211],[83.4551,27.2032],[83.4567,27.2],[83.448,27.2038],[83.4426,27.2001],[83.4463,27.1922],[83.4441,27.1877],[83.4549,27.1856],[83.4556,27.1789],[83.4446,27.174],[83.4446,27.1679],[83.4398,27.1636],[83.4322,27.1655],[83.4309,27.1594],[83.4364,27.1545],[83.4384,27.149],[83.4412,27.1502],[83.446,27.1435],[83.4418,27.1386],[83.4432,27.1337],[83.4398,27.1331],[83.4309,27.1227],[83.4329,27.1209],[83.4453,27.1221],[83.4494,27.1282],[83.4645,27.1233],[83.4703,27.1316],[83.4694,27.1262],[83.4761,27.1252],[83.4846,27.1297],[83.4893,27.1284],[83.4954,27.1398],[83.4913,27.141],[83.4923,27.1472],[83.4995,27.1587],[83.4943,27.1635]]],[[[83.464,27.2868],[83.4575,27.2906],[83.4455,27.2867],[83.4407,27.2896],[83.4348,27.2829],[83.4276,27.2856],[83.4207,27.2837],[83.416,27.2873],[83.413,27.2827],[83.4172,27.2752],[83.4131,27.2699],[83.4181,27.2564],[83.4284,27.2545],[83.4292,27.2472],[83.4124,27.2471],[83.4105,27.2392],[83.4068,27.2393],[83.4036,27.2258],[83.4097,27.2232],[83.4287,27.2341],[83.4367,27.2372],[83.4392,27.2452],[83.4446,27.2464],[83.4435,27.2427],[83.4489,27.2391],[83.451,27.2306],[83.4618,27.227],[83.4666,27.232],[83.4725,27.2301],[83.476,27.2341],[83.4735,27.2386],[83.4847,27.2408],[83.4912,27.2391],[83.4946,27.2456],[83.4903,27.2473],[83.4876,27.2535],[83.4763,27.2532],[83.4679,27.2563],[83.4658,27.26],[83.4724,27.2616],[83.4838,27.2606],[83.4905,27.2637],[83.4874,27.2754],[83.4932,27.2811],[83.499,27.279],[83.5037,27.2856],[83.4987,27.2869],[83.5014,27.299],[83.4992,27.3013],[83.4784,27.3081],[83.4814,27.301],[83.4773,27.2932],[83.4707,27.2865],[83.464,27.2868]],[[83.4504,27.2667],[83.448,27.2661],[83.4448,27.2726],[83.4549,27.2786],[83.4547,27.2745],[83.4606,27.2726],[83.4585,27.2653],[83.4556,27.2688],[83.4504,27.2667]]],[[[83.4937,27.2468],[83.4957,27.2442],[83.4933,27.2386],[83.5037,27.2416],[83.5086,27.2506],[83.5202,27.2507],[83.5268,27.2522],[83.5292,27.2566],[83.5387,27.2625],[83.5387,27.2662],[83.5502,27.2673],[83.5633,27.2653],[83.5654,27.269],[83.5812,27.2696],[83.5881,27.2653],[83.6032,27.269],[83.6083,27.267],[83.6185,27.2678],[83.6198,27.2789],[83.6249,27.2798],[83.6318,27.2851],[83.6266,27.2906],[83.6218,27.2882],[83.6193,27.2796],[83.612,27.2802],[83.6132,27.2839],[83.607,27.2858],[83.6115,27.2888],[83.6128,27.2946],[83.617,27.2935],[83.6181,27.2975],[83.6221,27.2957],[83.6314,27.2959],[83.6386,27.3004],[83.6369,27.308],[83.6296,27.3097],[83.6269,27.3144],[83.6307,27.3178],[83.6334,27.3147],[83.6444,27.3153],[83.6537,27.3242],[83.6516,27.326],[83.6585,27.3401],[83.6643,27.341],[83.6669,27.3457],[83.671,27.3405],[83.6736,27.3494],[83.6787,27.3528],[83.6802,27.3589],[83.6758,27.3557],[83.6612,27.3565],[83.6639,27.3671],[83.6575,27.3675],[83.6558,27.3625],[83.6452,27.3621],[83.639,27.3561],[83.64,27.3708],[83.6185,27.377],[83.6131,27.3812],[83.5989,27.3883],[83.5803,27.3994],[83.5687,27.4147],[83.5622,27.4143],[83.5536,27.405],[83.5505,27.4057],[83.5354,27.4026],[83.5396,27.4009],[83.5383,27.3949],[83.5325,27.3973],[83.5304,27.3886],[83.5191,27.3763],[83.5132,27.3733],[83.517,27.3681],[83.525,27.3652],[83.5242,27.359],[83.519,27.3577],[83.5226,27.3498],[83.5105,27.3446],[83.5086,27.3384],[83.5019,27.338],[83.503,27.3278],[83.512,27.3093],[83.512,27.3042],[83.5171,27.2904],[83.5156,27.2864],[83.5218,27.281],[83.5231,27.2742],[83.5185,27.2751],[83.517,27.2688],[83.5092,27.2681],[83.5165,27.2625],[83.5081,27.2637],[83.504,27.2597],[83.4955,27.2596],[83.4959,27.2554],[83.4908,27.2505],[83.4937,27.2468]],[[83.6207,27.3535],[83.62,27.3577],[83.6272,27.3587],[83.6262,27.3523],[83.6207,27.3535]],[[83.6077,27.3541],[83.6152,27.3516],[83.6135,27.3495],[83.6077,27.3541]],[[83.5915,27.3202],[83.5984,27.3233],[83.6049,27.3181],[83.6025,27.3135],[83.5953,27.3089],[83.5905,27.3138],[83.5915,27.3202]],[[83.5469,27.3153],[83.5534,27.3053],[83.5448,27.3025],[83.5418,27.3071],[83.5431,27.3157],[83.5469,27.3153]],[[83.5606,27.3013],[83.5641,27.3013],[83.5651,27.2955],[83.5565,27.2934],[83.5531,27.2897],[83.5514,27.2943],[83.5534,27.2998],[83.5606,27.3013]]]]},"properties":{"id":"sohagibarwa-wls","name":"Sohagibarwa Wildlife Sanctuary","category":"wls","area_km2":428.2}}]}