{"type":"FeatureCollection","features":[{"type":"Feature","geometry":{"type":"Polygon","coordinates":[[[82.0708,27.8376],[82.0739,27.8333],[82.0846,27.8375],[82.0925,27.8443],[82.0982,27.8432],[82.0978,27.8387],[82.1035,27.8351],[82.1098,27.8351],[82.1102,27.8278],[82.117,27.822],[82.1248,27.8211],[82.134,27.8155],[82.1307,27.8095],[82.1301,27.801],[82.1356,27.7977],[82.139,27.8029],[82.1476,27.7994],[82.1404,27.7925],[82.1354,27.795],[82.1358,27.79],[82.1436,27.7861],[82.1477,27.7781],[82.1539,27.7879],[82.1582,27.7883],[82.1604,27.7823],[82.1495,27.7727],[82.1416,27.7768],[82.1373,27.7716],[82.1402,27.7608],[82.1443,27.7581],[82.1455,27.7669],[82.1571,27.7709],[82.159,27.7668],[82.1558,27.7601],[82.1623,27.7578],[82.1736,27.7667],[82.1838,27.7689],[82.1904,27.7745],[82.2068,27.7747],[82.2062,27.7644],[82.2097,27.7632],[82.2209,27.7706],[82.2223,27.7673],[82.2173,27.7637],[82.2166,27.7559],[82.2191,27.7559],[82.2254,27.7475],[82.2299,27.7449],[82.2226,27.7437],[82.2161,27.7461],[82.2173,27.7416],[82.2124,27.7264],[82.2207,27.7193],[82.2248,27.7208],[82.2292,27.729],[82.2249,27.7336],[82.2309,27.7376],[82.2369,27.7352],[82.2393,27.7302],[82.2425,27.742],[82.24,27.747],[82.2435,27.7513],[82.2485,27.7487],[82.2497,27.741],[82.257,27.7461],[82.2588,27.7435],[82.2532,27.7365],[82.2527,27.7244],[82.2557,27.7237],[82.2647,27.7142],[82.2694,27.7139],[82.275,27.7232],[82.2805,27.7266],[82.2918,27.7225],[82.2917,27.7112],[82.2869,27.6927],[82.287,27.6879],[82.2808,27.6822],[82.2836,27.6746],[82.2875,27.6799],[82.2941,27.6843],[82.296,27.6934],[82.3053,27.6923],[82.3052,27.6871],[82.3088,27.6916],[82.3101,27.7035],[82.3065,27.7112],[82.3077,27.7175],[82.317,27.7195],[82.3255,27.7146],[82.3366,27.7042],[82.3494,27.6991],[82.3382,27.6918],[82.3365,27.6939],[82.3263,27.6899],[82.3233,27.6847],[82.3301,27.685],[82.3357,27.6795],[82.3279,27.6742],[82.3209,27.6761],[82.3106,27.6762],[82.307,27.6679],[82.3008,27.6638],[82.2985,27.6544],[82.3032,27.6521],[82.302,27.6463],[82.306,27.641],[82.3183,27.6491],[82.3217,27.6493],[82.3245,27.6568],[82.3283,27.6591],[82.334,27.671],[82.3432,27.6666],[82.3421,27.6595],[82.348,27.6511],[82.3576,27.6535],[82.3571,27.6484],[82.3519,27.6361],[82.3562,27.632],[82.3516,27.626],[82.3541,27.624],[82.3604,27.6276],[82.3621,27.6368],[82.3663,27.6368],[82.3628,27.6481],[82.3691,27.6544],[82.3719,27.6635],[82.3622,27.665],[82.3664,27.6695],[82.3842,27.6665],[82.3883,27.6693],[82.3876,27.6569],[82.3983,27.6518],[82.4025,27.644],[82.4034,27.6376],[82.3992,27.6312],[82.3986,27.6259],[82.4057,27.6235],[82.41,27.6353],[82.4188,27.6425],[82.4178,27.6551],[82.4283,27.6581],[82.4311,27.6509],[82.4421,27.6518],[82.4439,27.6499],[82.4442,27.6395],[82.4477,27.6169],[82.4394,27.6028],[82.4394,27.5916],[82.4436,27.5786],[82.4464,27.5782],[82.4512,27.5887],[82.4487,27.5915],[82.4508,27.6062],[82.4587,27.6059],[82.4656,27.603],[82.4778,27.6161],[82.4844,27.6152],[82.4835,27.6207],[82.4878,27.6326],[82.4944,27.634],[82.4948,27.6453],[82.5003,27.6456],[82.4975,27.6272],[82.5014,27.6214],[82.4975,27.6157],[82.497,27.5964],[82.5007,27.5957],[82.5,27.5818],[82.5045,27.5869],[82.5038,27.5965],[82.5079,27.5984],[82.509,27.6054],[82.5046,27.6173],[82.5113,27.6228],[82.512,27.6363],[82.5143,27.6445],[82.5188,27.6496],[82.5232,27.6507],[82.5332,27.6453],[82.5369,27.6354],[82.5473,27.6321],[82.5507,27.6251],[82.562,27.6164],[82.5644,27.6101],[82.5784,27.6075],[82.5963,27.6125],[82.603,27.6313],[82.613,27.6389],[82.6164,27.6342],[82.623,27.6359],[82.6201,27.6397],[82.6207,27.6453],[82.6177,27.6499],[82.6276,27.6688],[82.6337,27.671],[82.638,27.6793],[82.6459,27.6839],[82.6506,27.6911],[82.6546,27.6912],[82.6545,27.6849],[82.6574,27.6833],[82.6601,27.6664],[82.6565,27.6521],[82.6511,27.6478],[82.6508,27.6422],[82.6543,27.64],[82.6563,27.6302],[82.6617,27.63],[82.6668,27.6253],[82.673,27.6264],[82.6567,27.6092],[82.6562,27.6017],[82.6658,27.6036],[82.67,27.6084],[82.6739,27.6174],[82.6779,27.6092],[82.6735,27.6007],[82.6824,27.609],[82.684,27.6041],[82.6751,27.5883],[82.6863,27.5794],[82.6938,27.5758],[82.6982,27.5666],[82.6977,27.563],[82.7033,27.554],[82.7047,27.5592],[82.6987,27.5674],[82.6971,27.5748],[82.6998,27.5783],[82.7006,27.595],[82.7066,27.5926],[82.7092,27.5879],[82.716,27.5943],[82.7182,27.5919],[82.7255,27.5917],[82.7265,27.5789],[82.7206,27.577],[82.7176,27.5714],[82.7155,27.5613],[82.7215,27.5593],[82.7313,27.5643],[82.7426,27.5614],[82.7502,27.5641],[82.7474,27.5725],[82.753,27.5859],[82.7558,27.587],[82.7504,27.5937],[82.7447,27.5961],[82.7457,27.6008],[82.7363,27.6084],[82.7337,27.6187],[82.7367,27.626],[82.7342,27.6294],[82.7381,27.6314],[82.7366,27.6435],[82.7297,27.6451],[82.7305,27.6532],[82.7199,27.662],[82.7145,27.6626],[82.7117,27.6662],[82.7156,27.6686],[82.7142,27.6772],[82.7183,27.6874],[82.715,27.6924],[82.7071,27.6992],[82.7052,27.706],[82.7079,27.7219],[82.7022,27.7162],[82.6991,27.722],[82.689,27.7151],[82.6809,27.7139],[82.6658,27.7159],[82.6643,27.7225],[82.6552,27.7135],[82.6381,27.7091],[82.6273,27.7114],[82.6273,27.7092],[82.6189,27.7023],[82.6052,27.7061],[82.6003,27.7044],[82.594,27.6974],[82.5854,27.6991],[82.5627,27.6922],[82.5547,27.6885],[82.5499,27.6889],[82.5413,27.6857],[82.5393,27.6878],[82.5314,27.6865],[82.5166,27.6906],[82.5008,27.6851],[82.4922,27.6844],[82.4899,27.6817],[82.4821,27.6831],[82.4733,27.6767],[82.4487,27.6793],[82.4366,27.686],[82.4271,27.6892],[82.4129,27.699],[82.4017,27.7037],[82.3827,27.7208],[82.3677,27.7429],[82.3367,27.7546],[82.3035,27.7728],[82.2527,27.8104],[82.2304,27.8211],[82.2083,27.8436],[82.1766,27.8555],[82.154,27.8668],[82.1502,27.8585],[82.1391,27.8603],[82.1214,27.8658],[82.1139,27.8782],[82.1104,27.8803],[82.1064,27.8743],[82.0941,27.8636],[82.0886,27.866],[82.0869,27.8584],[82.0826,27.8557],[82.0842,27.8496],[82.0708,27.8376]],[[82.6088,27.6685],[82.6092,27.6639],[82.6058,27.659],[82.6014,27.6603],[82.6003,27.6647],[82.6088,27.6685]],[[82.5743,27.6557],[82.5795,27.6486],[82.5804,27.64],[82.5696,27.6458],[82.5692,27.6497],[82.5743,27.6557]],[[82.5838,27.637],[82.5869,27.636],[82.5858,27.6269],[82.5811,27.6309],[82.5838,27.637]],[[82.5943,27.6277],[82.5989,27.6281],[82.5994,27.6215],[82.5943,27.6277]],[[82.5785,27.6395],[82.5819,27.636],[82.5773,27.6342],[82.5785,27.6395]],[[82.7085,27.6288],[82.7137,27.621],[82.7086,27.616],[82.7098,27.607],[82.7035,27.6004],[82.6983,27.6042],[82.7017,27.6058],[82.7062,27.6187],[82.7047,27.6213],[82.7085,27.6288]],[[82.649,27.7055],[82.6473,27.6983],[82.6445,27.7032],[82.649,27.7055]]]},"properties":{"id":"sohelwa-wls","name":"Sohelwa Wildlife Sanctuary","category":"wls","area_km2":452.5}}]}