{"type":"FeatureCollection","features":[{"type":"Feature","geometry":{"type":"Polygon","coordinates":[[[75.0732,13.4477],[75.079,13.4495],[75.0888,13.4357],[75.0959,13.4326],[75.1,13.4331],[75.0998,13.4072],[75.0964,13.3993],[75.0988,13.3631],[75.113,13.3564],[75.1175,13.362],[75.1255,13.3659],[75.1281,13.3763],[75.1278,13.3864],[75.1316,13.3912],[75.1402,13.389],[75.146,13.3942],[75.14,13.4063],[75.1436,13.4106],[75.1455,13.4194],[75.1427,13.4241],[75.148,13.4229],[75.1541,13.4321],[75.1473,13.4356],[75.1518,13.4417],[75.1522,13.4491],[75.1438,13.4573],[75.1391,13.4641],[75.1389,13.4743],[75.1478,13.4804],[75.1512,13.4858],[75.1626,13.4881],[75.1651,13.497],[75.1641,13.5009],[75.1584,13.5061],[75.1551,13.5058],[75.1511,13.4958],[75.1443,13.4919],[75.1476,13.5005],[75.1399,13.5026],[75.133,13.5002],[75.1293,13.5082],[75.1226,13.5069],[75.1147,13.4991],[75.1141,13.5097],[75.1094,13.5108],[75.0997,13.503],[75.0921,13.5032],[75.0874,13.5126],[75.0926,13.5146],[75.0983,13.5201],[75.1008,13.5289],[75.0968,13.5336],[75.104,13.5335],[75.1033,13.5422],[75.1075,13.5469],[75.1056,13.5615],[75.102,13.5674],[75.1046,13.5718],[75.1124,13.5758],[75.1056,13.5824],[75.1058,13.5885],[75.1094,13.5902],[75.1192,13.5833],[75.1239,13.5855],[75.1191,13.5994],[75.1123,13.6018],[75.1049,13.5972],[75.0938,13.6064],[75.0934,13.6112],[75.0867,13.6127],[75.0812,13.6191],[75.0695,13.6175],[75.0463,13.6189],[75.0393,13.6231],[75.0363,13.6286],[75.0299,13.6314],[75.0263,13.6448],[75.0336,13.653],[75.0362,13.6684],[75.0419,13.6743],[75.0429,13.6804],[75.0386,13.684],[75.033,13.6935],[75.0228,13.6963],[75.0056,13.6959],[75.0022,13.6968],[74.9951,13.6915],[74.9864,13.6906],[74.9833,13.6846],[74.9719,13.6827],[74.9716,13.6733],[74.9641,13.671],[74.962,13.661],[74.9509,13.6561],[74.9548,13.6506],[74.953,13.6463],[74.9538,13.638],[74.9517,13.6334],[74.9439,13.633],[74.9403,13.6393],[74.9338,13.6382],[74.9332,13.6347],[74.9471,13.6284],[74.9583,13.6314],[74.9546,13.6115],[74.9645,13.6094],[74.9686,13.6056],[74.9774,13.6024],[74.9788,13.5941],[74.9828,13.5859],[74.9828,13.5767],[74.9791,13.5745],[74.9805,13.5668],[74.9913,13.5677],[74.9929,13.5589],[75.0019,13.5561],[74.9984,13.5479],[75.0045,13.5488],[75.0102,13.5461],[75.0054,13.5309],[74.9989,13.5271],[74.9985,13.5219],[74.9905,13.5223],[74.9912,13.5127],[74.9859,13.5126],[74.9821,13.5065],[74.9923,13.5061],[74.9914,13.4946],[75.0011,13.4958],[75.0108,13.4951],[75.012,13.4908],[75.0028,13.4806],[74.9976,13.479],[74.9968,13.4711],[74.9994,13.4679],[74.9981,13.4621],[75.0023,13.4631],[75.0138,13.4759],[75.0265,13.4783],[75.0351,13.4769],[75.035,13.4735],[75.0421,13.4739],[75.0495,13.4774],[75.0568,13.472],[75.0559,13.467],[75.06,13.4676],[75.0634,13.4629],[75.0585,13.4619],[75.0601,13.455],[75.0724,13.4539],[75.0732,13.4477]],[[74.9752,13.6573],[74.9698,13.6668],[74.976,13.6671],[74.9847,13.6707],[74.9843,13.6765],[74.9882,13.6705],[74.9965,13.6704],[75.0013,13.6729],[75.0022,13.6655],[74.9976,13.6659],[74.9903,13.6618],[74.9823,13.6628],[74.9816,13.6601],[74.9752,13.6573]],[[74.973,13.6437],[74.975,13.638],[74.9633,13.64],[74.9702,13.6449],[74.973,13.6437]],[[74.9978,13.6039],[74.9867,13.6061],[74.979,13.6155],[74.9684,13.6186],[74.9691,13.628],[74.9664,13.6363],[74.9724,13.6332],[74.9821,13.6243],[74.9823,13.6206],[74.9879,13.6087],[74.9936,13.6144],[74.9945,13.6199],[75.0001,13.6183],[75.0039,13.6096],[74.9978,13.6039]],[[75.0128,13.6058],[75.0085,13.6089],[75.0107,13.6169],[75.0182,13.6134],[75.0178,13.6071],[75.0128,13.6058]],[[75.0264,13.5984],[75.0234,13.6026],[75.0277,13.6037],[75.0305,13.6002],[75.0264,13.5984]],[[75.008,13.5861],[75.0107,13.5817],[75.0077,13.5791],[75.0032,13.5869],[74.9921,13.5888],[75.0032,13.5935],[75.0068,13.5974],[75.0175,13.5944],[75.0139,13.588],[75.0099,13.5921],[75.008,13.5861]],[[75.0237,13.5333],[75.0213,13.5313],[75.0204,13.5377],[75.0222,13.5422],[75.0266,13.537],[75.0237,13.5333]],[[75.0033,13.5099],[75.0009,13.5133],[75.0041,13.5228],[75.0133,13.5238],[75.0117,13.5162],[75.0048,13.5085],[75.0033,13.5099]],[[75.0448,13.4947],[75.0458,13.4919],[75.0379,13.4896],[75.0348,13.4929],[75.0298,13.5045],[75.0347,13.5065],[75.0371,13.5136],[75.0332,13.5157],[75.0264,13.5096],[75.0183,13.5126],[75.026,13.5202],[75.0317,13.5228],[75.0364,13.5217],[75.0391,13.517],[75.0423,13.5235],[75.0446,13.5165],[75.0406,13.513],[75.0446,13.5111],[75.0421,13.5054],[75.0449,13.5001],[75.0401,13.4958],[75.0448,13.4947]],[[75.0654,13.4876],[75.0615,13.4918],[75.0614,13.4963],[75.0654,13.4972],[75.0711,13.4901],[75.0654,13.4876]],[[75.1181,13.482],[75.1141,13.4874],[75.1316,13.4868],[75.1312,13.4817],[75.1241,13.4782],[75.1181,13.482]],[[75.0138,13.5045],[75.0147,13.5016],[75.0084,13.504],[75.0138,13.5045]],[[74.9997,13.5049],[74.9957,13.5068],[74.9994,13.5121],[74.9997,13.5049]],[[75.1022,13.432],[75.1025,13.4369],[75.11,13.4358],[75.1094,13.4304],[75.1022,13.432]],[[75.1096,13.4084],[75.1068,13.4137],[75.1124,13.4119],[75.1096,13.4084]]]},"properties":{"id":"someshwara-wls","name":"Someshwara Wildlife Sanctuary","category":"wls","area_km2":314.3}}]}