{"type":"FeatureCollection","features":[{"type":"Feature","geometry":{"type":"Polygon","coordinates":[[[82.7176,24.5861],[82.7346,24.5966],[82.7542,24.6033],[82.7503,24.6121],[82.7421,24.6114],[82.7301,24.6046],[82.7197,24.5932],[82.7006,24.583],[82.6921,24.5832],[82.6726,24.5862],[82.6605,24.5822],[82.6495,24.5691],[82.6449,24.5661],[82.6128,24.5558],[82.6004,24.5507],[82.5879,24.5434],[82.5658,24.5373],[82.5511,24.5324],[82.5444,24.5266],[82.5375,24.5234],[82.5225,24.5216],[82.5109,24.5267],[82.4987,24.5355],[82.4801,24.5424],[82.4423,24.5443],[82.433,24.5469],[82.4134,24.5578],[82.4023,24.5625],[82.3908,24.5632],[82.3715,24.5603],[82.3566,24.5617],[82.3395,24.5618],[82.3309,24.5573],[82.3252,24.5438],[82.3217,24.5401],[82.3107,24.533],[82.3021,24.5306],[82.2943,24.5318],[82.2894,24.5348],[82.2857,24.544],[82.2807,24.55],[82.2723,24.5534],[82.2603,24.5558],[82.2348,24.5581],[82.2121,24.5531],[82.207,24.55],[82.1993,24.5368],[82.1983,24.5287],[82.1915,24.5246],[82.1741,24.5267],[82.1532,24.5226],[82.1427,24.5134],[82.1311,24.5089],[82.1096,24.5055],[82.0976,24.5023],[82.0877,24.5024],[82.0726,24.5058],[82.0511,24.5032],[82.0345,24.5058],[82.0202,24.5032],[81.9975,24.494],[81.9853,24.4881],[81.9692,24.4825],[81.9413,24.4756],[81.9252,24.4709],[81.9038,24.4669],[81.8822,24.4661],[81.853,24.4585],[81.8316,24.4512],[81.8074,24.4468],[81.7913,24.4464],[81.7849,24.4494],[81.7721,24.4484],[81.7604,24.4382],[81.7435,24.4296],[81.735,24.4273],[81.7216,24.4196],[81.7032,24.4157],[81.6948,24.4129],[81.6756,24.4017],[81.662,24.3995],[81.6368,24.4041],[81.6333,24.4035],[81.6163,24.3956],[81.6067,24.3877],[81.5995,24.3763],[81.594,24.3647],[81.5823,24.3577],[81.574,24.3449],[81.5663,24.3382],[81.5515,24.3335],[81.519,24.32],[81.5014,24.3113],[81.4796,24.3126],[81.4615,24.309],[81.4552,24.3011],[81.4545,24.2855],[81.4511,24.2783],[81.4535,24.265],[81.449,24.2618],[81.4376,24.2605],[81.4255,24.2621],[81.4049,24.2663],[81.3949,24.2658],[81.3852,24.2631],[81.3817,24.2545],[81.379,24.2378],[81.3729,24.2292],[81.3677,24.215],[81.3591,24.2027],[81.3545,24.1939],[81.347,24.1907],[81.3372,24.1907],[81.3235,24.1928],[81.2972,24.1905],[81.2973,24.1858],[81.3105,24.1879],[81.3201,24.1878],[81.335,24.1854],[81.3405,24.1833],[81.3536,24.1887],[81.3677,24.196],[81.3707,24.2041],[81.3808,24.223],[81.3807,24.2279],[81.3858,24.2574],[81.3911,24.2619],[81.4061,24.2624],[81.4391,24.2545],[81.453,24.2601],[81.4612,24.2678],[81.4555,24.2721],[81.4541,24.2763],[81.4567,24.2845],[81.4589,24.2995],[81.4615,24.3045],[81.4723,24.3084],[81.4831,24.3087],[81.4988,24.3069],[81.5162,24.3118],[81.5338,24.3215],[81.5671,24.335],[81.5734,24.3399],[81.5818,24.3507],[81.5955,24.3609],[81.6005,24.3673],[81.607,24.3824],[81.6183,24.3918],[81.6362,24.4006],[81.6546,24.397],[81.666,24.3958],[81.6797,24.4004],[81.6941,24.4095],[81.7165,24.4132],[81.7305,24.4166],[81.7642,24.4355],[81.7796,24.446],[81.7944,24.4424],[81.8167,24.4446],[81.8366,24.4484],[81.8446,24.4517],[81.8667,24.4579],[81.8828,24.4602],[81.9086,24.4624],[81.9228,24.4664],[81.9532,24.4728],[81.9766,24.4784],[82.0026,24.4903],[82.0166,24.4948],[82.0227,24.4955],[82.0331,24.4998],[82.0503,24.4982],[82.0646,24.501],[82.0738,24.5016],[82.089,24.4975],[82.1272,24.5024],[82.1406,24.5073],[82.161,24.5191],[82.1808,24.5213],[82.1939,24.5203],[82.2024,24.5215],[82.2058,24.526],[82.2045,24.5364],[82.2151,24.5456],[82.2305,24.551],[82.2385,24.5521],[82.2521,24.5513],[82.2634,24.5461],[82.2656,24.5436],[82.2808,24.5391],[82.285,24.5323],[82.2942,24.5259],[82.3104,24.5276],[82.3221,24.5325],[82.3312,24.5388],[82.3396,24.548],[82.3468,24.5425],[82.3487,24.5384],[82.3455,24.5322],[82.3419,24.52],[82.3372,24.5123],[82.332,24.5082],[82.3187,24.5031],[82.2936,24.5035],[82.2881,24.5023],[82.2934,24.4985],[82.3013,24.5006],[82.32,24.4977],[82.3281,24.504],[82.3387,24.5088],[82.3454,24.5191],[82.3579,24.5328],[82.3661,24.5374],[82.3753,24.5477],[82.3844,24.5551],[82.3928,24.5557],[82.4034,24.554],[82.4167,24.5487],[82.4255,24.5422],[82.4371,24.5389],[82.4545,24.537],[82.4657,24.5323],[82.4753,24.5336],[82.4917,24.5287],[82.5141,24.5175],[82.525,24.5162],[82.542,24.5201],[82.5491,24.5234],[82.5592,24.531],[82.5877,24.5374],[82.5974,24.5418],[82.6067,24.549],[82.624,24.5552],[82.6424,24.5588],[82.653,24.5648],[82.6575,24.5719],[82.6677,24.5796],[82.6735,24.5812],[82.6928,24.5775],[82.7018,24.5783],[82.7176,24.5861]]]},"properties":{"id":"son-gharial-wls","name":"Son Gharial Wildlife Sanctuary","category":"wls","area_km2":83.7}}]}