{"type":"FeatureCollection","features":[{"type":"Feature","geometry":{"type":"Polygon","coordinates":[[[92.3964,26.9249],[92.3969,26.9229],[92.4095,26.9233],[92.4243,26.9288],[92.4395,26.9154],[92.449,26.9123],[92.4694,26.8936],[92.487,26.8764],[92.499,26.8635],[92.5857,26.8627],[92.5876,26.8629],[92.5763,26.883],[92.5714,26.8992],[92.5723,26.9078],[92.5778,26.9115],[92.5786,26.9266],[92.582,26.9437],[92.5752,26.9485],[92.5721,26.9584],[92.5542,26.9574],[92.52,26.9609],[92.5064,26.9629],[92.4913,26.9631],[92.4475,26.9588],[92.4258,26.941],[92.412,26.9428],[92.3983,26.9247],[92.3964,26.9249]]]},"properties":{"id":"sonai-rupai-wls","name":"Sonai-Rupai Wildlife Sanctuary","category":"wls","area_km2":220}}]}