{"type":"FeatureCollection","features":[{"type":"Feature","geometry":{"type":"Polygon","coordinates":[[[78.8525,29.6717],[78.8527,29.6862],[78.8581,29.6947],[78.8428,29.6984],[78.8288,29.7],[78.8218,29.708],[78.8048,29.7199],[78.7971,29.7242],[78.7958,29.7277],[78.79,29.7291],[78.7845,29.7231],[78.7721,29.73],[78.7694,29.7383],[78.7616,29.7476],[78.7445,29.7522],[78.7401,29.757],[78.7403,29.764],[78.7353,29.7729],[78.7244,29.7739],[78.7199,29.7817],[78.7041,29.7839],[78.6964,29.7833],[78.6966,29.7891],[78.6884,29.7994],[78.6843,29.7995],[78.6773,29.7943],[78.6786,29.7824],[78.6727,29.7798],[78.6682,29.7726],[78.6725,29.7655],[78.6659,29.763],[78.6649,29.7552],[78.6743,29.7364],[78.6843,29.7225],[78.6907,29.7167],[78.6904,29.7125],[78.6699,29.7053],[78.6669,29.698],[78.6737,29.689],[78.6682,29.6861],[78.6578,29.6887],[78.6532,29.6931],[78.6476,29.6939],[78.6342,29.6907],[78.6238,29.6902],[78.6093,29.6819],[78.6106,29.6722],[78.602,29.6703],[78.5986,29.6656],[78.6003,29.6472],[78.594,29.6373],[78.5865,29.6348],[78.5806,29.6275],[78.5634,29.619],[78.556,29.6121],[78.5651,29.6011],[78.5844,29.5838],[78.6167,29.5588],[78.6242,29.5565],[78.6385,29.5467],[78.6505,29.546],[78.667,29.5338],[78.6997,29.5062],[78.7109,29.5005],[78.7201,29.5022],[78.7306,29.5004],[78.7464,29.5002],[78.7499,29.4957],[78.7581,29.4929],[78.7618,29.5012],[78.7557,29.5115],[78.7555,29.5226],[78.7492,29.5246],[78.7421,29.5316],[78.7408,29.5375],[78.7551,29.5471],[78.7643,29.5594],[78.7694,29.5708],[78.7725,29.5835],[78.7762,29.5893],[78.7705,29.5942],[78.7638,29.5916],[78.7616,29.5936],[78.7656,29.6037],[78.7608,29.6093],[78.7539,29.6124],[78.7578,29.6191],[78.7501,29.6221],[78.7466,29.626],[78.7414,29.6261],[78.7405,29.634],[78.7363,29.6374],[78.7368,29.6436],[78.733,29.6422],[78.7327,29.6475],[78.7381,29.6469],[78.74,29.6534],[78.7512,29.6567],[78.756,29.6742],[78.7529,29.6766],[78.7509,29.6843],[78.7568,29.6795],[78.7607,29.6793],[78.7662,29.6734],[78.7741,29.6705],[78.7765,29.6638],[78.7834,29.6645],[78.7839,29.6616],[78.7945,29.6586],[78.7981,29.6535],[78.8049,29.6529],[78.8147,29.6558],[78.823,29.6536],[78.8273,29.6566],[78.8386,29.6569],[78.842,29.6685],[78.8525,29.6717]]]},"properties":{"id":"sonanadi-wls","name":"Sonanadi Wildlife Sanctuary","category":"wls","area_km2":301.2}}]}