{"type":"FeatureCollection","features":[{"type":"Feature","geometry":{"type":"Polygon","coordinates":[[[92.7112,12.2968],[92.7057,12.2996],[92.702,12.2895],[92.7033,12.2825],[92.6999,12.2757],[92.7036,12.2715],[92.7006,12.2677],[92.7037,12.254],[92.7041,12.2456],[92.708,12.2403],[92.71,12.2308],[92.7126,12.2352],[92.7127,12.2482],[92.7159,12.2574],[92.7184,12.2732],[92.7239,12.2911],[92.7235,12.296],[92.7112,12.2968]]]},"properties":{"id":"spike-island-ii-wls","name":"Spike Island-II Wildlife Sanctuary","category":"wls","area_km2":0.4}}]}