{"type":"FeatureCollection","features":[{"type":"Feature","geometry":{"type":"Polygon","coordinates":[[[78.8157,14.6404],[78.816,14.6365],[78.8044,14.6172],[78.8038,14.6133],[78.8099,14.598],[78.8185,14.5912],[78.8181,14.5861],[78.8244,14.5799],[78.8417,14.5726],[78.8453,14.5684],[78.8512,14.5498],[78.8551,14.5438],[78.8691,14.5387],[78.8822,14.5279],[78.8917,14.5155],[78.9015,14.5105],[78.9148,14.5061],[78.9206,14.5018],[78.933,14.4891],[78.9451,14.4798],[78.9684,14.4769],[78.9916,14.4754],[78.9958,14.4741],[79.0089,14.4637],[79.0268,14.463],[79.0304,14.4618],[79.0423,14.4527],[79.0495,14.4506],[79.0523,14.4532],[79.051,14.4591],[79.0535,14.4618],[79.066,14.4605],[79.069,14.4671],[79.0602,14.4828],[79.0545,14.5014],[79.0538,14.5117],[79.048,14.5279],[79.0375,14.5449],[79.0276,14.5538],[79.0233,14.5668],[79.0237,14.5717],[79.0292,14.5928],[79.0364,14.6041],[79.0393,14.6132],[79.0387,14.6207],[79.0393,14.6473],[79.0337,14.6499],[79.0215,14.6612],[79.008,14.6623],[78.9824,14.6559],[78.9768,14.6602],[78.9742,14.6691],[78.9754,14.6773],[78.9867,14.6948],[78.9923,14.7016],[78.9947,14.7154],[78.9925,14.7175],[78.9797,14.7191],[78.9693,14.7165],[78.9431,14.7185],[78.9251,14.7138],[78.9074,14.7106],[78.8819,14.7001],[78.8494,14.6832],[78.836,14.6829],[78.8282,14.6755],[78.8259,14.6682],[78.8198,14.6651],[78.8152,14.6773],[78.8062,14.6795],[78.7976,14.6793],[78.7967,14.6682],[78.8003,14.6559],[78.8045,14.6468],[78.8157,14.6404]]]},"properties":{"id":"sri-lankamalleswaram-wls","name":"Sri Lankamalleswaram Wildlife Sanctuary","category":"wls","area_km2":464.4}}]}