{"type":"FeatureCollection","features":[{"type":"Feature","geometry":{"type":"Polygon","coordinates":[[[79.4151,13.7923],[79.4147,13.7968],[79.4015,13.821],[79.3936,13.8276],[79.3917,13.8381],[79.3866,13.8463],[79.3799,13.8492],[79.3733,13.8464],[79.3696,13.8417],[79.3654,13.8424],[79.3652,13.8505],[79.3621,13.8585],[79.3536,13.8717],[79.3406,13.8734],[79.3346,13.879],[79.3317,13.8858],[79.3222,13.8833],[79.3203,13.8863],[79.3208,13.8955],[79.3073,13.8986],[79.3069,13.9203],[79.2986,13.9141],[79.2939,13.9155],[79.2873,13.9139],[79.2775,13.9147],[79.272,13.9119],[79.2619,13.8998],[79.2461,13.8893],[79.2459,13.884],[79.2427,13.8788],[79.2434,13.8732],[79.1964,13.8582],[79.1775,13.8494],[79.1567,13.8436],[79.1332,13.8387],[79.1451,13.8346],[79.1537,13.83],[79.1655,13.8279],[79.1678,13.8252],[79.1845,13.8213],[79.1925,13.8161],[79.2033,13.813],[79.2132,13.8121],[79.2227,13.8073],[79.2279,13.8021],[79.2357,13.7875],[79.2399,13.7721],[79.2474,13.7717],[79.258,13.7678],[79.2704,13.7755],[79.2814,13.7844],[79.2921,13.7917],[79.3147,13.8041],[79.3277,13.8038],[79.334,13.8104],[79.3387,13.8119],[79.3569,13.8095],[79.367,13.8072],[79.3845,13.7989],[79.391,13.7931],[79.4005,13.7888],[79.4086,13.7885],[79.4151,13.7923]]]},"properties":{"id":"sri-venkateswara-wls","name":"Sri Venkateswara Wildlife Sanctuary","category":"wls","area_km2":172.4}}]}