{"type":"FeatureCollection","features":[{"type":"Feature","geometry":{"type":"Polygon","coordinates":[[[79.4151,13.7923],[79.4086,13.7885],[79.4005,13.7888],[79.391,13.7931],[79.3845,13.7989],[79.367,13.8072],[79.3569,13.8095],[79.3387,13.8119],[79.334,13.8104],[79.3277,13.8038],[79.3147,13.8041],[79.2921,13.7917],[79.2814,13.7844],[79.2704,13.7755],[79.258,13.7678],[79.2602,13.7624],[79.2638,13.7447],[79.2595,13.726],[79.2592,13.698],[79.2631,13.69],[79.2659,13.664],[79.2709,13.6467],[79.2808,13.6412],[79.2854,13.6421],[79.293,13.6242],[79.2947,13.6245],[79.3103,13.6162],[79.3182,13.6188],[79.3264,13.6143],[79.3286,13.6236],[79.3715,13.6275],[79.3874,13.6324],[79.4014,13.6451],[79.4204,13.6547],[79.4266,13.6529],[79.4264,13.6575],[79.4364,13.6576],[79.4448,13.6605],[79.4839,13.6647],[79.4889,13.6643],[79.5037,13.6688],[79.4919,13.6861],[79.4805,13.6867],[79.4745,13.6934],[79.4882,13.7035],[79.4843,13.7228],[79.4799,13.7288],[79.455,13.7494],[79.4185,13.7802],[79.415,13.7877],[79.4151,13.7923]],[[79.3468,13.6701],[79.3408,13.677],[79.3401,13.6847],[79.3431,13.6907],[79.3544,13.6933],[79.3588,13.6862],[79.3593,13.6813],[79.3559,13.678],[79.3525,13.6694],[79.3468,13.6701]]]},"properties":{"id":"sri-venkateswara-np","name":"Sri Venkateswara National Park","category":"np","area_km2":353.6}}]}