{"type":"FeatureCollection","features":[{"type":"Feature","geometry":{"type":"Polygon","coordinates":[[[79.3951,14.1802],[79.3977,14.1705],[79.4086,14.1567],[79.4115,14.1472],[79.411,14.1369],[79.4089,14.129],[79.3998,14.12],[79.392,14.1203],[79.3811,14.1239],[79.3699,14.1228],[79.3694,14.1161],[79.3711,14.1046],[79.3704,14.0887],[79.3746,14.0693],[79.3811,14.0562],[79.3884,14.0357],[79.4058,14.0018],[79.4146,13.9997],[79.4295,13.9999],[79.4417,14.0038],[79.4595,14.0114],[79.4821,14.0285],[79.4954,14.0327],[79.497,14.0393],[79.4918,14.0534],[79.4923,14.0753],[79.4966,14.0894],[79.497,14.1007],[79.4866,14.1274],[79.4847,14.1433],[79.489,14.1544],[79.5025,14.1677],[79.5068,14.1802],[79.5068,14.1972],[79.5044,14.1991],[79.4797,14.2014],[79.4752,14.206],[79.4766,14.2146],[79.485,14.2305],[79.5088,14.2613],[79.508,14.2668],[79.4994,14.2795],[79.4975,14.2869],[79.4959,14.3129],[79.4912,14.3225],[79.4607,14.332],[79.4471,14.3357],[79.4433,14.3452],[79.446,14.352],[79.4466,14.3595],[79.4397,14.366],[79.4251,14.37],[79.41,14.3718],[79.4033,14.3815],[79.3958,14.3966],[79.3884,14.4038],[79.3803,14.4064],[79.373,14.4162],[79.363,14.4463],[79.3547,14.4598],[79.3542,14.4664],[79.3509,14.4717],[79.3437,14.4782],[79.3385,14.4853],[79.329,14.489],[79.3093,14.4901],[79.3064,14.495],[79.3071,14.4993],[79.3146,14.5166],[79.3185,14.5221],[79.3228,14.5368],[79.3228,14.5511],[79.3204,14.5649],[79.3119,14.5833],[79.3043,14.5976],[79.2953,14.6086],[79.2829,14.6155],[79.2686,14.6252],[79.2558,14.639],[79.2444,14.6565],[79.2258,14.667],[79.203,14.6693],[79.1831,14.6689],[79.1778,14.667],[79.1669,14.6574],[79.1607,14.6482],[79.1583,14.633],[79.1888,14.5617],[79.2026,14.5318],[79.2273,14.5083],[79.2608,14.4961],[79.2774,14.4885],[79.29,14.4839],[79.2974,14.4775],[79.3032,14.4606],[79.3118,14.4427],[79.3089,14.4346],[79.2949,14.4348],[79.281,14.4429],[79.2658,14.441],[79.2606,14.4384],[79.2464,14.439],[79.2352,14.4449],[79.2274,14.4534],[79.2188,14.4569],[79.2011,14.4583],[79.1981,14.4644],[79.1971,14.4778],[79.195,14.4845],[79.1852,14.4966],[79.1833,14.501],[79.1827,14.5182],[79.1738,14.5351],[79.1724,14.5437],[79.1531,14.5912],[79.1507,14.6083],[79.1467,14.6214],[79.1395,14.6328],[79.138,14.6391],[79.1391,14.6551],[79.1342,14.67],[79.127,14.6806],[79.1186,14.6902],[79.107,14.6919],[79.103,14.6887],[79.1007,14.6823],[79.1095,14.6429],[79.1112,14.6301],[79.1074,14.5942],[79.1059,14.5732],[79.0988,14.566],[79.0933,14.5548],[79.0895,14.5391],[79.0895,14.5136],[79.0948,14.5018],[79.1053,14.4878],[79.1165,14.4756],[79.1268,14.4598],[79.1363,14.4386],[79.1443,14.4315],[79.158,14.4228],[79.1755,14.4005],[79.194,14.3737],[79.204,14.3696],[79.2114,14.3699],[79.2148,14.3863],[79.2198,14.3893],[79.2258,14.3874],[79.25,14.3618],[79.2603,14.3567],[79.2829,14.3475],[79.2973,14.3406],[79.3008,14.3366],[79.3046,14.3259],[79.3148,14.3161],[79.3253,14.3023],[79.3268,14.29],[79.3451,14.2806],[79.3531,14.2749],[79.3555,14.2706],[79.3559,14.2548],[79.3639,14.24],[79.3797,14.224],[79.3956,14.2133],[79.3989,14.1989],[79.3951,14.1802]]]},"properties":{"id":"sri-penusila-narasimha-wls","name":"Sri Penusila Narasimha Wildlife Sanctuary","category":"wls","area_km2":1030.9}}]}