{"type":"FeatureCollection","features":[{"type":"Feature","geometry":{"type":"MultiPolygon","coordinates":[[[[77.412,9.5101],[77.4096,9.5056],[77.4022,9.501],[77.399,9.4961],[77.3988,9.4814],[77.4019,9.4787],[77.3963,9.47],[77.3914,9.4688],[77.3924,9.4595],[77.3868,9.4557],[77.377,9.4528],[77.3658,9.4601],[77.3585,9.4536],[77.3562,9.4476],[77.3492,9.4411],[77.3484,9.4345],[77.3437,9.4232],[77.3396,9.4207],[77.3364,9.4123],[77.3437,9.4021],[77.3419,9.3979],[77.356,9.3937],[77.3654,9.3879],[77.3726,9.3884],[77.3719,9.3915],[77.3778,9.3932],[77.3793,9.3998],[77.3862,9.396],[77.3935,9.406],[77.3983,9.4156],[77.4055,9.4164],[77.4119,9.4221],[77.4224,9.4234],[77.4277,9.433],[77.4336,9.4328],[77.4412,9.4469],[77.4434,9.4668],[77.4588,9.4594],[77.4795,9.4601],[77.4823,9.4679],[77.4759,9.476],[77.4542,9.4833],[77.4448,9.489],[77.45,9.4937],[77.4589,9.4884],[77.4656,9.4891],[77.4639,9.493],[77.4687,9.4996],[77.4526,9.506],[77.4536,9.5104],[77.4606,9.5106],[77.4714,9.5153],[77.4795,9.5126],[77.4818,9.5082],[77.4858,9.5096],[77.4916,9.5038],[77.4936,9.5085],[77.4985,9.5105],[77.5065,9.5207],[77.5164,9.5279],[77.5281,9.5303],[77.5427,9.5312],[77.5516,9.5376],[77.5491,9.5423],[77.5606,9.5428],[77.5738,9.5498],[77.5791,9.5501],[77.5845,9.5538],[77.5927,9.5629],[77.6071,9.5632],[77.6251,9.5599],[77.6306,9.5645],[77.6324,9.5753],[77.643,9.5737],[77.6494,9.5699],[77.664,9.5733],[77.6767,9.5781],[77.6809,9.5831],[77.6787,9.5848],[77.6714,9.5829],[77.6589,9.5897],[77.6475,9.5914],[77.6372,9.5909],[77.6156,9.5972],[77.6108,9.5939],[77.6012,9.5988],[77.5983,9.6026],[77.6029,9.6115],[77.5975,9.6196],[77.5816,9.6136],[77.5675,9.6134],[77.5364,9.6001],[77.5319,9.6021],[77.5355,9.6162],[77.5389,9.6227],[77.5425,9.6366],[77.5391,9.6379],[77.5323,9.6276],[77.5258,9.6329],[77.5177,9.63],[77.5205,9.6376],[77.5265,9.6455],[77.5297,9.6529],[77.5387,9.6604],[77.5452,9.661],[77.5449,9.65],[77.5463,9.6475],[77.5544,9.6563],[77.5585,9.6629],[77.5701,9.6754],[77.5906,9.6949],[77.5986,9.6998],[77.6312,9.709],[77.6388,9.7091],[77.6454,9.7072],[77.6511,9.7019],[77.6533,9.6952],[77.6606,9.6849],[77.6697,9.68],[77.6802,9.68],[77.6863,9.6896],[77.6954,9.6988],[77.7024,9.6919],[77.707,9.6955],[77.71,9.7046],[77.7193,9.7162],[77.7223,9.7243],[77.7245,9.7383],[77.71,9.742],[77.7072,9.7414],[77.7021,9.7494],[77.6901,9.7551],[77.6841,9.7635],[77.6704,9.7637],[77.6596,9.7712],[77.6536,9.7772],[77.6457,9.7764],[77.6393,9.7844],[77.6411,9.7938],[77.6395,9.7966],[77.6313,9.7953],[77.6225,9.7806],[77.6176,9.778],[77.6091,9.7821],[77.6003,9.7781],[77.5843,9.764],[77.5813,9.7592],[77.5685,9.7471],[77.559,9.7362],[77.5484,9.7173],[77.5382,9.6968],[77.5357,9.6784],[77.5318,9.6676],[77.5234,9.6567],[77.5112,9.647],[77.5079,9.6415],[77.5084,9.6279],[77.5171,9.6215],[77.5169,9.617],[77.5047,9.5986],[77.5,9.5958],[77.4984,9.5866],[77.4864,9.5826],[77.4336,9.5274],[77.4294,9.5211],[77.4257,9.5199],[77.412,9.5101]]],[[[77.6003,9.8061],[77.6263,9.8027],[77.6336,9.8175],[77.6419,9.829],[77.6431,9.8402],[77.6463,9.8482],[77.6467,9.8567],[77.6497,9.8675],[77.6466,9.8711],[77.6482,9.8755],[77.6573,9.8784],[77.6688,9.8928],[77.6731,9.8942],[77.6826,9.9034],[77.6877,9.9062],[77.6995,9.9059],[77.7106,9.8981],[77.7255,9.8943],[77.7306,9.8978],[77.7364,9.8951],[77.7387,9.8906],[77.7513,9.8942],[77.7575,9.9025],[77.7641,9.9063],[77.7686,9.9118],[77.7823,9.9176],[77.7857,9.9148],[77.7906,9.9156],[77.7894,9.9227],[77.7854,9.9274],[77.7756,9.9307],[77.7645,9.9292],[77.7505,9.9313],[77.7491,9.9344],[77.7611,9.9458],[77.7702,9.9516],[77.7724,9.9551],[77.7683,9.96],[77.7589,9.9577],[77.7529,9.9587],[77.7479,9.9516],[77.7355,9.9453],[77.7178,9.9458],[77.7069,9.9524],[77.6977,9.9594],[77.6924,9.955],[77.6913,9.9488],[77.6845,9.9525],[77.6745,9.9521],[77.6654,9.9438],[77.6616,9.9335],[77.6532,9.9323],[77.6499,9.9389],[77.6453,9.9392],[77.6466,9.9472],[77.6376,9.9512],[77.6198,9.944],[77.6114,9.933],[77.6097,9.9271],[77.6126,9.9227],[77.6275,9.9265],[77.6437,9.9118],[77.6392,9.9085],[77.6377,9.903],[77.6308,9.8997],[77.6309,9.8941],[77.6392,9.8956],[77.6398,9.8928],[77.6344,9.8815],[77.6169,9.87],[77.6182,9.8808],[77.6208,9.8846],[77.6129,9.8928],[77.6068,9.892],[77.5991,9.8966],[77.5947,9.8899],[77.5951,9.884],[77.6008,9.868],[77.6,9.8596],[77.5922,9.8598],[77.5793,9.8557],[77.5779,9.8604],[77.5738,9.86],[77.5802,9.8675],[77.5845,9.8697],[77.5853,9.8742],[77.5778,9.8724],[77.5826,9.8782],[77.5821,9.8871],[77.5716,9.8866],[77.5647,9.8807],[77.5577,9.8809],[77.5554,9.8873],[77.5499,9.8854],[77.544,9.8926],[77.5439,9.8976],[77.5383,9.8962],[77.5218,9.8974],[77.5229,9.8918],[77.5158,9.8814],[77.5104,9.8684],[77.5127,9.8621],[77.5072,9.8508],[77.4991,9.8416],[77.5026,9.8384],[77.5056,9.8416],[77.5115,9.8423],[77.5,9.8246],[77.5071,9.8228],[77.5098,9.8197],[77.5115,9.8305],[77.5161,9.8321],[77.5269,9.8403],[77.5324,9.8318],[77.5446,9.8411],[77.5493,9.8416],[77.5496,9.8375],[77.5338,9.8243],[77.5289,9.8231],[77.5274,9.8192],[77.5196,9.81],[77.5131,9.8116],[77.5116,9.8067],[77.5179,9.8065],[77.5231,9.7982],[77.5272,9.7969],[77.5231,9.7896],[77.5284,9.7904],[77.5523,9.8048],[77.5629,9.8143],[77.5824,9.8164],[77.5899,9.8185],[77.5808,9.8048],[77.5716,9.8038],[77.558,9.798],[77.5681,9.7981],[77.556,9.7932],[77.5591,9.7925],[77.5718,9.7957],[77.5786,9.796],[77.5859,9.8001],[77.5911,9.8059],[77.604,9.8247],[77.6006,9.8274],[77.6058,9.8337],[77.6109,9.8334],[77.6095,9.8218],[77.6073,9.8161],[77.6003,9.8061]]]]},"properties":{"id":"srivilliputhur-megamalai-tr","name":"Srivilliputhur-Megamalai Tiger Reserve","category":"tr","area_km2":1016.6}}]}