{"type":"FeatureCollection","features":[{"type":"Feature","geometry":{"type":"Polygon","coordinates":[[[77.412,9.5101],[77.4096,9.5056],[77.4022,9.501],[77.399,9.4961],[77.3988,9.4814],[77.4019,9.4787],[77.3963,9.47],[77.3914,9.4688],[77.3924,9.4595],[77.3868,9.4557],[77.377,9.4528],[77.3658,9.4601],[77.3585,9.4536],[77.3562,9.4476],[77.3492,9.4411],[77.3484,9.4345],[77.3437,9.4232],[77.3396,9.4207],[77.3364,9.4123],[77.3437,9.4021],[77.3419,9.3979],[77.356,9.3937],[77.3654,9.3879],[77.3726,9.3884],[77.3719,9.3915],[77.3778,9.3932],[77.3793,9.3998],[77.3862,9.396],[77.3935,9.406],[77.3983,9.4156],[77.4055,9.4164],[77.4119,9.4221],[77.4224,9.4234],[77.4277,9.433],[77.4336,9.4328],[77.4412,9.4469],[77.4434,9.4668],[77.4588,9.4594],[77.4795,9.4601],[77.4823,9.4679],[77.4759,9.476],[77.4542,9.4833],[77.4448,9.489],[77.45,9.4937],[77.4589,9.4884],[77.4656,9.4891],[77.4639,9.493],[77.4687,9.4996],[77.4526,9.506],[77.4536,9.5104],[77.4606,9.5106],[77.4714,9.5153],[77.4795,9.5126],[77.4818,9.5082],[77.4858,9.5096],[77.4916,9.5038],[77.4936,9.5085],[77.4985,9.5105],[77.5065,9.5207],[77.5164,9.5279],[77.5281,9.5303],[77.5427,9.5312],[77.5516,9.5376],[77.5491,9.5423],[77.5606,9.5428],[77.5738,9.5498],[77.5791,9.5501],[77.5845,9.5538],[77.5927,9.5629],[77.6071,9.5632],[77.6251,9.5599],[77.6306,9.5645],[77.6324,9.5753],[77.643,9.5737],[77.6494,9.5699],[77.664,9.5733],[77.6767,9.5781],[77.6809,9.5831],[77.6787,9.5848],[77.6714,9.5829],[77.6589,9.5897],[77.6475,9.5914],[77.6372,9.5909],[77.6156,9.5972],[77.6108,9.5939],[77.6012,9.5988],[77.5983,9.6026],[77.6029,9.6115],[77.5975,9.6196],[77.5816,9.6136],[77.5675,9.6134],[77.5364,9.6001],[77.5319,9.6021],[77.5355,9.6162],[77.5389,9.6227],[77.5425,9.6366],[77.5391,9.6379],[77.5323,9.6276],[77.5258,9.6329],[77.5177,9.63],[77.5205,9.6376],[77.5265,9.6455],[77.5297,9.6529],[77.5387,9.6604],[77.5452,9.661],[77.5449,9.65],[77.5463,9.6475],[77.5544,9.6563],[77.5585,9.6629],[77.5701,9.6754],[77.5906,9.6949],[77.5986,9.6998],[77.6312,9.709],[77.6388,9.7091],[77.6454,9.7072],[77.6511,9.7019],[77.6533,9.6952],[77.6606,9.6849],[77.6697,9.68],[77.6802,9.68],[77.6863,9.6896],[77.6954,9.6988],[77.7024,9.6919],[77.707,9.6955],[77.71,9.7046],[77.7193,9.7162],[77.7223,9.7243],[77.7245,9.7383],[77.71,9.742],[77.7072,9.7414],[77.7021,9.7494],[77.6901,9.7551],[77.6841,9.7635],[77.6704,9.7637],[77.6596,9.7712],[77.6536,9.7772],[77.6457,9.7764],[77.6393,9.7844],[77.6411,9.7938],[77.6395,9.7966],[77.6313,9.7953],[77.6225,9.7806],[77.6176,9.778],[77.6091,9.7821],[77.6003,9.7781],[77.5843,9.764],[77.5813,9.7592],[77.5685,9.7471],[77.559,9.7362],[77.5484,9.7173],[77.5382,9.6968],[77.5357,9.6784],[77.5318,9.6676],[77.5234,9.6567],[77.5112,9.647],[77.5079,9.6415],[77.5084,9.6279],[77.5171,9.6215],[77.5169,9.617],[77.5047,9.5986],[77.5,9.5958],[77.4984,9.5866],[77.4864,9.5826],[77.4336,9.5274],[77.4294,9.5211],[77.4257,9.5199],[77.412,9.5101]]]},"properties":{"id":"srivilliputhur-giant-squirrel-wls","name":"Srivilliputhur (Giant Squirrel) Wildlife Sanctuary","category":"wls","area_km2":485.2}}]}