{"type":"FeatureCollection","features":[{"type":"Feature","geometry":{"type":"Polygon","coordinates":[[[73.3464,18.504],[73.3578,18.505],[73.3623,18.5106],[73.3686,18.5077],[73.3738,18.5089],[73.3781,18.5192],[73.3766,18.5309],[73.3853,18.5414],[73.3859,18.549],[73.3788,18.5513],[73.365,18.549],[73.364,18.5517],[73.3704,18.5524],[73.3824,18.5584],[73.391,18.5581],[73.4041,18.5629],[73.4041,18.57],[73.3985,18.576],[73.3879,18.5815],[73.3785,18.5909],[73.3765,18.608],[73.3732,18.6116],[73.3639,18.6145],[73.3521,18.6158],[73.3331,18.6122],[73.3301,18.6051],[73.3208,18.6057],[73.3175,18.6002],[73.3196,18.5891],[73.3137,18.5851],[73.3122,18.5749],[73.3079,18.5681],[73.3169,18.5509],[73.316,18.5449],[73.3083,18.5438],[73.3099,18.5376],[73.3197,18.526],[73.3242,18.5238],[73.3314,18.5165],[73.3334,18.5083],[73.3414,18.5038],[73.3464,18.504]]]},"properties":{"id":"sudha-gad-fort-wls","name":"Sudhagad Wildlife Sanctuary","category":"wls","area_km2":77.1}}]}