{"type":"FeatureCollection","features":[{"type":"Feature","geometry":{"type":"Polygon","coordinates":[[[76.8293,30.786],[76.8134,30.7738],[76.8203,30.7678],[76.8255,30.7659],[76.8277,30.7587],[76.8323,30.7585],[76.8427,30.7532],[76.8495,30.7441],[76.8529,30.7423],[76.8756,30.7501],[76.8872,30.7502],[76.885,30.7583],[76.8788,30.7567],[76.8743,30.7595],[76.8776,30.7658],[76.8771,30.7703],[76.8711,30.7704],[76.862,30.7671],[76.8587,30.7703],[76.8718,30.7753],[76.8755,30.7809],[76.8721,30.7873],[76.8564,30.7767],[76.8553,30.7802],[76.8673,30.7963],[76.8666,30.803],[76.8457,30.7973],[76.8348,30.7918],[76.8293,30.786]]]},"properties":{"id":"sukna-lake-wildlife-sanctuary-wls","name":"Sukna Lake Wildlife Sanctuary","category":"wls","area_km2":26}}]}