{"type":"FeatureCollection","features":[{"type":"Feature","geometry":{"type":"Polygon","coordinates":[[[82.5267,20.6375],[82.5258,20.6504],[82.5314,20.656],[82.5282,20.6699],[82.5303,20.6782],[82.5278,20.6865],[82.5378,20.7018],[82.5399,20.7141],[82.5329,20.7394],[82.5212,20.7582],[82.5152,20.7622],[82.502,20.7651],[82.4845,20.7625],[82.4663,20.756],[82.4487,20.7373],[82.4539,20.7279],[82.4806,20.7246],[82.4848,20.7218],[82.4833,20.7174],[82.4685,20.7137],[82.4575,20.7057],[82.4533,20.6962],[82.4509,20.6957],[82.45,20.709],[82.4456,20.7212],[82.4402,20.7251],[82.4333,20.7265],[82.4313,20.7209],[82.4327,20.7017],[82.4369,20.6854],[82.4349,20.6832],[82.4077,20.6887],[82.4025,20.6968],[82.3884,20.7047],[82.3849,20.7079],[82.3793,20.7065],[82.3764,20.7018],[82.3799,20.6857],[82.3778,20.6821],[82.3668,20.6865],[82.3594,20.6856],[82.3624,20.6806],[82.368,20.6788],[82.3742,20.6672],[82.3688,20.6595],[82.3687,20.6489],[82.3749,20.6386],[82.3765,20.6324],[82.3713,20.6263],[82.3643,20.6216],[82.3654,20.6163],[82.3626,20.6102],[82.3553,20.6088],[82.3522,20.6028],[82.3473,20.6028],[82.3438,20.5958],[82.3507,20.5813],[82.3475,20.5754],[82.3392,20.5694],[82.3338,20.5689],[82.3321,20.562],[82.3366,20.5538],[82.3488,20.5459],[82.3587,20.5278],[82.3689,20.5225],[82.3792,20.5206],[82.3895,20.5169],[82.3882,20.5121],[82.3883,20.4955],[82.3904,20.4869],[82.3936,20.482],[82.3921,20.4785],[82.3978,20.4728],[82.3973,20.4642],[82.3947,20.4618],[82.4054,20.4586],[82.4095,20.4619],[82.4089,20.4656],[82.4155,20.4742],[82.417,20.4802],[82.4237,20.4749],[82.4271,20.4689],[82.4257,20.4454],[82.4344,20.4442],[82.438,20.4342],[82.4297,20.4277],[82.432,20.4166],[82.4232,20.4113],[82.4363,20.4091],[82.4412,20.4036],[82.4584,20.4001],[82.4593,20.4029],[82.4664,20.4024],[82.4675,20.4052],[82.475,20.4035],[82.4786,20.405],[82.487,20.4034],[82.4968,20.4047],[82.5197,20.4139],[82.5187,20.4215],[82.5259,20.4191],[82.5283,20.4215],[82.5405,20.4215],[82.5455,20.4186],[82.5595,20.419],[82.5657,20.4228],[82.5685,20.4195],[82.5711,20.4242],[82.5759,20.4552],[82.5752,20.4636],[82.5719,20.4703],[82.5671,20.4864],[82.5463,20.5302],[82.5362,20.5433],[82.5169,20.5895],[82.5115,20.6031],[82.5115,20.6156],[82.5133,20.6237],[82.5243,20.6323],[82.5267,20.6375]]]},"properties":{"id":"sunabeda-wls","name":"Sunabeda Wildlife Sanctuary","category":"wls","area_km2":500}}]}