{"type":"FeatureCollection","features":[{"type":"Feature","geometry":{"type":"MultiPolygon","coordinates":[[[[88.8647,21.5972],[88.8472,21.6016],[88.8321,21.6085],[88.8298,21.6032],[88.8306,21.5972],[88.8261,21.572],[88.8293,21.5724],[88.8312,21.5512],[88.8397,21.5491],[88.842,21.5462],[88.8558,21.5366],[88.8815,21.5342],[88.8916,21.538],[88.906,21.5476],[88.9057,21.5556],[88.8975,21.5753],[88.8919,21.5812],[88.8849,21.5831],[88.877,21.5916],[88.8692,21.5966],[88.8647,21.5972]]],[[[89.1504,21.5966],[89.1466,21.6005],[89.1403,21.5955],[89.1401,21.6003],[89.1352,21.5991],[89.136,21.5948],[89.1422,21.5925],[89.1504,21.5966]]],[[[88.769,21.656],[88.7592,21.6525],[88.7524,21.648],[88.7438,21.6521],[88.7303,21.6641],[88.7078,21.6814],[88.7018,21.6879],[88.6993,21.6953],[88.6983,21.7104],[88.6925,21.7202],[88.6867,21.6895],[88.6844,21.6843],[88.6873,21.6793],[88.7064,21.6608],[88.7139,21.6514],[88.7175,21.644],[88.7188,21.6347],[88.7175,21.6228],[88.7121,21.6147],[88.7072,21.5901],[88.7086,21.5847],[88.7154,21.5725],[88.7262,21.5666],[88.742,21.5622],[88.7467,21.5651],[88.7597,21.5648],[88.7761,21.5698],[88.7781,21.5749],[88.7948,21.5821],[88.8,21.5912],[88.7972,21.5971],[88.776,21.6196],[88.7716,21.6318],[88.7738,21.6401],[88.7769,21.6435],[88.7747,21.6493],[88.769,21.656]]],[[[88.9949,21.8886],[88.9839,21.8952],[88.9373,21.9148],[88.9248,21.9226],[88.9174,21.9288],[88.9118,21.9309],[88.9084,21.9243],[88.9026,21.921],[88.8884,21.9164],[88.8749,21.9199],[88.8597,21.9127],[88.8493,21.9127],[88.8386,21.9178],[88.8216,21.9302],[88.819,21.9293],[88.8254,21.9139],[88.8399,21.9064],[88.8496,21.8965],[88.8532,21.8889],[88.8545,21.8797],[88.8537,21.8662],[88.843,21.8555],[88.8368,21.843],[88.8374,21.8319],[88.8415,21.8156],[88.839,21.7944],[88.8351,21.7828],[88.8502,21.7824],[88.8583,21.781],[88.8733,21.772],[88.8772,21.7666],[88.8803,21.7459],[88.8716,21.7191],[88.8696,21.7042],[88.8715,21.6948],[88.8797,21.6853],[88.8825,21.674],[88.8841,21.6612],[88.8911,21.6524],[88.9047,21.6459],[88.9091,21.6399],[88.9175,21.6321],[88.923,21.6323],[88.9286,21.6552],[88.933,21.6643],[88.9401,21.689],[88.9395,21.6966],[88.9352,21.7028],[88.9259,21.7061],[88.9147,21.7162],[88.9144,21.7315],[88.922,21.7418],[88.9223,21.7448],[88.9173,21.7514],[88.9162,21.7591],[88.9228,21.7612],[88.9313,21.7498],[88.9309,21.7388],[88.9213,21.7215],[88.9368,21.7127],[88.949,21.702],[88.9513,21.6939],[88.9528,21.6812],[88.9435,21.6621],[88.943,21.6567],[88.9387,21.6461],[88.9542,21.6272],[88.9683,21.6198],[88.9798,21.6154],[88.9895,21.616],[88.9953,21.6222],[88.9979,21.6165],[88.998,21.6032],[89.0067,21.6038],[89.0238,21.6029],[89.0277,21.6051],[89.0355,21.6154],[89.0352,21.6258],[89.0233,21.6341],[89.02,21.6404],[89.0213,21.6519],[89.0241,21.6582],[89.027,21.6525],[89.0243,21.6456],[89.0292,21.6351],[89.0379,21.6318],[89.0488,21.6239],[89.0505,21.6156],[89.0681,21.6174],[89.078,21.6255],[89.0798,21.6293],[89.0878,21.6344],[89.0942,21.6413],[89.0936,21.6637],[89.0853,21.6766],[89.0727,21.6899],[89.0674,21.6922],[89.0719,21.6991],[89.0703,21.7062],[89.0641,21.7131],[89.0616,21.7223],[89.0556,21.7276],[89.0559,21.7325],[89.0418,21.7411],[89.0195,21.7662],[89.0124,21.7942],[89.016,21.8128],[89.0284,21.8314],[89.0291,21.8455],[89.0275,21.8502],[89.0313,21.864],[89.0248,21.8713],[88.9949,21.8886]]],[[[88.7488,21.9261],[88.7426,21.9209],[88.7345,21.9217],[88.7228,21.9346],[88.7166,21.9207],[88.7159,21.9036],[88.7133,21.8899],[88.6989,21.8591],[88.6961,21.8425],[88.6993,21.8365],[88.7077,21.8136],[88.7111,21.8069],[88.7123,21.7998],[88.7113,21.787],[88.7048,21.7717],[88.6946,21.7534],[88.6938,21.7453],[88.7049,21.7183],[88.7091,21.6968],[88.7114,21.6896],[88.7176,21.6835],[88.7279,21.6772],[88.7448,21.6608],[88.75,21.6582],[88.7571,21.6627],[88.7703,21.6657],[88.7768,21.6639],[88.7922,21.6562],[88.7964,21.6559],[88.8079,21.6627],[88.807,21.6758],[88.8085,21.684],[88.8099,21.7045],[88.8069,21.7067],[88.7993,21.7063],[88.791,21.7034],[88.7765,21.696],[88.7687,21.6937],[88.7595,21.697],[88.7565,21.703],[88.7604,21.7129],[88.7666,21.7171],[88.7776,21.7213],[88.7759,21.7254],[88.7576,21.7285],[88.7524,21.7333],[88.7508,21.7378],[88.7532,21.752],[88.7598,21.7618],[88.7483,21.7662],[88.7455,21.7732],[88.7574,21.7825],[88.7641,21.7896],[88.7702,21.8054],[88.7748,21.8103],[88.774,21.8168],[88.777,21.8254],[88.7811,21.8252],[88.7764,21.8164],[88.7777,21.8105],[88.7717,21.8019],[88.7657,21.7864],[88.7509,21.7721],[88.7512,21.7695],[88.7622,21.7675],[88.7672,21.7633],[88.7653,21.7592],[88.7585,21.7536],[88.7551,21.7445],[88.7559,21.7353],[88.777,21.7324],[88.7899,21.7379],[88.7835,21.7414],[88.7915,21.7401],[88.7935,21.736],[88.7809,21.732],[88.7844,21.7234],[88.7807,21.7144],[88.7627,21.7044],[88.7643,21.7004],[88.7708,21.7013],[88.7858,21.7119],[88.803,21.7175],[88.8093,21.7158],[88.8146,21.7107],[88.8194,21.7007],[88.8174,21.6872],[88.8222,21.6735],[88.8224,21.667],[88.82,21.6579],[88.8108,21.644],[88.8045,21.6372],[88.8082,21.6322],[88.8173,21.6273],[88.8248,21.6273],[88.8281,21.6242],[88.8456,21.6191],[88.845,21.6273],[88.8541,21.6335],[88.8615,21.6409],[88.8574,21.6532],[88.85,21.6662],[88.8432,21.6825],[88.8404,21.6993],[88.8412,21.7169],[88.8451,21.7303],[88.8521,21.7441],[88.8631,21.7548],[88.8637,21.7636],[88.8481,21.7643],[88.8326,21.7662],[88.8245,21.7744],[88.8215,21.7814],[88.8224,21.7943],[88.8308,21.8081],[88.8222,21.826],[88.8201,21.8378],[88.8325,21.867],[88.8382,21.8767],[88.8398,21.8864],[88.8334,21.8964],[88.8276,21.9001],[88.8133,21.9038],[88.8053,21.9127],[88.799,21.9221],[88.787,21.9196],[88.7727,21.9268],[88.7611,21.9296],[88.7488,21.9261]]],[[[88.9539,22],[88.9436,22.0009],[88.9444,21.9861],[88.9365,21.9746],[88.9261,21.9675],[88.925,21.9612],[88.9284,21.9514],[88.9288,21.9451],[88.9363,21.936],[88.9465,21.9288],[88.963,21.9253],[88.9825,21.9147],[88.9948,21.9062],[89.0123,21.903],[89.0193,21.9211],[89.0133,21.9315],[89.0069,21.9374],[88.9911,21.9441],[88.9888,21.9553],[88.9942,21.9648],[89.01,21.9774],[89.0045,21.9824],[88.9924,21.9724],[88.9876,21.9715],[88.9838,21.976],[88.9844,21.9846],[88.9689,21.9888],[88.9648,21.9955],[88.9562,21.9971],[88.9539,22]]],[[[89.0288,22.2136],[89.0229,22.2154],[89.0165,22.2123],[89.0186,22.2066],[89.0131,22.1985],[89.0055,22.2004],[88.9916,22.2006],[88.9867,22.1979],[88.9752,22.1952],[88.9655,22.1949],[88.9657,22.1904],[88.9419,22.1921],[88.9445,22.1845],[88.9301,22.1772],[88.9241,22.1781],[88.9226,22.1651],[88.9123,22.1632],[88.9001,22.1714],[88.8926,22.173],[88.8915,22.1664],[88.895,22.1599],[88.9044,22.1482],[88.9069,22.1339],[88.9216,22.1197],[88.9272,22.1089],[88.9278,22.0999],[88.9258,22.0949],[88.915,22.0857],[88.9042,22.0814],[88.897,22.0721],[88.8977,22.0626],[88.9056,22.049],[88.9044,22.0414],[88.9061,22.0142],[88.9081,22.0097],[88.9151,22.0085],[88.912,21.9954],[88.916,21.9817],[88.9178,21.9809],[88.9311,21.9889],[88.9339,21.9927],[88.9306,22.0005],[88.9357,22.0118],[88.9536,22.0122],[88.9644,22.0061],[88.971,22.0001],[88.9693,21.9938],[88.9838,21.9891],[88.989,21.9834],[88.9883,21.9744],[88.9906,21.9753],[89.0003,21.9877],[89.0137,21.9965],[89.0272,21.9975],[89.0155,21.995],[89.0015,21.9867],[89.0118,21.9843],[89.0143,21.98],[89.0125,21.973],[88.9974,21.9575],[88.9967,21.9522],[89.0024,21.9454],[89.0157,21.9395],[89.0278,21.9289],[89.0351,21.927],[89.0513,21.93],[89.0642,21.9304],[89.0695,21.9339],[89.0763,21.9594],[89.0797,21.984],[89.0772,22.0064],[89.0727,22.0193],[89.0553,22.0404],[89.0516,22.0486],[89.0433,22.0617],[89.0399,22.0763],[89.0378,22.0923],[89.0416,22.1056],[89.0508,22.1162],[89.0656,22.1238],[89.0788,22.1345],[89.0948,22.1428],[89.098,22.1474],[89.0982,22.1547],[89.0912,22.1582],[89.0878,22.1565],[89.0794,22.1472],[89.0738,22.1452],[89.069,22.1515],[89.064,22.1665],[89.0647,22.1777],[89.0573,22.1816],[89.0562,22.1893],[89.0631,22.1904],[89.0622,22.1946],[89.0554,22.1997],[89.0553,22.2043],[89.0467,22.2019],[89.0453,22.207],[89.0406,22.2055],[89.0338,22.2075],[89.0342,22.2114],[89.0288,22.2136]]]]},"properties":{"id":"sundarbans-tr","name":"Sundarbans Tiger Reserve","category":"tr","area_km2":1330.1}}]}