{"type":"FeatureCollection","features":[{"type":"Feature","geometry":{"type":"Polygon","coordinates":[[[88.1885,21.4235],[88.2267,21.4779],[88.2823,21.5168],[88.3838,21.5493],[88.4813,21.4922],[88.5971,21.5128],[88.6915,21.5342],[88.7788,21.5081],[88.8525,21.4938],[88.8866,21.5073],[88.9715,21.5461],[89.0104,21.5668],[89.0413,21.5755],[89.0754,21.5993],[89.0992,21.6205],[89.1019,21.6335],[89.095,21.6513],[89.0548,21.724],[89.0234,21.7506],[89.0177,21.7622],[89.0072,21.8025],[89.0209,21.8269],[89.0275,21.8479],[89.0275,21.865],[89.005,21.888],[89.0061,21.9156],[89.0179,21.9275],[89.0419,21.9458],[89.0543,21.9768],[89.0532,22.0136],[89.0461,22.0381],[89.0287,22.0672],[89.0202,22.097],[89.0301,22.1161],[89.0401,22.1273],[89.0368,22.14],[89.0176,22.1493],[89.0045,22.1709],[88.9986,22.2109],[88.9865,22.212],[88.9612,22.2077],[88.955,22.2166],[88.9411,22.2252],[88.9454,22.2059],[88.9426,22.1995],[88.9338,22.1992],[88.9253,22.1965],[88.9262,22.1901],[88.9228,22.1855],[88.912,22.1859],[88.906,22.1737],[88.8984,22.1706],[88.8941,22.1772],[88.8807,22.1819],[88.8749,22.1764],[88.8834,22.1514],[88.9063,22.1182],[88.9078,22.1015],[88.8898,22.0954],[88.8743,22.0954],[88.8597,22.0896],[88.839,22.1039],[88.8335,22.1164],[88.8236,22.1301],[88.8058,22.1308],[88.7875,22.1277],[88.7351,22.082],[88.7223,22.0628],[88.7125,22.0593],[88.7047,22.065],[88.6782,22.0674],[88.6675,22.0637],[88.66,22.0572],[88.6428,22.0571],[88.6287,22.0517],[88.6169,22.041],[88.6084,22.0291],[88.6017,22.016],[88.5919,22.005],[88.5865,21.9913],[88.5761,21.9916],[88.566,21.9843],[88.5651,21.9679],[88.5603,21.9581],[88.5545,21.9676],[88.5473,21.9738],[88.5375,21.9787],[88.5304,21.9709],[88.5319,21.9594],[88.5362,21.9475],[88.5356,21.9243],[88.5423,21.9179],[88.5575,21.9097],[88.5539,21.9027],[88.5322,21.9088],[88.5283,21.9027],[88.5344,21.8936],[88.5335,21.8811],[88.5249,21.8719],[88.5261,21.8604],[88.5192,21.8589],[88.4969,21.8757],[88.495,21.8837],[88.5039,21.9042],[88.5092,21.9108],[88.5219,21.9207],[88.5228,21.9331],[88.5171,21.9441],[88.5099,21.9508],[88.4972,21.9564],[88.4872,21.9639],[88.504,21.9815],[88.499,21.9862],[88.4866,21.9785],[88.482,21.9721],[88.4789,21.9597],[88.4853,21.9505],[88.4939,21.9456],[88.4939,21.9274],[88.4872,21.9182],[88.4732,21.9109],[88.4661,21.9045],[88.4656,21.8964],[88.4774,21.8933],[88.4769,21.881],[88.4903,21.854],[88.4945,21.8411],[88.5028,21.8326],[88.5162,21.8287],[88.5223,21.8241],[88.5192,21.8146],[88.5101,21.804],[88.5095,21.8092],[88.4989,21.8197],[88.4911,21.8303],[88.4818,21.8351],[88.4808,21.8287],[88.4848,21.8238],[88.4851,21.8107],[88.4592,21.791],[88.4519,21.7814],[88.4437,21.7476],[88.4399,21.7093],[88.4246,21.7094],[88.4046,21.6936],[88.3982,21.6852],[88.3987,21.6543],[88.4142,21.6354],[88.4163,21.6246],[88.4037,21.6226],[88.3969,21.618],[88.3859,21.6064],[88.3797,21.6043],[88.3747,21.6073],[88.3747,21.6162],[88.3768,21.6251],[88.3749,21.6315],[88.3754,21.6422],[88.3699,21.6463],[88.3581,21.6475],[88.3587,21.6562],[88.3541,21.6674],[88.3445,21.6776],[88.3295,21.6888],[88.2956,21.6956],[88.2894,21.7017],[88.2963,21.7061],[88.3083,21.707],[88.3151,21.7015],[88.3325,21.7022],[88.3283,21.7103],[88.3302,21.7201],[88.3237,21.7258],[88.3168,21.7271],[88.3072,21.7237],[88.2977,21.7275],[88.2929,21.7748],[88.2798,21.7819],[88.2544,21.7912],[88.2506,21.8099],[88.2614,21.8118],[88.2711,21.8187],[88.2903,21.8238],[88.3001,21.8347],[88.2928,21.8363],[88.2826,21.8355],[88.2599,21.8249],[88.2449,21.8115],[88.242,21.7993],[88.2433,21.7892],[88.2477,21.7743],[88.2648,21.7569],[88.2825,21.7672],[88.2842,21.7506],[88.2792,21.7169],[88.2838,21.6942],[88.291,21.6812],[88.2968,21.6661],[88.2781,21.6249],[88.2737,21.6025],[88.2853,21.5902],[88.291,21.5758],[88.2736,21.5594],[88.2567,21.5608],[88.2442,21.5808],[88.2542,21.6004],[88.2422,21.5972],[88.2268,21.5859],[88.2304,21.5939],[88.2306,21.6097],[88.2195,21.6147],[88.2163,21.6272],[88.2311,21.6453],[88.2203,21.6509],[88.2008,21.62],[88.2078,21.6042],[88.2001,21.5975],[88.19,21.6097],[88.1806,21.6321],[88.1763,21.6574],[88.169,21.6711],[88.1539,21.6558],[88.1425,21.6372],[88.1445,21.6206],[88.1387,21.6011],[88.1373,21.5729],[88.1394,21.552],[88.1582,21.5238],[88.1705,21.4978],[88.1748,21.4567],[88.1885,21.4235]]]},"properties":{"id":"sunderbans-wetland-ramsar","name":"Sunderbans Wetland","category":"ramsar","area_km2":4230}}]}