{"type":"FeatureCollection","features":[{"type":"Feature","geometry":{"type":"Polygon","coordinates":[[[77.8363,27.2433],[77.8449,27.2414],[77.8424,27.2382],[77.8514,27.2358],[77.8573,27.2374],[77.8622,27.2351],[77.8688,27.2429],[77.8768,27.2451],[77.8706,27.2499],[77.8597,27.2511],[77.8514,27.2587],[77.8472,27.2556],[77.8419,27.2563],[77.8409,27.2635],[77.8342,27.2658],[77.8275,27.2611],[77.8284,27.2557],[77.8337,27.2491],[77.8309,27.2438],[77.8358,27.2402],[77.8363,27.2433]]]},"properties":{"id":"sur-sarovar-bird-wls","name":"Sur Sarovar Bird Sanctuary","category":"wls","area_km2":4}}]}