{"type":"FeatureCollection","features":[{"type":"Feature","geometry":{"type":"Polygon","coordinates":[[[84.1388,25.8328],[84.1406,25.8213],[84.1472,25.8211],[84.1559,25.8128],[84.1662,25.8201],[84.1738,25.8211],[84.1761,25.8257],[84.1821,25.8191],[84.1865,25.8222],[84.1904,25.8159],[84.1959,25.815],[84.2027,25.8178],[84.2006,25.8215],[84.2011,25.8337],[84.205,25.8372],[84.2067,25.8449],[84.1986,25.8546],[84.1887,25.8624],[84.1761,25.8675],[84.1588,25.866],[84.1475,25.8594],[84.1401,25.8477],[84.138,25.838],[84.1388,25.8328]]]},"properties":{"id":"surha-tal-wls","name":"Surha Tal Wildlife Sanctuary","category":"wls","area_km2":34.3}}]}