{"type":"FeatureCollection","features":[{"type":"Feature","geometry":{"type":"Polygon","coordinates":[[[75.0128,32.804],[75.0086,32.8055],[74.9995,32.8031],[74.991,32.8108],[74.9893,32.8051],[74.9806,32.8063],[74.9824,32.8002],[75.0066,32.7868],[75.0177,32.7851],[75.0369,32.7769],[75.0397,32.7679],[75.0513,32.763],[75.0739,32.7485],[75.0921,32.7403],[75.1272,32.7137],[75.1435,32.7051],[75.14,32.6993],[75.1433,32.6932],[75.1503,32.6933],[75.1508,32.7002],[75.155,32.7037],[75.146,32.7133],[75.154,32.7122],[75.1586,32.7153],[75.154,32.7234],[75.1488,32.7268],[75.1451,32.7227],[75.1447,32.7325],[75.1335,32.7438],[75.1314,32.7492],[75.125,32.7516],[75.1209,32.7576],[75.1152,32.7607],[75.1026,32.7608],[75.093,32.7757],[75.092,32.7831],[75.0784,32.7823],[75.0752,32.7841],[75.0722,32.794],[75.0572,32.7971],[75.0325,32.8122],[75.0257,32.8227],[75.0204,32.8114],[75.0236,32.8059],[75.0198,32.7984],[75.0128,32.804]]]},"properties":{"id":"surinsar-mansar-lakes-ramsar","name":"Surinsar-Mansar Lakes","category":"ramsar","area_km2":3.5}}]}