{"type":"FeatureCollection","features":[{"type":"Feature","geometry":{"type":"Polygon","coordinates":[[[75.0173,32.7993],[75.0086,32.8055],[74.9995,32.8031],[74.9915,32.8107],[74.9883,32.8047],[74.9787,32.8049],[74.9824,32.8002],[74.9891,32.7974],[75.0066,32.7868],[75.0177,32.7851],[75.0266,32.7821],[75.0394,32.7741],[75.0397,32.7679],[75.0513,32.763],[75.0739,32.7485],[75.0921,32.7403],[75.1039,32.7308],[75.1272,32.7137],[75.1435,32.7051],[75.14,32.6993],[75.1433,32.6932],[75.1503,32.6933],[75.1508,32.7002],[75.155,32.7037],[75.146,32.7133],[75.1558,32.713],[75.1583,32.717],[75.154,32.7234],[75.1488,32.7268],[75.1451,32.7227],[75.1447,32.7325],[75.1335,32.7438],[75.1314,32.7492],[75.1242,32.7524],[75.1209,32.7576],[75.1152,32.7607],[75.1026,32.7608],[75.0944,32.7732],[75.091,32.7837],[75.0784,32.7823],[75.0752,32.7841],[75.0722,32.794],[75.0572,32.7971],[75.0325,32.8122],[75.026,32.8224],[75.0219,32.8178],[75.0204,32.8114],[75.0236,32.8059],[75.0218,32.8003],[75.0173,32.7993]]]},"properties":{"id":"surinsar-mansar-wls","name":"Surinsar Mansar Wildlife Sanctuary","category":"wls","area_km2":97.8}}]}