{"type":"FeatureCollection","features":[{"type":"Feature","geometry":{"type":"Polygon","coordinates":[[[74.1141,25.9669],[74.1055,25.9722],[74.0995,25.9717],[74.0895,25.9603],[74.0813,25.9452],[74.0734,25.9445],[74.0695,25.9481],[74.0739,25.9509],[74.0788,25.9644],[74.0718,25.9634],[74.0669,25.9654],[74.0635,25.9622],[74.061,25.9543],[74.0525,25.9366],[74.0449,25.9259],[74.0316,25.9137],[74.0044,25.8954],[73.9866,25.8856],[73.9846,25.8743],[73.982,25.8727],[73.9694,25.8751],[73.966,25.8785],[73.9601,25.8735],[73.9435,25.8635],[73.9366,25.8564],[73.9301,25.8446],[73.9299,25.8393],[73.9179,25.8197],[73.9213,25.8156],[73.9302,25.8146],[73.9356,25.8107],[73.9262,25.8124],[73.9203,25.8102],[73.9141,25.8003],[73.9,25.7995],[73.8881,25.7916],[73.8831,25.7845],[73.8794,25.7733],[73.8718,25.7562],[73.866,25.7387],[73.8623,25.732],[73.8622,25.7247],[73.865,25.7222],[73.8755,25.72],[73.8728,25.7085],[73.8691,25.7003],[73.8715,25.6956],[73.876,25.6963],[73.8801,25.7024],[73.8855,25.7002],[73.8978,25.7005],[73.8988,25.6946],[73.8909,25.6966],[73.8839,25.6945],[73.8745,25.6882],[73.8643,25.6911],[73.8445,25.6668],[73.8395,25.6704],[73.8328,25.6684],[73.8295,25.6564],[73.8332,25.6313],[73.8409,25.6268],[73.8412,25.6241],[73.8487,25.617],[73.8397,25.6179],[73.8346,25.6079],[73.832,25.6064],[73.8227,25.6082],[73.8191,25.5962],[73.8121,25.5946],[73.7948,25.5693],[73.7907,25.5678],[73.7774,25.5525],[73.7808,25.5375],[73.7848,25.5326],[73.786,25.5199],[73.7734,25.5019],[73.7681,25.4997],[73.7555,25.4778],[73.7449,25.4814],[73.7354,25.463],[73.7315,25.4591],[73.7324,25.452],[73.7386,25.4464],[73.744,25.4459],[73.7556,25.4495],[73.7563,25.4393],[73.7612,25.4364],[73.7735,25.4392],[73.7764,25.4431],[73.7806,25.4392],[73.7884,25.4397],[73.802,25.4439],[73.8079,25.4445],[73.8082,25.4531],[73.8108,25.4602],[73.822,25.4696],[73.8271,25.4774],[73.8348,25.4823],[73.8393,25.4877],[73.8494,25.4956],[73.854,25.5089],[73.8605,25.5229],[73.8618,25.5327],[73.8572,25.5439],[73.8605,25.5536],[73.8591,25.5658],[73.8628,25.5897],[73.8706,25.6086],[73.8763,25.6193],[73.8826,25.6278],[73.906,25.6531],[73.9187,25.6635],[73.9284,25.6761],[73.9308,25.6827],[73.9407,25.6926],[73.9467,25.7065],[73.9426,25.7149],[73.9466,25.7228],[73.9537,25.7299],[73.9565,25.7456],[73.9631,25.76],[73.9683,25.7788],[73.9818,25.7973],[73.9895,25.8029],[74.0005,25.8167],[74.0096,25.8263],[74.0352,25.8453],[74.0536,25.8624],[74.0664,25.8713],[74.0756,25.8813],[74.0842,25.8935],[74.0953,25.9017],[74.1014,25.9128],[74.1104,25.9208],[74.1248,25.9286],[74.1396,25.9351],[74.1521,25.9444],[74.1554,25.9495],[74.1536,25.9563],[74.1454,25.9561],[74.1399,25.9584],[74.1298,25.9567],[74.1226,25.9707],[74.1141,25.9669]]]},"properties":{"id":"tadgarh-raoli-wls","name":"Tadgarh Raoli Wildlife Sanctuary","category":"wls","area_km2":495.3}}]}