{"type":"FeatureCollection","features":[{"type":"Feature","geometry":{"type":"Polygon","coordinates":[[[79.3691,20.1501],[79.3689,20.1541],[79.3636,20.1681],[79.3592,20.1729],[79.3578,20.1801],[79.3536,20.1891],[79.3423,20.1835],[79.3313,20.1799],[79.3264,20.174],[79.3101,20.1635],[79.3182,20.1562],[79.3204,20.1497],[79.3051,20.1515],[79.3006,20.1497],[79.3002,20.1436],[79.292,20.1467],[79.2932,20.1397],[79.2887,20.1416],[79.2874,20.1347],[79.2848,20.1346],[79.2759,20.1272],[79.274,20.1209],[79.2794,20.1123],[79.2925,20.0838],[79.3015,20.066],[79.3225,20.0516],[79.3288,20.0569],[79.336,20.0586],[79.3481,20.0588],[79.3536,20.063],[79.3694,20.0697],[79.3743,20.0773],[79.3823,20.0763],[79.3996,20.0832],[79.4169,20.0822],[79.4267,20.0791],[79.4368,20.0811],[79.4485,20.0801],[79.457,20.0811],[79.4613,20.0842],[79.451,20.0945],[79.4444,20.1042],[79.4451,20.1075],[79.44,20.1141],[79.435,20.1134],[79.4245,20.1086],[79.4191,20.1133],[79.4133,20.1132],[79.3988,20.1163],[79.3883,20.1126],[79.3746,20.1291],[79.3761,20.1379],[79.3716,20.1402],[79.3691,20.1501]]]},"properties":{"id":"tadoba-np","name":"Tadoba National Park","category":"np","area_km2":116.6}}]}