{"type":"FeatureCollection","features":[{"type":"Feature","geometry":{"type":"Polygon","coordinates":[[[75.4741,12.2963],[75.4798,12.2924],[75.49,12.2933],[75.4951,12.2913],[75.5108,12.2902],[75.5133,12.2922],[75.5194,12.2903],[75.5261,12.2934],[75.5335,12.2921],[75.5382,12.2943],[75.5486,12.3024],[75.5502,12.306],[75.5464,12.3161],[75.5422,12.3227],[75.5316,12.3311],[75.532,12.3388],[75.5291,12.3448],[75.5084,12.3565],[75.495,12.3621],[75.4907,12.3662],[75.4905,12.3872],[75.4938,12.3898],[75.5005,12.4113],[75.5047,12.422],[75.5025,12.4253],[75.4903,12.4345],[75.4828,12.437],[75.4701,12.4448],[75.4623,12.4403],[75.4506,12.4425],[75.4434,12.4384],[75.4486,12.4364],[75.4452,12.4314],[75.4482,12.4306],[75.4514,12.4221],[75.4486,12.4155],[75.4542,12.4072],[75.4553,12.3953],[75.4497,12.3949],[75.4506,12.3825],[75.4469,12.3773],[75.4354,12.3735],[75.4356,12.3675],[75.4312,12.3624],[75.4356,12.3638],[75.4388,12.3571],[75.4363,12.3559],[75.4444,12.3503],[75.4468,12.3458],[75.4487,12.351],[75.4513,12.3479],[75.4562,12.3494],[75.4623,12.3464],[75.4609,12.3377],[75.4626,12.3238],[75.4557,12.3194],[75.445,12.3229],[75.4432,12.3107],[75.448,12.3041],[75.4626,12.2947],[75.469,12.2998],[75.4741,12.2963]]]},"properties":{"id":"talakaveri-wls","name":"Talakaveri Wildlife Sanctuary","category":"wls","area_km2":105.6}}]}