{"type":"FeatureCollection","features":[{"type":"Feature","geometry":{"type":"Polygon","coordinates":[[[93.9564,27.6013],[93.9345,27.5917],[93.9281,27.585],[93.9024,27.5492],[93.891,27.5264],[93.8828,27.5175],[93.8728,27.4982],[93.8771,27.4916],[93.8889,27.4932],[93.9149,27.5112],[93.9309,27.5156],[93.9491,27.514],[93.9648,27.5106],[93.9905,27.4976],[93.9976,27.4976],[94.0101,27.502],[94.0254,27.5042],[94.0361,27.5046],[94.0548,27.512],[94.0737,27.5096],[94.1053,27.5256],[94.116,27.5395],[94.1309,27.5624],[94.1764,27.6012],[94.1494,27.6239],[94.1491,27.6354],[94.1452,27.6404],[94.132,27.649],[94.1192,27.6648],[94.1131,27.6679],[94.0867,27.6667],[94.0703,27.6622],[94.0525,27.6512],[94.0343,27.6436],[94.024,27.6341],[94.0137,27.6224],[93.9963,27.6083],[93.9564,27.6013]]]},"properties":{"id":"tale-valley-wls","name":"Tale Valley Wildlife Sanctuary","category":"wls","area_km2":337}}]}