{"type":"FeatureCollection","features":[{"type":"Feature","geometry":{"type":"Polygon","coordinates":[[[77.8111,31.0319],[77.7976,31.033],[77.7899,31.0376],[77.7879,31.0444],[77.7924,31.042],[77.7937,31.0459],[77.8002,31.0462],[77.8003,31.0523],[77.8065,31.0576],[77.7983,31.0585],[77.7928,31.064],[77.7853,31.0673],[77.78,31.0619],[77.7752,31.0618],[77.7675,31.057],[77.7585,31.0735],[77.7527,31.0597],[77.745,31.0508],[77.7316,31.0435],[77.7283,31.0351],[77.7291,31.0301],[77.7406,31.0303],[77.7474,31.0281],[77.7626,31.0275],[77.7731,31.0152],[77.7612,31.0124],[77.7492,31.0054],[77.7299,30.9834],[77.7556,30.9731],[77.7678,30.9757],[77.792,30.9931],[77.793,31.0005],[77.7996,31.0066],[77.7955,31.0097],[77.7948,31.0155],[77.8043,31.018],[77.8136,31.0169],[77.8286,31.019],[77.8309,31.0207],[77.8293,31.0285],[77.8229,31.0293],[77.8184,31.0329],[77.8111,31.0319]]]},"properties":{"id":"talra-wls","name":"Talra Wildlife Sanctuary","category":"wls","area_km2":46.5}}]}