{"type":"FeatureCollection","features":[{"type":"Feature","geometry":{"type":"Polygon","coordinates":[[[73.3818,18.3984],[73.3883,18.3894],[73.3876,18.381],[73.3922,18.3863],[73.3988,18.3836],[73.4096,18.3843],[73.4164,18.3885],[73.4252,18.4023],[73.4262,18.4151],[73.4397,18.4333],[73.4495,18.4283],[73.4551,18.4352],[73.4499,18.4393],[73.4502,18.4437],[73.4567,18.4474],[73.4654,18.4476],[73.4681,18.4514],[73.4875,18.4645],[73.4873,18.4685],[73.4813,18.4738],[73.476,18.4746],[73.4716,18.4703],[73.4761,18.4649],[73.4673,18.4639],[73.4637,18.4572],[73.4624,18.4718],[73.4563,18.4754],[73.4551,18.4705],[73.4502,18.4635],[73.4466,18.463],[73.434,18.4542],[73.4337,18.4444],[73.4396,18.4423],[73.4426,18.4358],[73.4316,18.4426],[73.4234,18.4415],[73.4278,18.4492],[73.4286,18.4561],[73.4419,18.4734],[73.4377,18.4848],[73.431,18.4885],[73.4139,18.4891],[73.4069,18.4856],[73.4089,18.477],[73.4097,18.4575],[73.4082,18.4492],[73.4018,18.4547],[73.3999,18.4486],[73.3901,18.4474],[73.3923,18.4407],[73.3822,18.4362],[73.3844,18.4321],[73.391,18.4339],[73.392,18.4316],[73.3895,18.4193],[73.3911,18.4075],[73.3857,18.4082],[73.3806,18.4024],[73.3818,18.3984]]]},"properties":{"id":"tamhini-wildlife-sanctury-wls","name":"Tamhini Wildlife Sanctuary","category":"wls","area_km2":49.6}}]}