{"type":"FeatureCollection","features":[{"type":"Feature","geometry":{"type":"Polygon","coordinates":[[[82.9591,23.6769],[82.9651,23.6836],[82.975,23.685],[82.9963,23.6784],[83.0014,23.6721],[83.006,23.6549],[83.0102,23.653],[83.0237,23.6591],[83.037,23.6601],[83.045,23.6624],[83.0442,23.6552],[83.0499,23.6514],[83.0543,23.6518],[83.0684,23.6606],[83.0737,23.6683],[83.0687,23.6814],[83.0748,23.6926],[83.0816,23.6926],[83.0932,23.6841],[83.102,23.6826],[83.1042,23.6788],[83.1143,23.6771],[83.1246,23.6786],[83.1378,23.6761],[83.1426,23.6778],[83.1568,23.678],[83.1734,23.6812],[83.1764,23.6792],[83.1889,23.6822],[83.1975,23.6863],[83.193,23.6944],[83.2,23.7026],[83.1963,23.7083],[83.2017,23.7096],[83.1964,23.7123],[83.1947,23.7164],[83.2023,23.7191],[83.1994,23.7269],[83.1938,23.7283],[83.1911,23.7215],[83.1783,23.7257],[83.1788,23.7194],[83.1756,23.7166],[83.1662,23.7177],[83.1621,23.7201],[83.1581,23.7173],[83.1529,23.7208],[83.1452,23.7384],[83.1379,23.739],[83.1303,23.7446],[83.1233,23.7378],[83.1168,23.7414],[83.1154,23.7475],[83.1112,23.749],[83.1023,23.7405],[83.0964,23.7383],[83.0869,23.7308],[83.0821,23.7333],[83.0777,23.7412],[83.0827,23.7443],[83.0816,23.7482],[83.0762,23.7496],[83.0685,23.7479],[83.0636,23.7512],[83.0613,23.7585],[83.0564,23.7608],[83.0463,23.7573],[83.0414,23.7524],[83.0351,23.7507],[83.0312,23.7533],[83.0261,23.7464],[83.0191,23.7476],[83.0138,23.7525],[83.0057,23.7488],[82.9923,23.7472],[82.9856,23.751],[82.982,23.757],[82.9759,23.7574],[82.9587,23.754],[82.9529,23.7495],[82.9343,23.7483],[82.9186,23.7494],[82.9096,23.7462],[82.8981,23.7502],[82.8941,23.7461],[82.8846,23.7476],[82.8853,23.754],[82.8827,23.7667],[82.8839,23.7741],[82.8819,23.7794],[82.8867,23.7834],[82.884,23.7869],[82.8731,23.7866],[82.8709,23.7806],[82.866,23.7791],[82.8627,23.7825],[82.8543,23.7695],[82.8511,23.7669],[82.8434,23.767],[82.8404,23.7716],[82.8449,23.7789],[82.8347,23.7805],[82.8361,23.7883],[82.83,23.7918],[82.8327,23.7959],[82.8302,23.7994],[82.8118,23.8007],[82.8027,23.8066],[82.7966,23.8139],[82.7852,23.8139],[82.7812,23.8164],[82.7791,23.8222],[82.7684,23.8189],[82.7622,23.8204],[82.7586,23.8136],[82.7625,23.8054],[82.7624,23.7963],[82.7575,23.7916],[82.7455,23.7839],[82.7469,23.7776],[82.76,23.7633],[82.7607,23.7558],[82.7583,23.7458],[82.7471,23.7467],[82.7349,23.7359],[82.7323,23.7294],[82.7343,23.7248],[82.7465,23.7156],[82.7528,23.7076],[82.7545,23.6976],[82.7701,23.6845],[82.7755,23.6828],[82.7863,23.6849],[82.7969,23.6771],[82.8032,23.6683],[82.806,23.6577],[82.8048,23.6491],[82.7983,23.6376],[82.7987,23.6344],[82.8138,23.622],[82.8219,23.6193],[82.8242,23.6206],[82.8168,23.6361],[82.817,23.6401],[82.8277,23.6401],[82.8364,23.6364],[82.8419,23.6295],[82.845,23.6181],[82.8482,23.6169],[82.8607,23.6202],[82.8727,23.618],[82.8775,23.6098],[82.887,23.6073],[82.8982,23.6068],[82.9064,23.5967],[82.9083,23.5894],[82.9056,23.5861],[82.8971,23.5829],[82.8967,23.5763],[82.8881,23.5781],[82.8853,23.5749],[82.8786,23.5749],[82.8689,23.569],[82.8611,23.569],[82.8545,23.5659],[82.8519,23.5613],[82.845,23.5579],[82.8361,23.5618],[82.8261,23.5728],[82.8058,23.5566],[82.7902,23.5478],[82.7909,23.5449],[82.7976,23.5429],[82.811,23.5303],[82.8209,23.5319],[82.8303,23.5307],[82.8402,23.5266],[82.8432,23.5235],[82.8461,23.5125],[82.8548,23.5085],[82.8695,23.5096],[82.8788,23.5129],[82.8826,23.5174],[82.8851,23.5265],[82.8883,23.5284],[82.8978,23.5272],[82.9018,23.5303],[82.9041,23.5425],[82.9136,23.5406],[82.9174,23.547],[82.9161,23.5537],[82.91,23.5575],[82.9111,23.5665],[82.9198,23.571],[82.9317,23.5706],[82.9362,23.5666],[82.937,23.5557],[82.9488,23.5474],[82.948,23.5378],[82.9562,23.5294],[82.9573,23.5244],[82.9617,23.5228],[82.9786,23.5242],[82.9862,23.5286],[82.9866,23.5378],[82.9925,23.5385],[83.0011,23.5317],[83.0024,23.5277],[83.0108,23.5273],[83.0134,23.5322],[83.0077,23.5364],[83.0072,23.5495],[83.0142,23.5495],[83.0172,23.5406],[83.029,23.5425],[83.0305,23.5545],[83.0366,23.5579],[83.0495,23.5547],[83.0582,23.5588],[83.0595,23.5672],[83.0557,23.5793],[83.0539,23.5903],[83.0474,23.5942],[83.0371,23.5963],[83.0317,23.6],[83.0262,23.6117],[83.0269,23.6199],[83.0315,23.6281],[83.0311,23.6315],[83.0252,23.6376],[83.0181,23.6383],[83.0125,23.6418],[83.0075,23.6497],[83.0032,23.6497],[83.0011,23.6423],[82.9907,23.6386],[82.986,23.6401],[82.9797,23.6465],[82.9777,23.656],[82.9715,23.6601],[82.966,23.661],[82.962,23.6546],[82.9554,23.6522],[82.9498,23.6553],[82.9486,23.6635],[82.9578,23.6721],[82.9591,23.6769]]]},"properties":{"id":"tamorpingla-wls","name":"Tamorpingla Wildlife Sanctuary","category":"wls","area_km2":608.5}}]}