{"type":"FeatureCollection","features":[{"type":"Feature","geometry":{"type":"Polygon","coordinates":[[[73.2779,19.6518],[73.2852,19.6615],[73.285,19.6689],[73.2893,19.6699],[73.2981,19.6664],[73.3005,19.6701],[73.31,19.667],[73.3165,19.6678],[73.3212,19.6605],[73.3238,19.6607],[73.3258,19.6542],[73.3322,19.6538],[73.3421,19.6609],[73.3477,19.6611],[73.3431,19.6672],[73.3335,19.6713],[73.3307,19.6697],[73.3282,19.6783],[73.3393,19.6772],[73.3454,19.681],[73.3447,19.6777],[73.3517,19.6725],[73.352,19.6822],[73.3567,19.683],[73.3647,19.6968],[73.3678,19.6955],[73.3684,19.711],[73.3669,19.7165],[73.3746,19.709],[73.3781,19.7081],[73.3855,19.7132],[73.3857,19.7181],[73.3822,19.7226],[73.3823,19.7274],[73.3782,19.7323],[73.3718,19.7334],[73.3666,19.7413],[73.3574,19.7401],[73.3506,19.7322],[73.3375,19.7294],[73.3341,19.7258],[73.3197,19.7336],[73.3124,19.7395],[73.3135,19.7444],[73.3071,19.7451],[73.299,19.7511],[73.2918,19.7502],[73.2929,19.7438],[73.2856,19.7386],[73.2772,19.7417],[73.2709,19.736],[73.2796,19.7307],[73.2786,19.7255],[73.2724,19.7256],[73.2692,19.7293],[73.2648,19.7246],[73.2642,19.7136],[73.2749,19.7053],[73.2716,19.6983],[73.2601,19.7],[73.2612,19.6948],[73.256,19.6915],[73.2537,19.7016],[73.2442,19.7009],[73.2425,19.6935],[73.2439,19.686],[73.252,19.6837],[73.2604,19.6747],[73.2626,19.6677],[73.2684,19.6652],[73.2661,19.662],[73.2648,19.6476],[73.2614,19.6451],[73.2556,19.6466],[73.249,19.6553],[73.2433,19.6547],[73.2417,19.6444],[73.2451,19.6415],[73.2471,19.635],[73.2415,19.6366],[73.2405,19.6326],[73.2359,19.6345],[73.2269,19.6158],[73.2221,19.6146],[73.2096,19.6211],[73.191,19.6274],[73.1825,19.6258],[73.1699,19.6157],[73.1588,19.6152],[73.156,19.6104],[73.1596,19.6011],[73.165,19.5977],[73.1692,19.5905],[73.1718,19.5904],[73.1746,19.6031],[73.1794,19.6045],[73.191,19.6],[73.1887,19.5964],[73.1933,19.592],[73.2008,19.5743],[73.1983,19.5729],[73.2061,19.5611],[73.2089,19.5597],[73.2293,19.5626],[73.2312,19.5677],[73.2434,19.5707],[73.2503,19.565],[73.2555,19.553],[73.2511,19.5418],[73.2445,19.5342],[73.2389,19.5365],[73.2396,19.5296],[73.2336,19.5329],[73.2265,19.5408],[73.2227,19.5406],[73.2138,19.5344],[73.2066,19.5266],[73.1943,19.5275],[73.1928,19.5297],[73.1836,19.5298],[73.1843,19.5136],[73.1868,19.5044],[73.1909,19.499],[73.198,19.4956],[73.197,19.5028],[73.2076,19.5081],[73.2106,19.5064],[73.2261,19.5098],[73.2289,19.5132],[73.2376,19.5131],[73.2247,19.5026],[73.2219,19.4933],[73.2247,19.4913],[73.2241,19.486],[73.2307,19.4805],[73.228,19.4741],[73.2223,19.4775],[73.206,19.4756],[73.204,19.4689],[73.2109,19.4616],[73.2184,19.4564],[73.2297,19.4432],[73.2337,19.4364],[73.2389,19.4316],[73.2423,19.4368],[73.2417,19.4455],[73.2536,19.4407],[73.2617,19.4353],[73.266,19.4277],[73.2783,19.427],[73.2849,19.4311],[73.2862,19.435],[73.2852,19.4494],[73.2879,19.4512],[73.2763,19.4662],[73.2669,19.4678],[73.2686,19.4779],[73.2747,19.4777],[73.2771,19.4927],[73.2788,19.4944],[73.2848,19.4895],[73.2925,19.4905],[73.2951,19.4878],[73.3018,19.4908],[73.3049,19.4958],[73.3108,19.4989],[73.3097,19.5046],[73.3058,19.5054],[73.2998,19.515],[73.3031,19.5215],[73.3023,19.5256],[73.3075,19.5306],[73.2998,19.5383],[73.2972,19.5473],[73.3068,19.5502],[73.3109,19.5487],[73.3171,19.5512],[73.3202,19.5553],[73.3338,19.5558],[73.3371,19.5525],[73.342,19.567],[73.3482,19.5714],[73.3519,19.5712],[73.3496,19.5793],[73.35,19.5885],[73.3454,19.5948],[73.3327,19.5947],[73.3235,19.5982],[73.3175,19.6166],[73.3056,19.6238],[73.299,19.6195],[73.288,19.6211],[73.2841,19.6249],[73.2858,19.6335],[73.282,19.6362],[73.2809,19.6465],[73.2779,19.6518]]]},"properties":{"id":"tansa-wls","name":"Tansa Wildlife Sanctuary","category":"wls","area_km2":304.8}}]}