{"type":"FeatureCollection","features":[{"type":"Feature","geometry":{"type":"Polygon","coordinates":[[[77.8825,22.2886],[77.8821,22.2859],[77.8882,22.2896],[77.8958,22.3029],[77.9033,22.3091],[77.916,22.3155],[77.9251,22.3259],[77.9315,22.3272],[77.9435,22.3339],[77.9419,22.3389],[77.9291,22.3469],[77.9221,22.3456],[77.9158,22.3667],[77.9187,22.3705],[77.9274,22.3699],[77.9273,22.3749],[77.9331,22.3748],[77.9371,22.3845],[77.9282,22.384],[77.9231,22.3931],[77.9283,22.3927],[77.9264,22.3974],[77.9353,22.406],[77.9309,22.4075],[77.9321,22.4133],[77.9264,22.4134],[77.9253,22.4171],[77.9294,22.4192],[77.9305,22.4249],[77.9277,22.4305],[77.9316,22.4293],[77.9373,22.4211],[77.9458,22.4263],[77.9473,22.4232],[77.9541,22.4234],[77.953,22.4286],[77.9474,22.434],[77.954,22.4374],[77.9584,22.4431],[77.9601,22.4359],[77.9683,22.4318],[77.9633,22.4277],[77.9704,22.4238],[77.9737,22.4297],[77.9783,22.4298],[77.9797,22.425],[77.9866,22.4224],[77.9894,22.4252],[77.9933,22.423],[77.9917,22.4127],[77.9966,22.4059],[77.9951,22.4138],[77.9976,22.4251],[77.992,22.4301],[77.9943,22.432],[77.9808,22.4347],[77.9796,22.4391],[77.9726,22.4397],[77.9752,22.4444],[77.9853,22.4445],[77.9889,22.4391],[77.9976,22.4429],[77.9967,22.4391],[78.006,22.4481],[78.0099,22.4451],[78.0117,22.4513],[78.0201,22.4488],[78.0274,22.4572],[78.0304,22.4511],[78.0368,22.451],[78.0417,22.4554],[78.0503,22.4523],[78.0563,22.4465],[78.0511,22.4549],[78.0425,22.4567],[78.0368,22.4607],[78.0487,22.4634],[78.0449,22.4658],[78.0306,22.4587],[78.032,22.4629],[78.0276,22.4626],[78.0291,22.4687],[78.0257,22.4691],[78.0241,22.476],[78.0224,22.4629],[78.0109,22.4608],[78.008,22.4687],[78.0005,22.4603],[78.0023,22.4578],[77.9964,22.4552],[77.9963,22.4585],[77.9881,22.4589],[77.9851,22.4543],[77.9838,22.4586],[77.9916,22.4596],[77.9943,22.4631],[77.9896,22.4683],[77.9861,22.4647],[77.9822,22.467],[77.9835,22.4748],[77.9775,22.4745],[77.9692,22.4706],[77.9706,22.467],[77.9657,22.4657],[77.968,22.4705],[77.9641,22.4721],[77.9691,22.4813],[77.9583,22.4766],[77.9471,22.4801],[77.9425,22.4928],[77.9461,22.4961],[77.9557,22.4911],[77.9631,22.491],[77.9607,22.5006],[77.957,22.5047],[77.9627,22.5052],[77.9636,22.5121],[77.9695,22.5162],[77.9734,22.523],[77.9793,22.524],[77.9793,22.5185],[77.9757,22.513],[77.9725,22.5141],[77.9677,22.5093],[77.9727,22.5081],[77.9738,22.5034],[77.9677,22.5032],[77.976,22.4973],[77.976,22.4998],[77.9856,22.5026],[77.9875,22.4944],[77.9993,22.4949],[78.0008,22.4978],[77.991,22.5005],[77.9874,22.5038],[77.9858,22.5123],[77.995,22.5149],[78.0031,22.5118],[78.0032,22.5012],[78.008,22.5027],[78.0118,22.5115],[78.0182,22.5117],[78.0266,22.5213],[78.021,22.5245],[78.0215,22.5318],[78.0262,22.531],[78.0196,22.5359],[78.0104,22.5296],[78.0017,22.5303],[78.0142,22.5371],[78.0087,22.5414],[78.0139,22.5463],[78.0134,22.5539],[78.0056,22.5548],[78.0125,22.5576],[78.008,22.5617],[78.0194,22.5639],[78.029,22.5605],[78.0255,22.5745],[78.0257,22.5809],[78.0313,22.5746],[78.0326,22.5781],[78.0391,22.5769],[78.0327,22.5743],[78.0324,22.5588],[78.0285,22.5502],[78.034,22.5483],[78.0316,22.5447],[78.0329,22.5354],[78.042,22.5347],[78.0446,22.5298],[78.0494,22.5278],[78.0509,22.5341],[78.0426,22.5364],[78.0453,22.543],[78.0552,22.542],[78.0637,22.5479],[78.064,22.5448],[78.0689,22.5511],[78.0746,22.5447],[78.0807,22.5465],[78.0767,22.5483],[78.082,22.5515],[78.0804,22.5539],[78.0882,22.5615],[78.0955,22.5619],[78.0943,22.5579],[78.0979,22.5557],[78.0998,22.5625],[78.106,22.5614],[78.1115,22.5637],[78.1181,22.5582],[78.1141,22.5568],[78.1151,22.5528],[78.1217,22.556],[78.1221,22.5529],[78.131,22.5452],[78.1371,22.546],[78.1291,22.5488],[78.1229,22.5581],[78.1267,22.5586],[78.1259,22.5642],[78.1214,22.5625],[78.1154,22.565],[78.1186,22.5693],[78.1265,22.5691],[78.1328,22.5637],[78.1432,22.5619],[78.1468,22.564],[78.1413,22.5717],[78.1498,22.5681],[78.1472,22.5646],[78.1625,22.5592],[78.1705,22.5552],[78.1675,22.548],[78.164,22.547],[78.169,22.5407],[78.1757,22.5373],[78.1739,22.533],[78.1752,22.5315],[78.1834,22.5305],[78.1892,22.5258],[78.1906,22.5277],[78.183,22.5323],[78.1754,22.5332],[78.1761,22.5396],[78.1674,22.5463],[78.1737,22.5532],[78.1848,22.5509],[78.2008,22.5536],[78.2069,22.5558],[78.2252,22.5587],[78.2351,22.5624],[78.2452,22.5635],[78.2518,22.5605],[78.2545,22.5626],[78.2444,22.5655],[78.2317,22.5637],[78.2246,22.5642],[78.2104,22.5603],[78.21,22.5627],[78.2017,22.5616],[78.1965,22.5568],[78.189,22.5546],[78.1752,22.5548],[78.1803,22.5574],[78.1793,22.5608],[78.1852,22.561],[78.1764,22.5663],[78.1824,22.5655],[78.1952,22.5705],[78.185,22.5692],[78.1828,22.5716],[78.1714,22.5707],[78.1658,22.5672],[78.1639,22.5702],[78.1687,22.5734],[78.1638,22.577],[78.1713,22.5764],[78.1724,22.5791],[78.1594,22.5813],[78.1642,22.5879],[78.1588,22.587],[78.1523,22.5795],[78.1497,22.5826],[78.1474,22.5767],[78.1262,22.5802],[78.1304,22.5829],[78.1194,22.5843],[78.1158,22.5876],[78.1084,22.5784],[78.1011,22.5764],[78.0862,22.5807],[78.0858,22.5737],[78.0697,22.5736],[78.0682,22.5767],[78.0614,22.572],[78.0597,22.5653],[78.0534,22.5634],[78.0514,22.5695],[78.0572,22.569],[78.0597,22.5721],[78.0557,22.5759],[78.0682,22.5772],[78.0686,22.5811],[78.0634,22.5811],[78.061,22.5878],[78.0498,22.5885],[78.0343,22.5823],[78.0365,22.5924],[78.0493,22.6063],[78.0382,22.6018],[78.0383,22.5949],[78.0339,22.5946],[78.0305,22.5876],[78.0279,22.594],[78.0223,22.5927],[78.0278,22.5889],[78.0269,22.5839],[78.0236,22.5896],[78.0229,22.5838],[78.0188,22.5814],[78.0215,22.5743],[78.02,22.5694],[78.0178,22.5754],[78.0164,22.5681],[78.0108,22.573],[78.0134,22.5676],[78.0039,22.5689],[77.9972,22.568],[78.0046,22.5652],[77.9995,22.5585],[77.9916,22.5565],[77.9869,22.5619],[77.9899,22.5648],[77.9624,22.5614],[77.9504,22.5578],[77.942,22.5641],[77.9359,22.5612],[77.9281,22.553],[77.9326,22.5528],[77.9333,22.5486],[77.926,22.5459],[77.9346,22.5406],[77.926,22.5401],[77.9295,22.5345],[77.9269,22.5325],[77.9223,22.5373],[77.9187,22.5342],[77.9145,22.5354],[77.9136,22.5288],[77.9083,22.5326],[77.9086,22.5374],[77.8991,22.5297],[77.9004,22.5268],[77.8925,22.5243],[77.8927,22.5193],[77.8975,22.5179],[77.8993,22.5229],[77.9038,22.5213],[77.8997,22.5139],[77.9103,22.5163],[77.9132,22.5127],[77.9231,22.5087],[77.9219,22.5021],[77.9252,22.5068],[77.9322,22.5007],[77.9299,22.4979],[77.939,22.4959],[77.9383,22.4862],[77.9411,22.4821],[77.9333,22.4769],[77.9284,22.4783],[77.9238,22.4761],[77.9237,22.4717],[77.9178,22.4722],[77.9144,22.4682],[77.9116,22.471],[77.901,22.4648],[77.8938,22.4698],[77.887,22.4781],[77.885,22.4748],[77.8812,22.4837],[77.872,22.4806],[77.8599,22.4824],[77.8642,22.4787],[77.8793,22.4786],[77.8857,22.4709],[77.878,22.4654],[77.8869,22.4652],[77.8921,22.4573],[77.8864,22.4463],[77.896,22.4501],[77.9057,22.45],[77.9076,22.4537],[77.914,22.4528],[77.9141,22.4491],[77.9218,22.4473],[77.9299,22.4477],[77.9287,22.4445],[77.9219,22.4414],[77.9167,22.4453],[77.9101,22.4462],[77.9044,22.4432],[77.9068,22.437],[77.9119,22.4388],[77.914,22.4319],[77.9112,22.4277],[77.8992,22.4289],[77.9053,22.4248],[77.8926,22.4157],[77.8912,22.4175],[77.8819,22.4095],[77.8659,22.4143],[77.8573,22.4054],[77.8476,22.4075],[77.8429,22.4117],[77.8281,22.4086],[77.8426,22.4099],[77.8468,22.4052],[77.8526,22.4032],[77.8685,22.4061],[77.8716,22.4025],[77.875,22.4041],[77.8848,22.4007],[77.888,22.4044],[77.9019,22.4099],[77.9024,22.4056],[77.9128,22.404],[77.9101,22.3994],[77.9051,22.3982],[77.9033,22.3937],[77.9094,22.3936],[77.8972,22.3839],[77.9008,22.3816],[77.8942,22.3787],[77.8945,22.3733],[77.8989,22.3769],[77.9045,22.3769],[77.906,22.3832],[77.9099,22.3844],[77.9154,22.3806],[77.9084,22.36],[77.9127,22.3548],[77.9143,22.3474],[77.9228,22.3413],[77.9361,22.3402],[77.9399,22.3371],[77.9375,22.3324],[77.9214,22.3262],[77.9157,22.3176],[77.8956,22.3056],[77.8845,22.2884],[77.8825,22.2886]]]},"properties":{"id":"tawa-reservoir-ramsar","name":"Tawa Reservoir","category":"ramsar","area_km2":200.7}}]}