{"type":"FeatureCollection","features":[{"type":"Feature","geometry":{"type":"Polygon","coordinates":[[[92.9532,23.5562],[92.9488,23.5584],[92.943,23.566],[92.9367,23.5708],[92.9289,23.5721],[92.9126,23.5694],[92.9098,23.5647],[92.9042,23.5644],[92.8987,23.5541],[92.902,23.5444],[92.9112,23.5402],[92.9141,23.5341],[92.9316,23.5268],[92.9283,23.5115],[92.9339,23.5011],[92.9567,23.502],[92.9702,23.5119],[92.975,23.5135],[92.9797,23.5201],[92.9738,23.5321],[92.9727,23.5373],[92.9655,23.5378],[92.9561,23.5493],[92.9532,23.5562]]]},"properties":{"id":"tawi-wls","name":"Tawi Wildlife Sanctuary","category":"wls","area_km2":35.8}}]}