{"type":"FeatureCollection","features":[{"type":"Feature","geometry":{"type":"MultiPolygon","coordinates":[[[[72.9706,19.1311],[72.9772,19.1459],[72.9796,19.165],[72.9818,19.1732],[72.9788,19.1744],[72.9763,19.1607],[72.9763,19.1529],[72.9644,19.1343],[72.9566,19.1387],[72.9567,19.144],[72.9608,19.1486],[72.9548,19.1506],[72.9503,19.1312],[72.9437,19.1284],[72.9612,19.1275],[72.9574,19.1202],[72.953,19.1187],[72.9511,19.1134],[72.9419,19.1133],[72.9478,19.1048],[72.9484,19.0986],[72.9436,19.0962],[72.9493,19.09],[72.9492,19.083],[72.9534,19.068],[72.9586,19.0691],[72.9565,19.0882],[72.9575,19.0989],[72.9604,19.1102],[72.9675,19.1263],[72.966,19.1303],[72.9706,19.1311]]],[[[72.9874,19.1811],[72.9855,19.1793],[72.9822,19.1626],[72.9823,19.1481],[72.9793,19.1289],[72.9785,19.1056],[72.9831,19.1004],[72.9869,19.0794],[72.9839,19.0758],[72.9889,19.0761],[72.9926,19.0858],[72.9972,19.091],[73.0023,19.0932],[72.9951,19.0936],[72.9966,19.1042],[72.9959,19.1098],[73.0007,19.1124],[72.9881,19.115],[72.9867,19.1231],[72.9887,19.1278],[72.9929,19.1294],[72.9968,19.1351],[72.9947,19.142],[72.9878,19.1425],[72.9864,19.1359],[72.9837,19.1361],[72.9841,19.1441],[72.9864,19.1473],[72.9845,19.1538],[72.9901,19.1542],[72.989,19.1663],[72.9906,19.1704],[72.9849,19.1699],[72.9874,19.1811]]]]},"properties":{"id":"thane-creek-flamingo-sanctuary-wls","name":"Thane Creek Flamingo Sanctuary","category":"wls","area_km2":16.9}}]}