{"type":"FeatureCollection","features":[{"type":"Feature","geometry":{"type":"Polygon","coordinates":[[[72.9215,19.083],[72.9263,19.0793],[72.9311,19.079],[72.934,19.0818],[72.936,19.0802],[72.9309,19.0751],[72.9289,19.0788],[72.9263,19.0791],[72.9241,19.0808],[72.9222,19.0802],[72.921,19.0835],[72.9175,19.0796],[72.9208,19.0736],[72.9297,19.0746],[72.9339,19.0696],[72.9371,19.0593],[72.9419,19.0575],[72.9369,19.0514],[72.9818,19.0653],[72.9852,19.0686],[72.9846,19.0756],[72.9889,19.076],[73.0003,19.0891],[73.0054,19.0924],[73.0054,19.0973],[73.0003,19.0935],[72.9923,19.0957],[72.995,19.0979],[72.9979,19.1096],[73.0007,19.1125],[72.9928,19.1169],[72.9888,19.1148],[72.9867,19.1194],[72.9888,19.1276],[72.9941,19.1282],[72.9925,19.1325],[72.9963,19.1358],[72.9959,19.1419],[72.9887,19.1427],[72.986,19.1363],[72.9838,19.1377],[72.987,19.1481],[72.9849,19.1537],[72.9932,19.1564],[72.9889,19.1614],[72.991,19.1709],[72.9845,19.1716],[72.9886,19.1831],[72.986,19.1888],[72.981,19.1875],[72.9809,19.1792],[72.9756,19.1802],[72.9739,19.1765],[72.9761,19.1701],[72.9628,19.1627],[72.9553,19.1517],[72.9629,19.1486],[72.9642,19.1426],[72.958,19.1402],[72.9627,19.1485],[72.9551,19.1514],[72.9433,19.1324],[72.9433,19.1281],[72.9558,19.1268],[72.9556,19.1205],[72.9435,19.1203],[72.9404,19.1275],[72.9381,19.1221],[72.9416,19.1232],[72.943,19.1163],[72.9388,19.1069],[72.9348,19.1081],[72.9337,19.1024],[72.9301,19.1024],[72.9215,19.083]]]},"properties":{"id":"thane-creek-ramsar","name":"Thane Creek","category":"ramsar","area_km2":65.2}}]}