{"type":"FeatureCollection","features":[{"type":"Feature","geometry":{"type":"Polygon","coordinates":[[[76.6748,10.1414],[76.6649,10.1377],[76.667,10.1274],[76.6724,10.1274],[76.6776,10.1229],[76.6933,10.1237],[76.7017,10.116],[76.7089,10.1123],[76.7113,10.1179],[76.7208,10.1223],[76.7356,10.1238],[76.7533,10.1292],[76.7527,10.1325],[76.7446,10.1403],[76.7263,10.1418],[76.722,10.1397],[76.7186,10.1423],[76.711,10.1409],[76.7074,10.1374],[76.7029,10.1378],[76.6948,10.1351],[76.6913,10.1295],[76.6876,10.1381],[76.6826,10.1433],[76.6748,10.1414]]]},"properties":{"id":"thattekad-bird-wls","name":"Thattekad Bird Sanctuary","category":"wls","area_km2":25}}]}