{"type":"FeatureCollection","features":[{"type":"Feature","geometry":{"type":"Polygon","coordinates":[[[92.4633,23.3908],[92.4642,23.3863],[92.4581,23.381],[92.4609,23.3751],[92.4561,23.3645],[92.4591,23.3608],[92.4664,23.3582],[92.465,23.3546],[92.4608,23.3576],[92.4618,23.3472],[92.468,23.3437],[92.4691,23.3321],[92.4718,23.3253],[92.4679,23.3175],[92.4686,23.3127],[92.4805,23.2937],[92.4848,23.2957],[92.4877,23.3036],[92.4947,23.3068],[92.5033,23.3224],[92.5142,23.3441],[92.5247,23.3481],[92.5314,23.3472],[92.5349,23.3405],[92.5315,23.3297],[92.5253,23.326],[92.5146,23.3125],[92.5109,23.3052],[92.503,23.297],[92.4954,23.2931],[92.499,23.2901],[92.5038,23.2801],[92.5075,23.276],[92.503,23.2755],[92.5058,23.2634],[92.509,23.2589],[92.5091,23.2529],[92.5001,23.2473],[92.5022,23.2434],[92.5041,23.2191],[92.5086,23.2117],[92.5342,23.2119],[92.546,23.2164],[92.5502,23.2223],[92.5574,23.2405],[92.5678,23.237],[92.5721,23.2395],[92.5853,23.2351],[92.5857,23.2289],[92.5822,23.221],[92.5879,23.2062],[92.592,23.2079],[92.6076,23.2075],[92.611,23.2123],[92.61,23.2199],[92.6126,23.2222],[92.6114,23.2405],[92.6174,23.2437],[92.6143,23.2455],[92.6121,23.2527],[92.6125,23.2661],[92.6104,23.2702],[92.6026,23.2726],[92.6041,23.2827],[92.5966,23.2894],[92.5931,23.2879],[92.5874,23.2939],[92.5877,23.3004],[92.5939,23.3006],[92.5912,23.3078],[92.5811,23.3098],[92.5691,23.3211],[92.5691,23.3335],[92.5592,23.3434],[92.5567,23.3667],[92.5632,23.3745],[92.541,23.3822],[92.5118,23.3797],[92.4978,23.3902],[92.4914,23.3828],[92.4796,23.3925],[92.4633,23.3908]]]},"properties":{"id":"thorangtlang-wls","name":"Thorangtlang Wildlife Sanctuary","category":"wls","area_km2":180}}]}