{"type":"FeatureCollection","features":[{"type":"Feature","geometry":{"type":"Polygon","coordinates":[[[93.6161,8.5728],[93.6123,8.5721],[93.6148,8.565],[93.6119,8.5615],[93.6112,8.5445],[93.618,8.5356],[93.6186,8.5295],[93.6214,8.528],[93.6212,8.5213],[93.6241,8.5185],[93.6266,8.5031],[93.6243,8.498],[93.6289,8.49],[93.6283,8.4856],[93.6194,8.4805],[93.6226,8.4733],[93.6212,8.4703],[93.6232,8.4617],[93.6184,8.4554],[93.6211,8.4527],[93.6181,8.4445],[93.621,8.4396],[93.6185,8.4349],[93.6221,8.4238],[93.6246,8.425],[93.6282,8.4394],[93.6226,8.4491],[93.6256,8.4643],[93.629,8.4697],[93.636,8.4707],[93.6394,8.4658],[93.6424,8.4683],[93.6353,8.4932],[93.637,8.4977],[93.6318,8.5056],[93.6371,8.5132],[93.6335,8.517],[93.6358,8.5225],[93.6241,8.529],[93.621,8.5418],[93.6185,8.5461],[93.6203,8.5647],[93.6161,8.5728]]]},"properties":{"id":"tilongchang-island-wls","name":"Tilongchang Island Wildlife Sanctuary","category":"wls","area_km2":16.8}}]}