{"type":"FeatureCollection","features":[{"type":"Feature","geometry":{"type":"Polygon","coordinates":[[[78.4562,19.8526],[78.4547,19.8471],[78.4642,19.8452],[78.4676,19.8538],[78.4769,19.8515],[78.503,19.8624],[78.5091,19.8603],[78.525,19.8511],[78.537,19.8594],[78.5304,19.8722],[78.5304,19.8841],[78.5354,19.8828],[78.547,19.8879],[78.5336,19.8943],[78.5307,19.9036],[78.5266,19.9062],[78.5351,19.9071],[78.5337,19.9127],[78.5376,19.9185],[78.5322,19.919],[78.531,19.9154],[78.5201,19.9117],[78.5198,19.9247],[78.5266,19.9258],[78.5321,19.9319],[78.5296,19.934],[78.5186,19.9345],[78.5158,19.9287],[78.5097,19.9254],[78.5065,19.92],[78.4985,19.9206],[78.4943,19.9272],[78.4937,19.9359],[78.4753,19.9341],[78.458,19.9427],[78.4572,19.9472],[78.448,19.9459],[78.4518,19.9522],[78.4469,19.9568],[78.4433,19.9559],[78.4299,19.9583],[78.4295,19.9566],[78.4114,19.9644],[78.4031,19.966],[78.3879,19.9581],[78.377,19.9535],[78.3758,19.9444],[78.3733,19.9395],[78.3681,19.943],[78.364,19.9389],[78.3525,19.9375],[78.3476,19.9394],[78.3424,19.9346],[78.3434,19.929],[78.3477,19.9226],[78.3554,19.9227],[78.3554,19.9285],[78.385,19.9258],[78.4004,19.9036],[78.3986,19.8819],[78.3957,19.8794],[78.4014,19.8732],[78.4097,19.87],[78.4315,19.8726],[78.4471,19.8726],[78.4584,19.869],[78.4591,19.8657],[78.4645,19.8664],[78.4652,19.8577],[78.4582,19.8566],[78.4562,19.8526]]]},"properties":{"id":"tipeshwar-wls","name":"Tipeshwar Wildlife Sanctuary","category":"wls","area_km2":148.6}}]}