{"type":"FeatureCollection","features":[{"type":"Feature","geometry":{"type":"Polygon","coordinates":[[[77.6054,31.6546],[77.5722,31.6611],[77.542,31.6565],[77.5373,31.652],[77.5282,31.648],[77.5142,31.6461],[77.4985,31.634],[77.4852,31.6275],[77.4785,31.6309],[77.469,31.6413],[77.4583,31.6419],[77.4563,31.638],[77.462,31.63],[77.47,31.626],[77.4729,31.6142],[77.4859,31.6167],[77.5118,31.6238],[77.5217,31.6278],[77.5123,31.6098],[77.5012,31.6053],[77.4967,31.6052],[77.4851,31.5985],[77.4853,31.5866],[77.4897,31.576],[77.5087,31.5728],[77.5219,31.5725],[77.5293,31.5744],[77.5287,31.5792],[77.5366,31.5902],[77.5515,31.5974],[77.5602,31.5997],[77.5646,31.6062],[77.5608,31.6157],[77.5602,31.6259],[77.57,31.6329],[77.5775,31.6361],[77.5962,31.6357],[77.6287,31.6512],[77.6334,31.654],[77.6254,31.6534],[77.6054,31.6546]]]},"properties":{"id":"tirthan-wls","name":"Tirthan Wildlife Sanctuary","category":"wls","area_km2":61}}]}