{"type":"FeatureCollection","features":[{"type":"Feature","geometry":{"type":"Polygon","coordinates":[[[92.9041,22.0743],[92.9134,22.0802],[92.9099,22.0926],[92.9048,22.0991],[92.889,22.1018],[92.8817,22.1009],[92.8788,22.0963],[92.8753,22.0811],[92.8721,22.0764],[92.8561,22.078],[92.853,22.0738],[92.8485,22.0734],[92.8511,22.0642],[92.8587,22.067],[92.8635,22.0624],[92.8659,22.0516],[92.8639,22.0345],[92.8651,22.0237],[92.8757,22.0212],[92.88,22.0217],[92.8786,22.0151],[92.8913,22.0113],[92.8945,22.0033],[92.8941,21.9982],[92.8978,21.9798],[92.8979,21.9738],[92.903,21.9407],[92.9115,21.9508],[92.9114,21.961],[92.9153,21.979],[92.9188,21.9812],[92.9207,21.9918],[92.93,21.9959],[92.9359,22.0065],[92.9358,22.01],[92.9247,22.0081],[92.9229,22.0122],[92.9197,22.0101],[92.9174,22.0149],[92.9218,22.0189],[92.9287,22.0441],[92.924,22.0534],[92.9267,22.0599],[92.923,22.0593],[92.9169,22.0632],[92.9074,22.0643],[92.9016,22.0714],[92.9041,22.0743]]]},"properties":{"id":"tokalo-wls","name":"Tokalo Wildlife Sanctuary","category":"wls","area_km2":250}}]}