{"type":"FeatureCollection","features":[{"type":"Feature","geometry":{"type":"Polygon","coordinates":[[[86.1552,23.9325],[86.1591,23.9276],[86.1657,23.927],[86.1715,23.9194],[86.1767,23.9181],[86.1825,23.9099],[86.1892,23.9093],[86.1965,23.9127],[86.2011,23.9201],[86.1965,23.9225],[86.1968,23.9278],[86.205,23.933],[86.2174,23.9348],[86.2216,23.9283],[86.2305,23.931],[86.2308,23.9402],[86.2185,23.947],[86.1984,23.9496],[86.1932,23.959],[86.1862,23.9603],[86.1673,23.9424],[86.168,23.9384],[86.1613,23.9385],[86.1552,23.9325]]]},"properties":{"id":"topchanchi-wls","name":"Topchanchi Wildlife Sanctuary","category":"wls","area_km2":12.8}}]}