{"type":"FeatureCollection","features":[{"type":"Feature","geometry":{"type":"Polygon","coordinates":[[[74.9533,33.0072],[74.9599,33.0152],[74.9672,33.0193],[74.9705,33.0238],[74.9667,33.0307],[74.9718,33.0408],[74.9552,33.0374],[74.9454,33.0415],[74.944,33.0458],[74.9163,33.0526],[74.914,33.0588],[74.906,33.0682],[74.9029,33.0781],[74.8759,33.0753],[74.8682,33.0711],[74.8712,33.0663],[74.8851,33.0634],[74.8966,33.0502],[74.8966,33.0444],[74.9036,33.0403],[74.9071,33.0342],[74.9048,33.0305],[74.9126,33.0244],[74.9214,33.0129],[74.9209,33.005],[74.9265,32.9999],[74.9332,32.9975],[74.9503,33.0046],[74.9533,33.0072]]]},"properties":{"id":"trikuta-wls","name":"Trikuta Wildlife Sanctuary","category":"wls","area_km2":31.8}}]}