{"type":"FeatureCollection","features":[{"type":"Feature","geometry":{"type":"Polygon","coordinates":[[[91.4148,23.3583],[91.4112,23.3635],[91.4157,23.3643],[91.4195,23.3594],[91.4202,23.3652],[91.4244,23.3621],[91.4287,23.3541],[91.4194,23.3481],[91.4182,23.3401],[91.4295,23.3448],[91.4342,23.3429],[91.4186,23.336],[91.4178,23.3314],[91.4115,23.3231],[91.4094,23.3032],[91.4144,23.2981],[91.4124,23.3114],[91.4151,23.3108],[91.4152,23.3033],[91.42,23.3018],[91.4194,23.306],[91.4267,23.3054],[91.4326,23.3132],[91.4311,23.3194],[91.4367,23.3217],[91.4387,23.3158],[91.4336,23.3102],[91.4318,23.3037],[91.434,23.3],[91.4468,23.2987],[91.4452,23.3021],[91.4488,23.3117],[91.4476,23.3159],[91.4508,23.3218],[91.4467,23.3276],[91.4495,23.3319],[91.4516,23.3283],[91.4521,23.3183],[91.4538,23.3189],[91.4564,23.3095],[91.463,23.3056],[91.4595,23.3282],[91.4596,23.3425],[91.4629,23.3449],[91.4638,23.3515],[91.4717,23.3531],[91.4737,23.3494],[91.4906,23.3417],[91.4987,23.3339],[91.5043,23.3364],[91.4987,23.3541],[91.4934,23.3597],[91.4874,23.3607],[91.4906,23.3691],[91.485,23.3711],[91.4793,23.3802],[91.4702,23.3818],[91.4671,23.3872],[91.4691,23.3906],[91.4613,23.3973],[91.4554,23.4056],[91.4451,23.4062],[91.444,23.3994],[91.4534,23.395],[91.4428,23.3968],[91.4433,23.3907],[91.4364,23.392],[91.4405,23.4022],[91.4395,23.4068],[91.435,23.4031],[91.4325,23.4066],[91.4391,23.4128],[91.4352,23.4161],[91.4273,23.4111],[91.4283,23.4061],[91.4236,23.405],[91.4281,23.4154],[91.4357,23.417],[91.438,23.4248],[91.4336,23.4272],[91.4249,23.4266],[91.4154,23.4309],[91.4149,23.4187],[91.4118,23.4077],[91.4177,23.3988],[91.4118,23.399],[91.4104,23.4085],[91.4122,23.415],[91.4084,23.4161],[91.4106,23.4248],[91.4041,23.4196],[91.4016,23.422],[91.4115,23.4289],[91.4086,23.4365],[91.4087,23.446],[91.4035,23.4506],[91.4085,23.4509],[91.4084,23.4652],[91.4002,23.472],[91.3948,23.473],[91.3983,23.4677],[91.398,23.4631],[91.3944,23.4629],[91.3933,23.4732],[91.3857,23.4735],[91.3871,23.4655],[91.3781,23.4621],[91.3737,23.4522],[91.3662,23.444],[91.3766,23.4425],[91.3767,23.4374],[91.3811,23.4235],[91.3803,23.4175],[91.3727,23.4324],[91.3643,23.4332],[91.3582,23.4306],[91.3485,23.4227],[91.3452,23.4244],[91.3537,23.4301],[91.3466,23.4316],[91.3253,23.4325],[91.3212,23.4297],[91.3257,23.4277],[91.3201,23.4197],[91.3197,23.4156],[91.3246,23.4122],[91.3259,23.4021],[91.325,23.3909],[91.3296,23.3832],[91.3354,23.3788],[91.3366,23.3676],[91.3406,23.3653],[91.3494,23.3716],[91.3519,23.3775],[91.3495,23.3832],[91.3555,23.382],[91.3568,23.3747],[91.3473,23.3672],[91.3496,23.3625],[91.356,23.3599],[91.3542,23.3519],[91.3623,23.3383],[91.3704,23.3343],[91.3792,23.3335],[91.3768,23.3405],[91.3874,23.3447],[91.3888,23.3386],[91.3961,23.3376],[91.3974,23.3413],[91.3935,23.3448],[91.3917,23.3556],[91.3943,23.3562],[91.405,23.332],[91.4078,23.3324],[91.4084,23.3386],[91.4034,23.3491],[91.4084,23.3491],[91.4097,23.3401],[91.4142,23.3365],[91.4165,23.3557],[91.4148,23.3583]]]},"properties":{"id":"trishna-wls","name":"Trishna Wildlife Sanctuary","category":"wls","area_km2":194.7}}]}