{"type":"FeatureCollection","features":[{"type":"Feature","geometry":{"type":"Polygon","coordinates":[[[77.994,33.3678],[77.9742,33.3573],[77.9551,33.3421],[77.9487,33.322],[77.9493,33.301],[77.9531,33.2976],[77.967,33.2927],[77.9889,33.2917],[77.9987,33.2885],[78.0061,33.2836],[78.0155,33.2708],[78.0178,33.2595],[78.0122,33.2543],[78.0166,33.2447],[78.0139,33.2385],[78.0175,33.2339],[78.0222,33.2197],[78.0484,33.2184],[78.0534,33.2225],[78.0775,33.2205],[78.0664,33.2478],[78.0567,33.2672],[78.0498,33.2937],[78.0398,33.3054],[78.0381,33.3111],[78.0398,33.3208],[78.0353,33.3322],[78.0348,33.3376],[78.0202,33.3599],[78.0096,33.3719],[77.994,33.3678]]]},"properties":{"id":"tso-kar-wetland-complex-ramsar","name":"Tso Kar Wetland Complex","category":"ramsar","area_km2":95.8}}]}