{"type":"FeatureCollection","features":[{"type":"Feature","geometry":{"type":"Polygon","coordinates":[[[78.2648,32.9742],[78.2728,32.97],[78.2732,32.9627],[78.267,32.956],[78.2726,32.949],[78.2689,32.942],[78.2734,32.9377],[78.2769,32.9193],[78.2815,32.9162],[78.2848,32.9025],[78.2845,32.8915],[78.2775,32.8799],[78.2823,32.8731],[78.2799,32.8635],[78.2845,32.8613],[78.2892,32.8353],[78.2996,32.828],[78.2948,32.8154],[78.302,32.8064],[78.305,32.7979],[78.3128,32.799],[78.3409,32.7978],[78.3531,32.794],[78.3698,32.7962],[78.3736,32.8017],[78.3661,32.8202],[78.3584,32.8333],[78.3504,32.8368],[78.3407,32.8365],[78.3321,32.848],[78.3378,32.849],[78.3461,32.847],[78.3567,32.8562],[78.362,32.8588],[78.3608,32.8622],[78.3503,32.8607],[78.3444,32.8557],[78.3413,32.8697],[78.3456,32.876],[78.3546,32.8764],[78.3625,32.8742],[78.3653,32.8773],[78.3502,32.9053],[78.35,32.913],[78.353,32.9253],[78.3494,32.9306],[78.3403,32.9361],[78.3425,32.9422],[78.3382,32.9497],[78.3306,32.9533],[78.3328,32.9584],[78.33,32.9694],[78.321,32.9751],[78.3137,32.9824],[78.3101,32.9899],[78.3102,32.9968],[78.3067,33.0016],[78.2963,33.0046],[78.2714,33.0053],[78.276,33.0072],[78.268,33.0104],[78.2661,33.0135],[78.2592,33.0082],[78.2595,33],[78.2658,32.9841],[78.2648,32.9742]]]},"properties":{"id":"tsomoriri-lake-ramsar","name":"Tsomoriri Lake","category":"ramsar","area_km2":120}}]}