{"type":"FeatureCollection","features":[{"type":"Feature","geometry":{"type":"Polygon","coordinates":[[[76.6208,32.5697],[76.6141,32.583],[76.6017,32.5954],[76.5922,32.5966],[76.5996,32.6026],[76.5998,32.6088],[76.5958,32.6126],[76.5887,32.6256],[76.5752,32.6312],[76.5706,32.6278],[76.5715,32.6196],[76.5587,32.6158],[76.5437,32.603],[76.5395,32.5952],[76.5264,32.5928],[76.5055,32.586],[76.4907,32.5772],[76.486,32.5657],[76.4785,32.5567],[76.4777,32.5505],[76.4694,32.5383],[76.4693,32.5356],[76.4818,32.53],[76.4927,32.5195],[76.5031,32.5187],[76.5114,32.5253],[76.5235,32.5327],[76.5416,32.5387],[76.5537,32.5367],[76.5563,32.5327],[76.5678,32.532],[76.5747,32.5428],[76.5799,32.5462],[76.6018,32.5514],[76.6184,32.5624],[76.6208,32.5697]]]},"properties":{"id":"tundah-wls","name":"Tundah Wildlife Sanctuary","category":"wls","area_km2":64}}]}