{"type":"FeatureCollection","features":[{"type":"Feature","geometry":{"type":"Polygon","coordinates":[[[73.845,19.3644],[73.8544,19.357],[73.8604,19.3488],[73.8616,19.3405],[73.8698,19.3355],[73.8772,19.3363],[73.89,19.3289],[73.901,19.3265],[73.9245,19.3271],[73.9284,19.3265],[73.9377,19.32],[73.9503,19.3232],[73.9538,19.3203],[73.9626,19.318],[73.9657,19.3211],[73.9599,19.323],[73.9583,19.3278],[73.9623,19.3313],[73.9636,19.3387],[73.9686,19.3428],[73.9713,19.35],[73.97,19.3539],[73.9606,19.3571],[73.959,19.3632],[73.9523,19.3671],[73.953,19.3693],[73.9452,19.3727],[73.9468,19.3885],[73.9391,19.3907],[73.9338,19.3963],[73.9247,19.399],[73.9245,19.405],[73.9204,19.4056],[73.9172,19.4107],[73.909,19.4157],[73.9002,19.4123],[73.895,19.4144],[73.8945,19.4188],[73.8826,19.4124],[73.8697,19.4161],[73.8631,19.4124],[73.859,19.4037],[73.8534,19.3968],[73.8493,19.3951],[73.8475,19.3794],[73.8442,19.3713],[73.845,19.3644]]]},"properties":{"id":"tungareshwar-wls","name":"Tungareshwar Wildlife Sanctuary","category":"wls","area_km2":85}}]}