{"type":"FeatureCollection","features":[{"type":"Feature","geometry":{"type":"Polygon","coordinates":[[[84.4497,26.7861],[84.4475,26.8048],[84.4423,26.8108],[84.4284,26.8134],[84.4234,26.8076],[84.4235,26.799],[84.4261,26.7937],[84.4334,26.7913],[84.4371,26.7837],[84.4423,26.7801],[84.4429,26.7854],[84.4373,26.7919],[84.427,26.8002],[84.4267,26.807],[84.4325,26.8117],[84.4402,26.8086],[84.4458,26.8005],[84.4445,26.7877],[84.4451,26.7802],[84.4497,26.7861]]]},"properties":{"id":"udaipur-jheel-ramsar","name":"Udaipur Jheel","category":"ramsar","area_km2":3.2}}]}