{"type":"FeatureCollection","features":[{"type":"Feature","geometry":{"type":"Polygon","coordinates":[[[81.913,20.0716],[81.9152,20.0711],[81.9214,20.0799],[81.9228,20.087],[81.9371,20.1023],[81.9456,20.1051],[81.9582,20.0978],[81.9633,20.0904],[81.9737,20.0838],[81.9839,20.0731],[81.9866,20.0627],[81.9953,20.0535],[82.0034,20.0533],[82.0058,20.0556],[82.0123,20.0539],[82.0196,20.0475],[82.0222,20.0483],[82.0254,20.062],[82.0326,20.073],[82.0401,20.096],[82.0489,20.0934],[82.0607,20.1002],[82.067,20.1024],[82.0926,20.099],[82.1008,20.1016],[82.1049,20.1058],[82.1104,20.117],[82.1103,20.1254],[82.1075,20.1318],[82.1,20.1381],[82.0963,20.1457],[82.0956,20.156],[82.0897,20.1643],[82.0948,20.174],[82.1063,20.179],[82.1013,20.1862],[82.1026,20.2239],[82.1039,20.2323],[82.1034,20.2436],[82.1001,20.251],[82.1012,20.2553],[82.0959,20.2607],[82.0956,20.2642],[82.1023,20.2699],[82.1031,20.2781],[82.0999,20.2823],[82.0934,20.2819],[82.0915,20.2868],[82.0947,20.2926],[82.0875,20.3039],[82.0802,20.3088],[82.0748,20.3039],[82.0731,20.307],[82.0647,20.3059],[82.0593,20.2995],[82.0519,20.3001],[82.0459,20.3034],[82.0392,20.3008],[82.0402,20.2966],[82.036,20.2951],[82.0235,20.2976],[82.0184,20.295],[82.0112,20.2793],[82.0081,20.2674],[82.0127,20.2614],[82.0044,20.265],[81.9932,20.2661],[81.9908,20.269],[81.9861,20.2831],[81.9847,20.2753],[81.9773,20.2744],[81.978,20.2548],[81.9757,20.2529],[81.9637,20.2534],[81.9603,20.2458],[81.9653,20.2396],[81.9632,20.2363],[81.9571,20.2345],[81.9475,20.2384],[81.9402,20.2432],[81.9359,20.2515],[81.9327,20.2628],[81.9262,20.2635],[81.9228,20.2695],[81.9158,20.2693],[81.9117,20.2626],[81.9026,20.2589],[81.8936,20.2605],[81.8912,20.258],[81.8903,20.2356],[81.8832,20.2287],[81.8735,20.2167],[81.8614,20.223],[81.8488,20.2388],[81.8404,20.244],[81.8318,20.2416],[81.8301,20.2341],[81.8273,20.2319],[81.8068,20.2314],[81.7951,20.2324],[81.7951,20.2284],[81.7995,20.2253],[81.8029,20.2145],[81.801,20.2066],[81.8059,20.1941],[81.8099,20.1893],[81.8096,20.1734],[81.8161,20.1655],[81.8246,20.1663],[81.8352,20.1625],[81.8442,20.1617],[81.8481,20.1349],[81.8471,20.1275],[81.849,20.1079],[81.8614,20.092],[81.8679,20.0888],[81.8901,20.0891],[81.8963,20.09],[81.9002,20.0933],[81.9077,20.092],[81.9055,20.082],[81.907,20.0759],[81.913,20.0716]]]},"properties":{"id":"udanti-sitanadi-tr","name":"Udanti-Sitanadi Tiger Reserve","category":"tr","area_km2":553.4}}]}