{"type":"FeatureCollection","features":[{"type":"Feature","geometry":{"type":"Polygon","coordinates":[[[82.3937,20.1653],[82.3953,20.1692],[82.3699,20.1747],[82.3579,20.1809],[82.3365,20.1842],[82.3331,20.182],[82.3249,20.1841],[82.314,20.1836],[82.3105,20.1789],[82.3032,20.1759],[82.2928,20.1629],[82.2864,20.1618],[82.2853,20.1778],[82.2839,20.1779],[82.2711,20.1643],[82.2606,20.1663],[82.252,20.1656],[82.2437,20.1616],[82.2338,20.1626],[82.2312,20.1526],[82.2241,20.1473],[82.2171,20.1259],[82.2088,20.1238],[82.2063,20.1198],[82.196,20.1144],[82.1996,20.1088],[82.1924,20.1003],[82.1944,20.0901],[82.192,20.0852],[82.1965,20.0802],[82.1925,20.0729],[82.186,20.0691],[82.1887,20.0638],[82.1847,20.0619],[82.198,20.0463],[82.2052,20.0436],[82.2124,20.0436],[82.2288,20.0312],[82.2328,20.0174],[82.238,20.0149],[82.2264,20.0037],[82.2245,19.9998],[82.2377,20.0032],[82.245,19.9963],[82.2504,20.0016],[82.2467,20.0051],[82.2502,20.0162],[82.2533,20.0194],[82.2577,20.0142],[82.2735,20.0091],[82.2787,20.0046],[82.2875,20.0046],[82.2891,19.9972],[82.2934,19.9965],[82.2994,19.9999],[82.3059,20.0123],[82.3056,20.0172],[82.3092,20.0251],[82.3201,20.0267],[82.3179,20.0392],[82.3157,20.0449],[82.3168,20.0519],[82.3245,20.0557],[82.3284,20.0601],[82.3378,20.0611],[82.3432,20.066],[82.3429,20.0713],[82.354,20.085],[82.3619,20.088],[82.3726,20.0871],[82.383,20.0898],[82.3948,20.0814],[82.4023,20.0803],[82.4007,20.0883],[82.4019,20.0959],[82.3991,20.1001],[82.3995,20.1155],[82.3985,20.1228],[82.3952,20.1284],[82.394,20.1361],[82.3869,20.144],[82.3881,20.1475],[82.3949,20.1507],[82.391,20.1622],[82.3937,20.1653]]]},"properties":{"id":"udanti-wild-buffalo-wls","name":"Udanti Wildlife Sanctuary","category":"wls","area_km2":237.3}}]}