{"type":"FeatureCollection","features":[{"type":"Feature","geometry":{"type":"Polygon","coordinates":[[[84.4467,26.8057],[84.4465,26.8093],[84.4533,26.8075],[84.4523,26.8149],[84.4468,26.8169],[84.4294,26.8192],[84.4233,26.8117],[84.4154,26.806],[84.4105,26.8061],[84.4066,26.7981],[84.4098,26.7938],[84.4189,26.7881],[84.4267,26.794],[84.4322,26.7924],[84.441,26.7792],[84.4434,26.7829],[84.4371,26.7917],[84.4288,26.7984],[84.426,26.8054],[84.4344,26.8081],[84.4347,26.8023],[84.4433,26.8043],[84.4463,26.7977],[84.4451,26.7788],[84.4495,26.7873],[84.4489,26.7977],[84.4467,26.8057]]]},"properties":{"id":"udaypur-wls","name":"Udaypur Wildlife Sanctuary","category":"wls","area_km2":8.9}}]}