{"type":"FeatureCollection","features":[{"type":"Feature","geometry":{"type":"MultiPolygon","coordinates":[[[[87.8225,24.9761],[87.816,24.9812],[87.8111,24.9785],[87.8202,24.9725],[87.8276,24.9639],[87.8304,24.969],[87.8225,24.9761]]],[[[87.8119,25.0135],[87.8136,25.0203],[87.8112,25.0236],[87.8008,25.0136],[87.7963,25.0047],[87.7987,24.9995],[87.8067,24.9953],[87.794,24.9974],[87.7922,24.9956],[87.801,24.9909],[87.7953,24.9888],[87.7965,24.9805],[87.7994,24.9834],[87.8042,24.9802],[87.8035,24.986],[87.8128,24.9864],[87.8125,24.989],[87.8227,24.9906],[87.8198,24.9971],[87.8246,24.9997],[87.8175,25.0066],[87.8179,25.0128],[87.8116,25.0095],[87.8119,25.0135]]]]},"properties":{"id":"udhwa-lake-bird-wls","name":"Udhwa Lake Bird Sanctuary","category":"wls","area_km2":5.7}}]}