{"type":"FeatureCollection","features":[{"type":"Feature","geometry":{"type":"Polygon","coordinates":[[[87.804,25.0131],[87.795,25.0028],[87.8054,24.9972],[87.7939,24.9963],[87.7903,24.9934],[87.799,24.9935],[87.7963,24.9902],[87.7964,24.9792],[87.7996,24.9838],[87.8035,24.9796],[87.8063,24.9877],[87.8104,24.9847],[87.8143,24.9865],[87.8132,24.9914],[87.8192,24.9905],[87.822,24.9857],[87.8318,24.9784],[87.8297,24.9732],[87.8253,24.9774],[87.8196,24.9783],[87.8155,24.9819],[87.8088,24.9781],[87.8201,24.9723],[87.8275,24.9634],[87.8322,24.9671],[87.8263,24.9716],[87.8305,24.9736],[87.8324,24.9787],[87.8219,24.9864],[87.8233,24.9923],[87.8199,24.9962],[87.8258,24.9997],[87.8173,25.0069],[87.8177,25.0129],[87.8118,25.0122],[87.8142,25.018],[87.8121,25.0243],[87.8063,25.0214],[87.8013,25.0143],[87.804,25.0131]]]},"properties":{"id":"udhwa-lake-ramsar","name":"Udhwa Lake","category":"ramsar","area_km2":9.5}}]}