{"type":"FeatureCollection","features":[{"type":"Feature","geometry":{"type":"Polygon","coordinates":[[[78.1631,28.7541],[78.149,28.7603],[78.1454,28.7642],[78.1422,28.7618],[78.1526,28.7505],[78.1652,28.7455],[78.1709,28.7404],[78.1805,28.728],[78.1829,28.7219],[78.1883,28.7183],[78.1903,28.7108],[78.1838,28.7042],[78.1842,28.6953],[78.1884,28.6902],[78.1888,28.6793],[78.193,28.6638],[78.1837,28.6439],[78.1877,28.6139],[78.191,28.6047],[78.1974,28.6001],[78.2008,28.5938],[78.199,28.5819],[78.2012,28.5747],[78.1992,28.5709],[78.1993,28.5623],[78.2021,28.5546],[78.2014,28.5461],[78.2078,28.5253],[78.2049,28.5161],[78.2096,28.5069],[78.2174,28.5005],[78.2334,28.4995],[78.2384,28.4936],[78.2394,28.4883],[78.247,28.4796],[78.2808,28.4598],[78.282,28.4463],[78.2803,28.4385],[78.2868,28.4284],[78.2919,28.4101],[78.2841,28.3886],[78.2746,28.3786],[78.2708,28.3708],[78.2697,28.3618],[78.2753,28.3349],[78.2844,28.3207],[78.2929,28.3165],[78.2943,28.3073],[78.3027,28.2853],[78.3113,28.2738],[78.319,28.2686],[78.3294,28.2695],[78.3404,28.2656],[78.3484,28.2575],[78.3553,28.2536],[78.3646,28.2425],[78.3674,28.2335],[78.3732,28.2284],[78.3956,28.1895],[78.3972,28.1929],[78.3793,28.224],[78.3666,28.2426],[78.3672,28.2479],[78.3601,28.2615],[78.3566,28.2649],[78.3555,28.2728],[78.3461,28.2743],[78.3316,28.2724],[78.3152,28.2787],[78.3121,28.286],[78.3137,28.2903],[78.3145,28.3058],[78.2967,28.3251],[78.2845,28.3332],[78.2792,28.3393],[78.281,28.3456],[78.2769,28.3577],[78.2782,28.3704],[78.2804,28.374],[78.2896,28.3811],[78.2905,28.3851],[78.3029,28.3943],[78.3016,28.4036],[78.2956,28.4109],[78.297,28.4175],[78.2938,28.4266],[78.2942,28.4365],[78.2893,28.4422],[78.2895,28.4621],[78.2844,28.4662],[78.281,28.4732],[78.2748,28.4772],[78.257,28.4813],[78.2495,28.4864],[78.2458,28.4916],[78.2436,28.4996],[78.2389,28.5053],[78.2179,28.5211],[78.2111,28.5289],[78.2065,28.5483],[78.2067,28.59],[78.203,28.6021],[78.1981,28.6091],[78.2011,28.6153],[78.1916,28.6289],[78.1937,28.6342],[78.1941,28.645],[78.1995,28.65],[78.1993,28.6633],[78.2045,28.6722],[78.2111,28.6771],[78.2101,28.6853],[78.2131,28.6887],[78.2091,28.6951],[78.2089,28.7097],[78.2042,28.7216],[78.1999,28.7256],[78.1968,28.733],[78.1919,28.735],[78.1889,28.7404],[78.1767,28.7517],[78.1631,28.7541]]]},"properties":{"id":"upper-ganga-river-brijghat-to-narora-stretch-ramsar","name":"Upper Ganga River (Brijghat to Narora Stretch)","category":"ramsar","area_km2":265.9}}]}