{"type":"FeatureCollection","features":[{"type":"Feature","geometry":{"type":"Polygon","coordinates":[[[79.6274,30.7703],[79.6239,30.7595],[79.615,30.7514],[79.5898,30.7508],[79.5762,30.7465],[79.5554,30.7377],[79.5535,30.7298],[79.5566,30.719],[79.5542,30.7109],[79.5574,30.7039],[79.5722,30.7016],[79.58,30.7071],[79.5935,30.7109],[79.6041,30.7096],[79.6107,30.7133],[79.6158,30.7134],[79.6218,30.7088],[79.6274,30.7078],[79.6296,30.7025],[79.6355,30.6986],[79.6453,30.6987],[79.6593,30.7015],[79.6671,30.6967],[79.6762,30.6947],[79.6931,30.6999],[79.7021,30.7002],[79.7044,30.7029],[79.6999,30.7156],[79.7,30.7258],[79.6881,30.7329],[79.6818,30.7433],[79.6999,30.7517],[79.6989,30.7564],[79.6857,30.7634],[79.6854,30.7736],[79.6751,30.7757],[79.665,30.7806],[79.6473,30.7846],[79.6391,30.7804],[79.6385,30.7752],[79.63,30.7732],[79.6274,30.7703]]]},"properties":{"id":"valley-of-flowers-np","name":"Valley of Flowers National Park","category":"np","area_km2":87.5}}]}