{"type":"FeatureCollection","features":[{"type":"Feature","geometry":{"type":"Polygon","coordinates":[[[84.1087,27.5218],[84.0975,27.5154],[84.0999,27.5104],[84.0978,27.498],[84.0948,27.489],[84.0829,27.4829],[84.08,27.4844],[84.0695,27.4806],[84.0663,27.4693],[84.0616,27.4666],[84.0601,27.458],[84.0621,27.4567],[84.0541,27.4485],[84.0511,27.4428],[84.0435,27.4434],[84.0316,27.4412],[84.0259,27.4385],[84.0273,27.4338],[84.0438,27.4327],[84.0655,27.4187],[84.0797,27.4108],[84.082,27.4078],[84.0835,27.4147],[84.088,27.4235],[84.0935,27.4262],[84.1014,27.421],[84.1033,27.4167],[84.1098,27.4146],[84.1228,27.4034],[84.1266,27.4037],[84.1314,27.4103],[84.1396,27.4143],[84.1408,27.408],[84.1374,27.4027],[84.127,27.4009],[84.1306,27.394],[84.13,27.3868],[84.1337,27.3863],[84.1394,27.3907],[84.1499,27.3919],[84.1492,27.4041],[84.1562,27.4089],[84.1631,27.4058],[84.1699,27.4075],[84.1731,27.4042],[84.1743,27.3962],[84.1696,27.3947],[84.163,27.3871],[84.1607,27.3808],[84.1513,27.3742],[84.1482,27.3696],[84.1509,27.3579],[84.1586,27.3494],[84.1795,27.3362],[84.1792,27.3473],[84.1736,27.3541],[84.1743,27.3607],[84.1709,27.3659],[84.1698,27.374],[84.1857,27.3835],[84.187,27.3792],[84.1948,27.3806],[84.1986,27.3706],[84.194,27.3609],[84.1876,27.3511],[84.1919,27.3292],[84.1967,27.3275],[84.2034,27.3303],[84.2115,27.3293],[84.2148,27.3455],[84.2174,27.3425],[84.2182,27.3341],[84.2301,27.3323],[84.2353,27.3243],[84.231,27.3188],[84.2314,27.3142],[84.2483,27.3057],[84.253,27.3001],[84.253,27.2918],[84.2652,27.2834],[84.2677,27.2891],[84.2815,27.2872],[84.2988,27.2908],[84.3075,27.2864],[84.3103,27.287],[84.3099,27.2954],[84.3127,27.3015],[84.3119,27.3065],[84.3042,27.3161],[84.3023,27.3246],[84.3041,27.3293],[84.3167,27.3333],[84.3278,27.3226],[84.3227,27.3127],[84.3268,27.3061],[84.3306,27.2935],[84.3414,27.2943],[84.3422,27.2988],[84.3403,27.3174],[84.3516,27.3142],[84.3594,27.3035],[84.3648,27.3024],[84.3732,27.2965],[84.3819,27.2967],[84.384,27.3121],[84.3922,27.3143],[84.3995,27.3117],[84.4024,27.2995],[84.4118,27.2994],[84.4212,27.3028],[84.4311,27.3128],[84.4542,27.3088],[84.4578,27.3139],[84.4845,27.3145],[84.5047,27.3114],[84.5079,27.3186],[84.5152,27.3193],[84.5148,27.3285],[84.5193,27.3306],[84.539,27.3273],[84.5536,27.3265],[84.5616,27.3322],[84.5625,27.3475],[84.5531,27.349],[84.5185,27.3521],[84.4899,27.3573],[84.4756,27.3622],[84.4725,27.3554],[84.4665,27.3563],[84.4649,27.3594],[84.4579,27.362],[84.4481,27.3631],[84.4404,27.3705],[84.4357,27.3692],[84.425,27.3718],[84.4209,27.3697],[84.4135,27.3707],[84.3961,27.3704],[84.3912,27.3681],[84.389,27.3712],[84.3735,27.3766],[84.3643,27.3732],[84.3474,27.3746],[84.3281,27.3807],[84.3195,27.3813],[84.3142,27.3851],[84.3005,27.3907],[84.2924,27.3848],[84.2846,27.3927],[84.2831,27.3965],[84.2769,27.3963],[84.2759,27.4015],[84.2796,27.4067],[84.2783,27.4158],[84.2733,27.4215],[84.2734,27.428],[84.2668,27.4346],[84.2618,27.4355],[84.2583,27.4398],[84.2601,27.4453],[84.2549,27.4501],[84.2543,27.454],[84.2371,27.4528],[84.2311,27.4563],[84.2259,27.4505],[84.2207,27.4482],[84.2197,27.4408],[84.2083,27.443],[84.2061,27.4467],[84.208,27.4563],[84.2042,27.4595],[84.2094,27.4649],[84.2054,27.4704],[84.2001,27.4728],[84.1869,27.4701],[84.1795,27.4758],[84.1708,27.4757],[84.1709,27.4792],[84.1627,27.4842],[84.1543,27.484],[84.1491,27.4859],[84.1469,27.495],[84.1446,27.4964],[84.1501,27.5008],[84.1484,27.503],[84.1514,27.5167],[84.1459,27.5187],[84.1387,27.5177],[84.1301,27.5118],[84.1242,27.5108],[84.1173,27.5134],[84.1168,27.5192],[84.1087,27.5218]]]},"properties":{"id":"valmiki-wls","name":"Valmiki Wildlife Sanctuary","category":"wls","area_km2":545.2}}]}