{"type":"FeatureCollection","features":[{"type":"Feature","geometry":{"type":"MultiPolygon","coordinates":[[[[83.8963,27.3759],[83.8919,27.3758],[83.8841,27.3824],[83.8809,27.3812],[83.8832,27.3743],[83.8809,27.3665],[83.872,27.3578],[83.864,27.3472],[83.8639,27.3376],[83.8587,27.3331],[83.8368,27.3222],[83.8456,27.3152],[83.8531,27.3171],[83.8602,27.3078],[83.8715,27.3072],[83.8919,27.3205],[83.9043,27.3265],[83.9169,27.3265],[83.9258,27.3215],[83.9345,27.3071],[83.9344,27.2996],[83.9293,27.2916],[83.9131,27.2775],[83.9048,27.2724],[83.9053,27.2574],[83.9118,27.2459],[83.9234,27.2418],[83.9397,27.2379],[83.9498,27.2375],[83.9557,27.2353],[83.9702,27.224],[83.9729,27.2188],[83.9676,27.213],[83.9681,27.209],[83.979,27.2038],[83.9902,27.1945],[84.0017,27.1796],[84.0072,27.1756],[84.0147,27.1752],[84.0217,27.1715],[84.0325,27.1704],[84.0355,27.1631],[84.0459,27.1655],[84.0452,27.1723],[84.0324,27.1847],[84.0389,27.1925],[84.0381,27.1968],[84.026,27.2145],[84.014,27.2287],[84.0061,27.234],[84.0057,27.2413],[83.9954,27.2486],[83.986,27.2495],[83.979,27.2619],[83.9735,27.2763],[83.9653,27.2759],[83.9603,27.2805],[83.9526,27.2772],[83.9422,27.2806],[83.9404,27.2843],[83.9472,27.2917],[83.9466,27.2995],[83.9493,27.3084],[83.9476,27.3146],[83.928,27.3414],[83.9254,27.3535],[83.9229,27.3555],[83.9123,27.3504],[83.9059,27.3523],[83.8977,27.3456],[83.8888,27.3478],[83.8859,27.3554],[83.8983,27.3701],[83.9047,27.3746],[83.9037,27.3768],[83.8963,27.3759]]],[[[83.939,27.4486],[83.9335,27.4505],[83.9197,27.4431],[83.9121,27.4406],[83.8887,27.4384],[83.8804,27.4359],[83.871,27.4362],[83.8648,27.4387],[83.8557,27.4458],[83.8483,27.4464],[83.843,27.4417],[83.8331,27.4251],[83.8391,27.4179],[83.8566,27.4041],[83.8582,27.3974],[83.8645,27.3912],[83.8747,27.3873],[83.88,27.3881],[83.8878,27.3932],[83.8945,27.4043],[83.8925,27.4072],[83.8873,27.403],[83.8831,27.4038],[83.8809,27.4101],[83.8834,27.417],[83.8939,27.4201],[83.9022,27.4207],[83.9071,27.4264],[83.9137,27.4306],[83.9205,27.429],[83.9212,27.4215],[83.9178,27.4109],[83.9126,27.409],[83.9062,27.3986],[83.9068,27.3869],[83.9166,27.3942],[83.9201,27.3942],[83.9213,27.3873],[83.9326,27.3862],[83.9383,27.3889],[83.9507,27.3796],[83.9509,27.3718],[83.9534,27.3625],[83.9501,27.3605],[83.9505,27.3539],[83.9598,27.3477],[83.9813,27.3472],[83.9969,27.3488],[84.0023,27.3441],[83.9993,27.3359],[84.0008,27.33],[83.9984,27.3223],[83.9929,27.3241],[83.9813,27.3105],[83.9855,27.3081],[83.9889,27.3129],[83.9952,27.3162],[84.0016,27.3147],[84.0048,27.3228],[84.0127,27.3293],[84.0249,27.3321],[84.0313,27.3261],[84.0414,27.3261],[84.0521,27.3233],[84.0539,27.3098],[84.0749,27.3107],[84.0785,27.3081],[84.0802,27.3013],[84.0861,27.2996],[84.0911,27.2945],[84.1007,27.2941],[84.1056,27.2895],[84.1105,27.2926],[84.1171,27.2756],[84.1175,27.2688],[84.1154,27.2601],[84.1246,27.2598],[84.13,27.2523],[84.1333,27.2569],[84.1241,27.2641],[84.121,27.2733],[84.1248,27.2773],[84.1357,27.2795],[84.1472,27.2796],[84.154,27.2743],[84.1614,27.2767],[84.1703,27.2762],[84.173,27.2683],[84.1748,27.2734],[84.1809,27.2761],[84.1902,27.2752],[84.1987,27.2808],[84.2,27.2754],[84.2157,27.2773],[84.2219,27.2815],[84.2261,27.2782],[84.2334,27.2779],[84.239,27.2852],[84.2472,27.2807],[84.252,27.2838],[84.2513,27.2918],[84.2469,27.2954],[84.2371,27.2973],[84.2283,27.3013],[84.2232,27.3059],[84.218,27.3149],[84.2119,27.3203],[84.2019,27.3228],[84.1791,27.3238],[84.1731,27.3256],[84.1602,27.3325],[84.1582,27.3359],[84.1409,27.347],[84.1376,27.3551],[84.1373,27.3646],[84.1351,27.3685],[84.1281,27.3697],[84.1206,27.3745],[84.1033,27.3905],[84.0923,27.4033],[84.0852,27.4062],[84.0835,27.4147],[84.088,27.4235],[84.0935,27.4262],[84.1014,27.421],[84.1033,27.4167],[84.1098,27.4146],[84.1228,27.4034],[84.1266,27.4037],[84.1314,27.4103],[84.1396,27.4143],[84.1408,27.408],[84.1374,27.4027],[84.127,27.4009],[84.1306,27.394],[84.13,27.3868],[84.1337,27.3863],[84.1394,27.3907],[84.1499,27.3919],[84.1492,27.4041],[84.1562,27.4089],[84.1631,27.4058],[84.1699,27.4075],[84.1731,27.4042],[84.1743,27.3962],[84.1696,27.3947],[84.163,27.3871],[84.1607,27.3808],[84.1513,27.3742],[84.1482,27.3696],[84.1509,27.3579],[84.1586,27.3494],[84.1795,27.3362],[84.1792,27.3473],[84.1736,27.3541],[84.1743,27.3607],[84.1709,27.3659],[84.1698,27.374],[84.1857,27.3835],[84.187,27.3792],[84.1948,27.3806],[84.1986,27.3706],[84.194,27.3609],[84.1876,27.3511],[84.1919,27.3292],[84.1967,27.3275],[84.2034,27.3303],[84.2115,27.3293],[84.2148,27.3455],[84.2174,27.3425],[84.2182,27.3341],[84.2301,27.3323],[84.2353,27.3243],[84.231,27.3188],[84.2314,27.3142],[84.2483,27.3057],[84.253,27.3001],[84.253,27.2918],[84.2652,27.2834],[84.2677,27.2891],[84.2815,27.2872],[84.2988,27.2908],[84.3075,27.2864],[84.3103,27.287],[84.3099,27.2954],[84.3127,27.3015],[84.3119,27.3065],[84.3042,27.3161],[84.3023,27.3246],[84.3041,27.3293],[84.3167,27.3333],[84.3278,27.3226],[84.3227,27.3127],[84.3268,27.3061],[84.3306,27.2935],[84.3414,27.2943],[84.3422,27.2988],[84.3403,27.3174],[84.3516,27.3142],[84.3594,27.3035],[84.3648,27.3024],[84.3732,27.2965],[84.3819,27.2967],[84.384,27.3121],[84.3922,27.3143],[84.3995,27.3117],[84.4024,27.2995],[84.4118,27.2994],[84.4212,27.3028],[84.4311,27.3128],[84.4542,27.3088],[84.4578,27.3139],[84.4845,27.3145],[84.5047,27.3114],[84.5079,27.3186],[84.5152,27.3193],[84.5148,27.3285],[84.5193,27.3306],[84.539,27.3273],[84.5536,27.3265],[84.5616,27.3322],[84.5625,27.3475],[84.5531,27.349],[84.5185,27.3521],[84.4899,27.3573],[84.4756,27.3622],[84.4725,27.3554],[84.4665,27.3563],[84.4649,27.3594],[84.4579,27.362],[84.4481,27.3631],[84.4404,27.3705],[84.4357,27.3692],[84.425,27.3718],[84.4209,27.3697],[84.4135,27.3707],[84.3961,27.3704],[84.3912,27.3681],[84.389,27.3712],[84.3735,27.3766],[84.3643,27.3732],[84.3474,27.3746],[84.3281,27.3807],[84.3195,27.3813],[84.3142,27.3851],[84.3005,27.3907],[84.2924,27.3848],[84.2846,27.3927],[84.2831,27.3965],[84.2769,27.3963],[84.2759,27.4015],[84.2796,27.4067],[84.2783,27.4158],[84.2733,27.4215],[84.2734,27.428],[84.2668,27.4346],[84.2618,27.4355],[84.2583,27.4398],[84.2601,27.4453],[84.2549,27.4501],[84.2543,27.454],[84.2371,27.4528],[84.2311,27.4563],[84.2259,27.4505],[84.2207,27.4482],[84.2197,27.4408],[84.2083,27.443],[84.2061,27.4467],[84.208,27.4563],[84.2042,27.4595],[84.2094,27.4649],[84.2054,27.4704],[84.2001,27.4728],[84.1869,27.4701],[84.1795,27.4758],[84.1708,27.4757],[84.1709,27.4792],[84.1627,27.4842],[84.1543,27.484],[84.1491,27.4859],[84.1469,27.495],[84.1446,27.4964],[84.1501,27.5008],[84.1484,27.503],[84.1514,27.5167],[84.1459,27.5187],[84.1387,27.5177],[84.1301,27.5118],[84.1242,27.5108],[84.1173,27.5134],[84.1168,27.5192],[84.105,27.5211],[84.0975,27.5154],[84.0999,27.5104],[84.0978,27.498],[84.0948,27.489],[84.0829,27.4829],[84.08,27.4844],[84.0695,27.4806],[84.0663,27.4693],[84.0616,27.4666],[84.0601,27.458],[84.0621,27.4567],[84.0541,27.4485],[84.0511,27.4428],[84.0435,27.4434],[84.0316,27.4412],[84.0259,27.4385],[84.0269,27.4335],[84.0158,27.4349],[84.0028,27.4425],[83.9983,27.4411],[83.9977,27.4456],[83.9846,27.4438],[83.9791,27.44],[83.9655,27.4461],[83.9573,27.4426],[83.9451,27.4414],[83.939,27.4486]]]]},"properties":{"id":"valmiki-tr","name":"Valmiki Tiger Reserve","category":"tr","area_km2":880.8}}]}