{"type":"FeatureCollection","features":[{"type":"Feature","geometry":{"type":"MultiPolygon","coordinates":[[[[83.9366,27.4483],[83.9335,27.4505],[83.9197,27.4431],[83.9121,27.4406],[83.8887,27.4384],[83.8804,27.4359],[83.871,27.4362],[83.8648,27.4387],[83.8557,27.4458],[83.8483,27.4464],[83.843,27.4417],[83.8331,27.4251],[83.8391,27.4179],[83.8566,27.4041],[83.8582,27.3974],[83.8645,27.3912],[83.8747,27.3873],[83.88,27.3881],[83.8878,27.3932],[83.8945,27.4043],[83.8925,27.4072],[83.8873,27.403],[83.8831,27.4038],[83.8809,27.4101],[83.8834,27.417],[83.8939,27.4201],[83.9022,27.4207],[83.9071,27.4264],[83.9137,27.4306],[83.9205,27.429],[83.9212,27.4215],[83.9178,27.4109],[83.9126,27.409],[83.9062,27.3986],[83.9068,27.3869],[83.9166,27.3942],[83.9201,27.3942],[83.9213,27.3873],[83.9326,27.3862],[83.9383,27.3889],[83.9507,27.3796],[83.9509,27.3718],[83.9534,27.3625],[83.9501,27.3605],[83.9505,27.3539],[83.9598,27.3477],[83.9813,27.3472],[83.9969,27.3488],[84.0023,27.3441],[83.9993,27.3359],[84.0008,27.33],[83.9984,27.3223],[83.9929,27.3241],[83.9813,27.3105],[83.9855,27.3081],[83.9889,27.3129],[83.9952,27.3162],[84.0016,27.3147],[84.0048,27.3228],[84.0127,27.3293],[84.0249,27.3321],[84.0313,27.3261],[84.0414,27.3261],[84.0521,27.3233],[84.0539,27.3098],[84.0749,27.3107],[84.0785,27.3081],[84.0802,27.3013],[84.0861,27.2996],[84.0911,27.2945],[84.1007,27.2941],[84.1056,27.2895],[84.1105,27.2926],[84.1171,27.2756],[84.1175,27.2688],[84.1154,27.2601],[84.1246,27.2598],[84.13,27.2523],[84.1333,27.2569],[84.1241,27.2641],[84.121,27.2733],[84.1248,27.2773],[84.1357,27.2795],[84.1472,27.2796],[84.154,27.2743],[84.1614,27.2767],[84.1703,27.2762],[84.173,27.2683],[84.1748,27.2734],[84.1809,27.2761],[84.1902,27.2752],[84.1987,27.2808],[84.2,27.2754],[84.2157,27.2773],[84.2219,27.2815],[84.2261,27.2782],[84.2334,27.2779],[84.239,27.2852],[84.2472,27.2807],[84.252,27.2838],[84.2513,27.2918],[84.2469,27.2954],[84.2371,27.2973],[84.2283,27.3013],[84.2232,27.3059],[84.218,27.3149],[84.2119,27.3203],[84.2019,27.3228],[84.1791,27.3238],[84.1731,27.3256],[84.1602,27.3325],[84.1582,27.3359],[84.1409,27.347],[84.1376,27.3551],[84.1373,27.3646],[84.1351,27.3685],[84.1281,27.3697],[84.1206,27.3745],[84.1033,27.3905],[84.0923,27.4033],[84.082,27.4078],[84.0797,27.4108],[84.0655,27.4187],[84.0438,27.4327],[84.0239,27.433],[84.0158,27.4349],[84.0028,27.4425],[83.9983,27.4411],[83.9977,27.4456],[83.9846,27.4438],[83.9791,27.44],[83.9655,27.4461],[83.9573,27.4426],[83.9451,27.4414],[83.9403,27.4486],[83.9366,27.4483]]],[[[83.8919,27.3758],[83.8841,27.3824],[83.8809,27.3812],[83.8832,27.3743],[83.8809,27.3665],[83.872,27.3578],[83.864,27.3472],[83.8639,27.3376],[83.8587,27.3331],[83.8368,27.3222],[83.8456,27.3152],[83.8531,27.3171],[83.8602,27.3078],[83.8715,27.3072],[83.8919,27.3205],[83.9043,27.3265],[83.9169,27.3265],[83.9258,27.3215],[83.9345,27.3071],[83.9344,27.2996],[83.9293,27.2916],[83.9131,27.2775],[83.9048,27.2724],[83.9053,27.2574],[83.9118,27.2459],[83.9234,27.2418],[83.9397,27.2379],[83.9498,27.2375],[83.9557,27.2353],[83.9702,27.224],[83.9729,27.2188],[83.9676,27.213],[83.9681,27.209],[83.979,27.2038],[83.9902,27.1945],[84.0017,27.1796],[84.0072,27.1756],[84.0147,27.1752],[84.0217,27.1715],[84.0325,27.1704],[84.0355,27.1631],[84.0459,27.1655],[84.0452,27.1723],[84.0324,27.1847],[84.0389,27.1925],[84.0381,27.1968],[84.026,27.2145],[84.014,27.2287],[84.0061,27.234],[84.0057,27.2413],[83.9954,27.2486],[83.986,27.2495],[83.979,27.2619],[83.9735,27.2763],[83.9653,27.2759],[83.9603,27.2805],[83.9526,27.2772],[83.9422,27.2806],[83.9404,27.2843],[83.9472,27.2917],[83.9466,27.2995],[83.9493,27.3084],[83.9476,27.3146],[83.928,27.3414],[83.9254,27.3535],[83.9229,27.3555],[83.9123,27.3504],[83.9059,27.3523],[83.8977,27.3456],[83.8888,27.3478],[83.8859,27.3554],[83.8983,27.3701],[83.9047,27.3746],[83.9037,27.3768],[83.8919,27.3758]]]]},"properties":{"id":"valmiki-np","name":"Valmiki National Park","category":"np","area_km2":335.7}}]}