{"type":"FeatureCollection","features":[{"type":"Feature","geometry":{"type":"Polygon","coordinates":[[[77.6944,26.594],[77.6977,26.5881],[77.6973,26.5818],[77.7143,26.5922],[77.7131,26.5962],[77.72,26.5999],[77.7169,26.6045],[77.7207,26.6054],[77.7232,26.5989],[77.7344,26.5983],[77.7411,26.593],[77.7403,26.5864],[77.7444,26.5813],[77.7497,26.5845],[77.7491,26.5874],[77.7547,26.5907],[77.7654,26.5886],[77.767,26.5967],[77.7725,26.6],[77.7797,26.6075],[77.7863,26.6074],[77.7844,26.613],[77.7857,26.6189],[77.7786,26.6239],[77.7722,26.6243],[77.7718,26.6282],[77.7665,26.6305],[77.7655,26.6376],[77.7531,26.6406],[77.7488,26.6331],[77.7489,26.6391],[77.7386,26.6375],[77.7377,26.6305],[77.7323,26.6211],[77.7257,26.62],[77.7188,26.6217],[77.7196,26.628],[77.7167,26.6295],[77.7136,26.6233],[77.715,26.6174],[77.7099,26.6176],[77.7112,26.6093],[77.705,26.6118],[77.6944,26.594]]]},"properties":{"id":"van-vihar-wls","name":"Van Vihar Wildlife Sanctuary","category":"wls","area_km2":25.6}}]}