{"type":"FeatureCollection","features":[{"type":"Feature","geometry":{"type":"Polygon","coordinates":[[[73.4814,20.7643],[73.4879,20.7664],[73.4858,20.7853],[73.4775,20.7959],[73.4734,20.7923],[73.4725,20.7965],[73.4643,20.8025],[73.454,20.8023],[73.4464,20.8049],[73.4459,20.8002],[73.4391,20.8003],[73.438,20.7937],[73.4396,20.7875],[73.4361,20.7829],[73.4357,20.7748],[73.4411,20.7714],[73.4402,20.762],[73.4365,20.7568],[73.439,20.754],[73.4552,20.7554],[73.4814,20.7643]]]},"properties":{"id":"vansda-np","name":"Vansda National Park","category":"np","area_km2":24}}]}