{"type":"FeatureCollection","features":[{"type":"Feature","geometry":{"type":"Polygon","coordinates":[[[79.7131,23.5308],[79.7186,23.5191],[79.7388,23.5183],[79.7443,23.5159],[79.7486,23.5102],[79.7498,23.517],[79.7545,23.5194],[79.764,23.5013],[79.7832,23.5068],[79.8017,23.5054],[79.8161,23.5134],[79.8262,23.5147],[79.8217,23.5223],[79.7962,23.5327],[79.7732,23.5342],[79.7695,23.5384],[79.7767,23.5547],[79.7724,23.5605],[79.7735,23.5664],[79.7698,23.5652],[79.7296,23.5579],[79.7154,23.5421],[79.7131,23.5308]]]},"properties":{"id":"veerangna-durgawati-wls","name":"Veerangna Durgawati Wildlife Sanctuary","category":"wls","area_km2":24}}]}