{"type":"FeatureCollection","features":[{"type":"Feature","geometry":{"type":"Polygon","coordinates":[[[77.8771,8.6948],[77.876,8.6905],[77.8692,8.6923],[77.8654,8.6887],[77.8779,8.6767],[77.8843,8.664],[77.8923,8.6628],[77.8985,8.674],[77.8998,8.6856],[77.8989,8.6913],[77.8941,8.6923],[77.8932,8.6979],[77.8955,8.701],[77.9043,8.6979],[77.9086,8.6984],[77.9063,8.7051],[77.8928,8.7188],[77.8905,8.718],[77.8838,8.727],[77.886,8.7285],[77.8771,8.734],[77.8701,8.7293],[77.8741,8.7232],[77.8747,8.7133],[77.8789,8.7053],[77.8765,8.7001],[77.8771,8.6948]]]},"properties":{"id":"vellanadu-blackbuck-wls","name":"Vellanadu Blackbuck Sanctuary","category":"wls","area_km2":16.4}}]}