{"type":"FeatureCollection","features":[{"type":"Feature","geometry":{"type":"Polygon","coordinates":[[[76.3147,9.9498],[76.3086,9.9502],[76.3049,9.9462],[76.3039,9.9362],[76.2986,9.9401],[76.3044,9.9259],[76.2979,9.9319],[76.2929,9.93],[76.2945,9.925],[76.2878,9.9273],[76.2875,9.9218],[76.2924,9.9206],[76.2927,9.915],[76.2957,9.9157],[76.2965,9.8933],[76.2922,9.8972],[76.2927,9.9096],[76.2858,9.9087],[76.2862,9.9027],[76.2737,9.8998],[76.2675,9.9109],[76.2615,9.9273],[76.2528,9.9175],[76.257,9.9067],[76.2694,9.8654],[76.2634,9.8656],[76.2834,9.755],[76.2899,9.6909],[76.3069,9.7005],[76.3042,9.731],[76.3036,9.768],[76.2975,9.8129],[76.2988,9.8214],[76.2961,9.8205],[76.2935,9.848],[76.2955,9.8465],[76.3013,9.8262],[76.3067,9.8231],[76.3077,9.826],[76.3049,9.8336],[76.3057,9.84],[76.303,9.8535],[76.2965,9.8597],[76.296,9.8812],[76.2945,9.8847],[76.2967,9.8903],[76.3054,9.8822],[76.3192,9.8756],[76.317,9.8659],[76.3105,9.8618],[76.309,9.8541],[76.3128,9.8436],[76.3119,9.8366],[76.3142,9.8253],[76.3186,9.8248],[76.3204,9.815],[76.3171,9.8123],[76.3176,9.8018],[76.3194,9.7994],[76.3233,9.8044],[76.3241,9.7972],[76.3187,9.7966],[76.3196,9.787],[76.3259,9.786],[76.329,9.7785],[76.3315,9.7629],[76.3317,9.7529],[76.3292,9.7366],[76.3305,9.7303],[76.3346,9.7316],[76.337,9.7416],[76.3409,9.7399],[76.3412,9.7275],[76.344,9.7251],[76.3444,9.7129],[76.3402,9.7066],[76.3423,9.6973],[76.3455,9.7125],[76.3476,9.7105],[76.3528,9.7129],[76.3555,9.7076],[76.3616,9.7058],[76.3604,9.7005],[76.3715,9.6853],[76.3821,9.6826],[76.385,9.6784],[76.3941,9.6775],[76.3916,9.6719],[76.3914,9.6599],[76.3819,9.6517],[76.3798,9.6405],[76.381,9.6334],[76.3778,9.6253],[76.3665,9.6099],[76.3658,9.6012],[76.3637,9.5968],[76.3648,9.5884],[76.3676,9.5848],[76.3648,9.5787],[76.3589,9.5748],[76.3595,9.5652],[76.3572,9.5635],[76.357,9.5545],[76.3528,9.538],[76.3527,9.5329],[76.3575,9.5252],[76.3718,9.5207],[76.3745,9.5222],[76.3792,9.5166],[76.384,9.5161],[76.3829,9.534],[76.435,9.5513],[76.4351,9.5556],[76.4282,9.5553],[76.4181,9.5596],[76.4161,9.5679],[76.4201,9.5743],[76.4266,9.6043],[76.4286,9.6036],[76.4307,9.6122],[76.426,9.6203],[76.4308,9.6338],[76.4351,9.6339],[76.4444,9.6276],[76.4552,9.6256],[76.449,9.634],[76.4262,9.6401],[76.4217,9.6467],[76.4223,9.6526],[76.4194,9.6574],[76.4082,9.6664],[76.4044,9.6671],[76.4058,9.6722],[76.4132,9.6834],[76.4147,9.6943],[76.413,9.6978],[76.4072,9.7005],[76.4006,9.6965],[76.3953,9.7018],[76.3858,9.7013],[76.3831,9.7043],[76.3883,9.7185],[76.3905,9.7444],[76.3862,9.7595],[76.3781,9.7656],[76.3774,9.7701],[76.3736,9.7724],[76.3746,9.7774],[76.3689,9.7871],[76.3683,9.7911],[76.3759,9.7945],[76.3804,9.8042],[76.3854,9.8082],[76.3912,9.8192],[76.3979,9.8129],[76.3999,9.8014],[76.4102,9.7989],[76.418,9.8011],[76.4196,9.8071],[76.416,9.8216],[76.4053,9.8393],[76.4014,9.8509],[76.3983,9.8541],[76.3935,9.8652],[76.3879,9.8735],[76.3833,9.8724],[76.382,9.8899],[76.3789,9.8961],[76.3756,9.9117],[76.3699,9.9097],[76.3729,9.9042],[76.3717,9.8993],[76.3765,9.8942],[76.3782,9.889],[76.3752,9.8869],[76.3834,9.8701],[76.3827,9.8673],[76.3867,9.8517],[76.3898,9.8491],[76.3884,9.8447],[76.3812,9.8441],[76.3843,9.8486],[76.3797,9.8535],[76.3778,9.8642],[76.3734,9.8698],[76.3722,9.8758],[76.3667,9.885],[76.3595,9.9025],[76.3556,9.9095],[76.3524,9.921],[76.3464,9.9322],[76.3388,9.9408],[76.3338,9.9342],[76.3336,9.9275],[76.3251,9.9265],[76.3245,9.9319],[76.3215,9.9337],[76.3154,9.9331],[76.312,9.9376],[76.3123,9.9491],[76.3147,9.9498]],[[76.3106,9.9456],[76.3115,9.9373],[76.3149,9.9327],[76.3207,9.9328],[76.3243,9.9241],[76.3203,9.9203],[76.3328,9.8944],[76.3355,9.8854],[76.3311,9.8825],[76.3231,9.8891],[76.3183,9.8895],[76.3166,9.8968],[76.3182,9.9026],[76.3134,9.9084],[76.3135,9.9154],[76.3041,9.9334],[76.3056,9.9436],[76.3106,9.9456]],[[76.3167,9.8867],[76.3104,9.8878],[76.3047,9.9027],[76.3047,9.9191],[76.3092,9.9213],[76.3125,9.915],[76.3111,9.9082],[76.317,9.9023],[76.3153,9.8972],[76.3167,9.8867]],[[76.3297,9.8726],[76.3368,9.8651],[76.3397,9.8556],[76.3403,9.8407],[76.3426,9.8346],[76.3548,9.822],[76.3591,9.8212],[76.361,9.8167],[76.3667,9.8118],[76.361,9.8045],[76.3596,9.7961],[76.368,9.7753],[76.367,9.7608],[76.3704,9.7473],[76.369,9.7427],[76.3717,9.7389],[76.3698,9.7311],[76.3662,9.7283],[76.3665,9.7134],[76.3633,9.7029],[76.3616,9.7066],[76.3561,9.7079],[76.3541,9.7126],[76.3496,9.7145],[76.3509,9.722],[76.3472,9.7344],[76.3474,9.7498],[76.3382,9.7673],[76.3366,9.774],[76.3378,9.7792],[76.3431,9.7804],[76.3463,9.7938],[76.3342,9.8273],[76.3313,9.8325],[76.3244,9.8367],[76.3213,9.8469],[76.3224,9.8621],[76.3197,9.8651],[76.3208,9.8714],[76.3297,9.8726]],[[76.3495,9.8668],[76.3567,9.8597],[76.3657,9.8548],[76.3676,9.843],[76.3717,9.8314],[76.3623,9.8302],[76.3567,9.8335],[76.3524,9.8439],[76.3531,9.8552],[76.3479,9.861],[76.3495,9.8668]],[[76.3851,9.8419],[76.3877,9.8439],[76.395,9.8273],[76.392,9.8232],[76.3862,9.8321],[76.3876,9.8385],[76.3851,9.8419]]]},"properties":{"id":"vembanad-kol-wetland-ramsar","name":"Vembanad Kol Wetland","category":"ramsar","area_km2":1512.5}}]}