{"type":"FeatureCollection","features":[{"type":"Feature","geometry":{"type":"Polygon","coordinates":[[[86.7506,25.271],[86.7563,25.2594],[86.7598,25.2554],[86.8063,25.2539],[86.8422,25.2644],[86.8669,25.2918],[86.8872,25.295],[86.9406,25.2875],[86.9829,25.2721],[87.0127,25.2695],[87.0287,25.2694],[87.0443,25.2586],[87.0681,25.2452],[87.0842,25.2398],[87.1351,25.244],[87.1763,25.2376],[87.221,25.2454],[87.2256,25.2659],[87.2292,25.2696],[87.2019,25.2977],[87.1897,25.2973],[87.1669,25.3132],[87.1537,25.3176],[87.1371,25.3146],[87.1144,25.3018],[87.1151,25.3036],[87.0939,25.2903],[87.0785,25.2833],[87.0598,25.2763],[87.0373,25.2837],[87.0158,25.3079],[86.9865,25.3302],[86.9679,25.3353],[86.9598,25.3345],[86.9282,25.328],[86.9045,25.3375],[86.8636,25.3285],[86.855,25.3315],[86.8361,25.3313],[86.8175,25.3238],[86.8038,25.3131],[86.7758,25.2936],[86.7668,25.2837],[86.7576,25.278],[86.7506,25.271]]]},"properties":{"id":"vikramshila-gangetic-dolphin-wls","name":"Vikramshila Gangetic Dolphin Wildlife Sanctuary","category":"wls","area_km2":50}}]}