{"type":"FeatureCollection","features":[{"type":"Feature","geometry":{"type":"Polygon","coordinates":[[[76.9379,21.2779],[76.9258,21.2845],[76.9051,21.3065],[76.8892,21.302],[76.873,21.3023],[76.8719,21.299],[76.861,21.3049],[76.8513,21.3067],[76.8443,21.3116],[76.8375,21.3124],[76.8228,21.3096],[76.8181,21.3058],[76.8058,21.3031],[76.8006,21.2988],[76.7973,21.2928],[76.7887,21.2948],[76.788,21.2978],[76.7676,21.2893],[76.7749,21.2777],[76.7729,21.277],[76.7667,21.2832],[76.76,21.2832],[76.7537,21.2897],[76.7406,21.2898],[76.7422,21.2963],[76.7357,21.2993],[76.7242,21.2884],[76.747,21.2554],[76.743,21.246],[76.7465,21.2241],[76.7586,21.2232],[76.7662,21.1938],[76.7728,21.1917],[76.7759,21.1855],[76.7807,21.1864],[76.7995,21.1828],[76.8333,21.1864],[76.8487,21.191],[76.8537,21.1885],[76.8638,21.1889],[76.878,21.1915],[76.8805,21.2018],[76.8982,21.2062],[76.9016,21.211],[76.9149,21.2128],[76.9181,21.2195],[76.9254,21.2192],[76.9276,21.2045],[76.9408,21.197],[76.9457,21.2002],[76.9436,21.2098],[76.944,21.2188],[76.9535,21.2282],[76.9611,21.2273],[76.9655,21.2206],[76.9778,21.2181],[76.9908,21.2096],[76.9967,21.2105],[77.0018,21.2172],[77.0048,21.2157],[77.0097,21.2266],[77.0218,21.2342],[77.0264,21.2396],[77.0413,21.2438],[77.0381,21.2463],[77.0348,21.2551],[77.0099,21.2562],[76.9897,21.2595],[76.9451,21.2598],[76.9397,21.2604],[76.938,21.2709],[76.9409,21.2764],[76.9379,21.2779]]]},"properties":{"id":"wan-wls","name":"Wan Wildlife Sanctuary","category":"wls","area_km2":211}}]}