{"type":"FeatureCollection","features":[{"type":"Feature","geometry":{"type":"Polygon","coordinates":[[[76.2382,11.8035],[76.2269,11.8062],[76.2182,11.8143],[76.2176,11.8016],[76.2212,11.793],[76.2212,11.7824],[76.2249,11.7677],[76.2209,11.7523],[76.2258,11.7341],[76.2208,11.7198],[76.2216,11.7074],[76.2261,11.696],[76.2268,11.6874],[76.2319,11.6803],[76.2505,11.6698],[76.2566,11.6694],[76.2527,11.6809],[76.2533,11.6882],[76.2634,11.7069],[76.2726,11.7129],[76.2885,11.7129],[76.3084,11.6903],[76.3191,11.6844],[76.3244,11.678],[76.3339,11.6745],[76.3384,11.6703],[76.3381,11.6583],[76.3296,11.6469],[76.3282,11.64],[76.3293,11.6234],[76.3325,11.6124],[76.3322,11.6042],[76.339,11.5968],[76.3435,11.5886],[76.3567,11.5905],[76.367,11.5984],[76.3779,11.6019],[76.3782,11.6085],[76.3838,11.6121],[76.3832,11.6241],[76.388,11.6297],[76.4065,11.6343],[76.427,11.6335],[76.43,11.6308],[76.4433,11.6437],[76.4431,11.6496],[76.437,11.6531],[76.4311,11.6664],[76.4249,11.6714],[76.4166,11.6718],[76.4128,11.6823],[76.4131,11.6857],[76.4084,11.6897],[76.412,11.6948],[76.4082,11.7071],[76.4034,11.7078],[76.4079,11.7148],[76.4117,11.7158],[76.4135,11.7111],[76.4165,11.7176],[76.4246,11.7209],[76.4273,11.726],[76.422,11.7383],[76.4181,11.7426],[76.4129,11.7401],[76.4122,11.7519],[76.4141,11.7588],[76.3975,11.7509],[76.3933,11.755],[76.3902,11.7543],[76.3839,11.7472],[76.377,11.7445],[76.3685,11.7481],[76.3628,11.7484],[76.3525,11.7383],[76.3502,11.7402],[76.3396,11.739],[76.3291,11.7483],[76.3196,11.7505],[76.3145,11.7569],[76.3136,11.7636],[76.3107,11.7673],[76.3077,11.7842],[76.3012,11.7856],[76.2902,11.7928],[76.2849,11.8003],[76.2802,11.8116],[76.2596,11.8087],[76.25,11.8034],[76.2382,11.8035]]]},"properties":{"id":"wayanad-wls","name":"Wayanad Wildlife Sanctuary","category":"wls","area_km2":344.4}}]}