{"type":"FeatureCollection","features":[{"type":"Feature","geometry":{"type":"Polygon","coordinates":[[[88.6109,21.7048],[88.6276,21.7293],[88.6299,21.7361],[88.6297,21.7515],[88.6257,21.7712],[88.6225,21.7791],[88.6186,21.7835],[88.6031,21.7849],[88.5926,21.7832],[88.5815,21.7837],[88.574,21.7859],[88.5704,21.7932],[88.5554,21.8078],[88.5432,21.8117],[88.5162,21.7874],[88.5078,21.7712],[88.5063,21.7583],[88.5082,21.7492],[88.5132,21.7357],[88.5182,21.7308],[88.5184,21.7153],[88.5234,21.7005],[88.5281,21.6924],[88.5259,21.6865],[88.5288,21.6829],[88.5309,21.6708],[88.5262,21.6642],[88.5244,21.6532],[88.5203,21.6435],[88.5204,21.6361],[88.5236,21.6278],[88.5228,21.6236],[88.5153,21.6153],[88.5156,21.6111],[88.4933,21.5983],[88.4861,21.5883],[88.4809,21.5656],[88.4814,21.5554],[88.4875,21.5514],[88.4939,21.5503],[88.4976,21.5452],[88.5061,21.5411],[88.5156,21.5394],[88.5322,21.5433],[88.5536,21.5667],[88.5583,21.5692],[88.5664,21.5689],[88.5754,21.5742],[88.581,21.5798],[88.5895,21.5928],[88.6061,21.6146],[88.6087,21.6199],[88.6048,21.6269],[88.5984,21.6434],[88.5945,21.6492],[88.5914,21.6595],[88.6027,21.6681],[88.6086,21.6815],[88.6109,21.7048]]]},"properties":{"id":"west-sunderbans-wls","name":"West Sunderbans Wildlife Sanctuary","category":"wls","area_km2":556.5}}]}