{"type":"FeatureCollection","features":[{"type":"Feature","geometry":{"type":"Polygon","coordinates":[[[74.5604,34.2752],[74.5699,34.2792],[74.5667,34.2851],[74.5686,34.2899],[74.5925,34.2947],[74.5954,34.3023],[74.5909,34.3091],[74.595,34.3139],[74.6028,34.3078],[74.6078,34.3102],[74.6117,34.316],[74.6192,34.3181],[74.6184,34.3234],[74.6114,34.3281],[74.6204,34.3415],[74.6324,34.3367],[74.635,34.3412],[74.6499,34.3412],[74.6522,34.3454],[74.6625,34.3504],[74.6701,34.3491],[74.6783,34.3515],[74.6804,34.3564],[74.671,34.371],[74.673,34.3793],[74.6692,34.3868],[74.6601,34.3926],[74.6542,34.3912],[74.6483,34.3949],[74.6342,34.3984],[74.626,34.4057],[74.6024,34.4088],[74.5979,34.4036],[74.5868,34.4026],[74.5827,34.4054],[74.586,34.411],[74.5841,34.4208],[74.5743,34.4238],[74.5656,34.4223],[74.5602,34.4172],[74.5353,34.4055],[74.5295,34.3969],[74.5198,34.3882],[74.5174,34.3814],[74.5186,34.3763],[74.5098,34.3684],[74.5077,34.3621],[74.5132,34.3585],[74.507,34.3495],[74.5092,34.3461],[74.5043,34.3419],[74.4907,34.3348],[74.485,34.3236],[74.4842,34.3147],[74.4914,34.3089],[74.4902,34.3],[74.4831,34.2968],[74.4845,34.2879],[74.4942,34.2857],[74.5214,34.2891],[74.5277,34.2867],[74.5309,34.2816],[74.5294,34.2749],[74.5304,34.2657],[74.5476,34.2743],[74.5604,34.2752]]]},"properties":{"id":"wular-lake-ramsar","name":"Wular Lake","category":"ramsar","area_km2":189}}]}