{"type":"FeatureCollection","features":[{"type":"Feature","geometry":{"type":"Polygon","coordinates":[[[94.3207,24.3286],[94.3352,24.3324],[94.3436,24.3322],[94.354,24.3345],[94.3565,24.3452],[94.3782,24.3801],[94.3616,24.3914],[94.3078,24.4145],[94.2859,24.4348],[94.2742,24.4287],[94.2539,24.4284],[94.2444,24.4214],[94.241,24.4109],[94.2414,24.4034],[94.249,24.4009],[94.2568,24.3959],[94.2633,24.3478],[94.2544,24.3301],[94.253,24.3202],[94.2441,24.2964],[94.2429,24.2824],[94.2392,24.2851],[94.2359,24.2763],[94.2418,24.2749],[94.2425,24.2691],[94.2558,24.2648],[94.2587,24.2541],[94.2648,24.2518],[94.2661,24.2445],[94.2706,24.2439],[94.2715,24.2378],[94.2812,24.2427],[94.2853,24.2363],[94.2846,24.2313],[94.2906,24.2338],[94.2939,24.2432],[94.2894,24.2528],[94.2864,24.2555],[94.2865,24.2649],[94.2904,24.2581],[94.2946,24.2555],[94.309,24.2536],[94.3204,24.2761],[94.3207,24.3286]]]},"properties":{"id":"yangoupokpi-lokchao-wls","name":"Yangoupokpi-Lokchao Wildlife Sanctuary","category":"wls","area_km2":184.4}}]}