{"type":"FeatureCollection","features":[{"type":"Feature","geometry":{"type":"Polygon","coordinates":[[[75.7067,22.817],[75.7013,22.8234],[75.6956,22.8254],[75.6887,22.8248],[75.6803,22.808],[75.6893,22.8065],[75.6846,22.8002],[75.6899,22.8033],[75.696,22.7977],[75.6911,22.7893],[75.6907,22.7806],[75.693,22.7832],[75.6974,22.7749],[75.7007,22.7787],[75.6983,22.7849],[75.701,22.7877],[75.6991,22.7968],[75.7067,22.7879],[75.7156,22.7894],[75.7143,22.7923],[75.7072,22.7922],[75.701,22.8013],[75.7022,22.8062],[75.7077,22.8008],[75.7066,22.8071],[75.7017,22.8128],[75.7067,22.817]]]},"properties":{"id":"yashwant-sagar-ramsar","name":"Yashwant Sagar","category":"ramsar","area_km2":8.2}}]}