{"type":"FeatureCollection","features":[{"type":"Feature","geometry":{"type":"Polygon","coordinates":[[[75.8902,21.3946],[75.8739,21.3925],[75.8624,21.38],[75.8555,21.3806],[75.8523,21.3833],[75.8478,21.3814],[75.8413,21.3845],[75.8331,21.3784],[75.814,21.379],[75.8025,21.3845],[75.7819,21.3837],[75.7543,21.3798],[75.7511,21.3847],[75.7355,21.3884],[75.7276,21.3885],[75.7185,21.3844],[75.7156,21.388],[75.7095,21.3862],[75.7032,21.3881],[75.6982,21.3855],[75.6876,21.3841],[75.6848,21.3802],[75.6701,21.3746],[75.6577,21.3788],[75.6434,21.3758],[75.6387,21.3769],[75.6229,21.3752],[75.6172,21.3808],[75.6163,21.3881],[75.6036,21.3912],[75.5987,21.3857],[75.5872,21.389],[75.582,21.3849],[75.5714,21.3817],[75.579,21.3765],[75.5668,21.3743],[75.5622,21.3763],[75.5572,21.3732],[75.5578,21.379],[75.5487,21.3736],[75.5488,21.3691],[75.5564,21.3696],[75.5624,21.3626],[75.5631,21.3563],[75.5707,21.3567],[75.5789,21.3511],[75.5898,21.33],[75.5966,21.3241],[75.6207,21.3239],[75.626,21.3207],[75.6392,21.3201],[75.6461,21.326],[75.6628,21.3248],[75.6745,21.3277],[75.6817,21.3259],[75.7,21.3296],[75.7061,21.3336],[75.7261,21.3401],[75.7399,21.3398],[75.7456,21.3357],[75.7474,21.327],[75.7552,21.3251],[75.7625,21.3184],[75.7753,21.3168],[75.7804,21.3138],[75.7994,21.3115],[75.8028,21.31],[75.8263,21.3071],[75.8533,21.3108],[75.8631,21.3098],[75.8684,21.3027],[75.8775,21.3011],[75.887,21.3051],[75.8905,21.3097],[75.8909,21.3179],[75.8944,21.3231],[75.8895,21.3286],[75.8992,21.3454],[75.8994,21.3487],[75.8947,21.36],[75.8962,21.3662],[75.8942,21.3711],[75.9018,21.3754],[75.9057,21.387],[75.9024,21.3918],[75.8941,21.3912],[75.8902,21.3946]],[[75.8684,21.3603],[75.8768,21.3519],[75.8708,21.3521],[75.8679,21.3482],[75.8624,21.3487],[75.8349,21.3424],[75.8343,21.3458],[75.8392,21.3475],[75.8348,21.3514],[75.8538,21.3554],[75.853,21.3589],[75.8663,21.3645],[75.8684,21.3603]]]},"properties":{"id":"yawal-wls","name":"Yawal Wildlife Sanctuary","category":"wls","area_km2":177.5}}]}