{"type":"FeatureCollection","features":[{"type":"Feature","geometry":{"type":"Polygon","coordinates":[[[75.5625,16.3424],[75.5451,16.3466],[75.541,16.3503],[75.5287,16.356],[75.5193,16.3551],[75.5107,16.3524],[75.5069,16.3548],[75.5005,16.3544],[75.4933,16.3619],[75.4834,16.3663],[75.4855,16.3733],[75.4837,16.3771],[75.488,16.3811],[75.4891,16.3896],[75.4771,16.3924],[75.4563,16.3869],[75.4572,16.3824],[75.4531,16.3816],[75.4496,16.3864],[75.4228,16.3858],[75.412,16.3823],[75.4065,16.3783],[75.4002,16.3776],[75.4057,16.371],[75.4127,16.3663],[75.4256,16.3611],[75.4293,16.3611],[75.4368,16.355],[75.4426,16.3619],[75.4377,16.3527],[75.4513,16.3448],[75.4566,16.3523],[75.4546,16.3408],[75.4686,16.3331],[75.481,16.3332],[75.4842,16.3275],[75.49,16.326],[75.4887,16.3204],[75.4971,16.3172],[75.4994,16.32],[75.5124,16.3141],[75.5144,16.3113],[75.5271,16.3076],[75.5344,16.3088],[75.5428,16.305],[75.5463,16.3088],[75.5518,16.3035],[75.5695,16.3008],[75.5803,16.303],[75.5883,16.3018],[75.5903,16.3048],[75.599,16.306],[75.5977,16.3088],[75.6061,16.3127],[75.6077,16.3162],[75.6138,16.3182],[75.6151,16.3257],[75.6217,16.324],[75.6314,16.3246],[75.6296,16.3333],[75.6385,16.332],[75.6376,16.338],[75.6291,16.3406],[75.616,16.3419],[75.6123,16.3391],[75.6086,16.3425],[75.6039,16.3403],[75.5821,16.3401],[75.5625,16.3424]]]},"properties":{"id":"yedahalli-chinkara-wildlife-sanctury-wls","name":"Yadahalli Chinkara Wildlife Sanctuary","category":"wls","area_km2":96.4}}]}