{"type":"FeatureCollection","features":[{"type":"Feature","geometry":{"type":"Polygon","coordinates":[[[75.92,18.2962],[75.9245,18.288],[75.9221,18.2849],[75.9244,18.2761],[75.9297,18.274],[75.9261,18.2847],[75.9334,18.2865],[75.9307,18.2791],[75.9352,18.2787],[75.9356,18.2853],[75.9395,18.2865],[75.9438,18.298],[75.948,18.2966],[75.9429,18.293],[75.9406,18.2858],[75.9443,18.2855],[75.9461,18.2765],[75.9526,18.2725],[75.9655,18.2716],[75.9718,18.2777],[75.9685,18.2859],[75.9727,18.2901],[75.967,18.2912],[75.9684,18.3029],[75.9537,18.3075],[75.951,18.3032],[75.946,18.3031],[75.9475,18.3095],[75.9388,18.3194],[75.9365,18.3194],[75.9293,18.3304],[75.925,18.3324],[75.9245,18.3366],[75.9199,18.3387],[75.9136,18.3316],[75.9086,18.3304],[75.9069,18.3229],[75.9145,18.3198],[75.9121,18.3116],[75.9158,18.3064],[75.9201,18.3055],[75.92,18.2962]],[[75.9572,18.2844],[75.9533,18.2841],[75.9516,18.2882],[75.9558,18.2889],[75.9572,18.2844]]]},"properties":{"id":"yedsi-ramlinghat-wls","name":"Yedsi Ramlinghat Wildlife Sanctuary","category":"wls","area_km2":22.4}}]}