{"type":"FeatureCollection","features":[{"type":"Feature","geometry":{"type":"Polygon","coordinates":[[[94.4302,28.3987],[94.4363,28.3882],[94.4027,28.3631],[94.3995,28.3543],[94.4024,28.3449],[94.4031,28.3282],[94.3945,28.3191],[94.3813,28.3086],[94.371,28.2984],[94.3728,28.2909],[94.3824,28.2802],[94.382,28.2717],[94.3756,28.2688],[94.3746,28.2648],[94.3767,28.2554],[94.376,28.2498],[94.3678,28.2397],[94.3667,28.2099],[94.3642,28.1998],[94.3554,28.1935],[94.3543,28.1892],[94.3697,28.1825],[94.3896,28.1594],[94.4006,28.1602],[94.4116,28.1571],[94.428,28.1561],[94.4376,28.163],[94.4451,28.1643],[94.4662,28.1731],[94.4708,28.1759],[94.4747,28.1822],[94.4751,28.1913],[94.4819,28.2048],[94.4819,28.2243],[94.4904,28.2278],[94.4968,28.2347],[94.5089,28.2542],[94.5125,28.2636],[94.5193,28.2689],[94.5303,28.2708],[94.5403,28.2793],[94.551,28.2859],[94.5535,28.2899],[94.551,28.2956],[94.541,28.2997],[94.5417,28.3066],[94.5496,28.31],[94.5564,28.3198],[94.5578,28.3279],[94.5653,28.3314],[94.5717,28.337],[94.5735,28.3477],[94.5792,28.3493],[94.5788,28.3606],[94.5856,28.3615],[94.592,28.3722],[94.5909,28.3794],[94.5834,28.3936],[94.5701,28.4014],[94.5703,28.4045],[94.577,28.4073],[94.5767,28.4107],[94.5688,28.4145],[94.5617,28.4211],[94.5528,28.4258],[94.5382,28.4299],[94.5111,28.4264],[94.5015,28.4192],[94.4922,28.4045],[94.4847,28.4057],[94.4801,28.4107],[94.4672,28.4195],[94.4551,28.4227],[94.4434,28.4236],[94.4352,28.417],[94.4302,28.3987]]]},"properties":{"id":"yordi-rabe-supse-wls","name":"Yordi-Rabe Supse Wildlife Sanctuary","category":"wls","area_km2":397}}]}