{"type":"FeatureCollection","features":[{"type":"Feature","geometry":{"type":"Polygon","coordinates":[[[93.3921,24.8859],[93.3977,24.8898],[93.397,24.8948],[93.4001,24.8988],[93.3979,24.9047],[93.3899,24.9105],[93.3904,24.916],[93.3949,24.9209],[93.3926,24.9315],[93.3868,24.9306],[93.3833,24.9329],[93.3719,24.9354],[93.3667,24.9349],[93.3537,24.9274],[93.35,24.92],[93.3433,24.9124],[93.3344,24.9063],[93.3367,24.8973],[93.346,24.8896],[93.3561,24.8844],[93.3694,24.8849],[93.3825,24.8793],[93.3897,24.8813],[93.3921,24.8859]]]},"properties":{"id":"zeilad-wls","name":"Zeilad Wildlife Sanctuary","category":"wls","area_km2":21}}]}